{
  "version": 0.6,
  "generator": "Overpass API 0.7.55.7 8b86ff77",
  "osm3s": {
    "timestamp_osm_base": "2019-10-04T21:52:02Z",
    "copyright": "The data included in this document is from www.openstreetmap.org. The data is made available under ODbL."
  },
  "elements": [
    {
      "type": "node",
      "id": 325004929,
      "lat": 46.996991,
      "lon": 28.8090044,
      "tags": {
        "highway": "bus_stop",
        "name": "str. Miorița",
        "name:ru": "ул. Миорица",
        "old_name": "ул. Прянишникова",
        "public_transport": "platform"
      }
    },
    {
      "type": "node",
      "id": 325004932,
      "lat": 46.993722,
      "lon": 28.8150109,
      "tags": {
        "highway": "bus_stop",
        "name": "Campusul Academic",
        "name:ru": "Академический Городок",
        "public_transport": "platform"
      }
    },
    {
      "type": "node",
      "id": 325004934,
      "lat": 46.9931771,
      "lon": 28.8201395,
      "tags": {
        "highway": "bus_stop",
        "name": "Colegiul de Construcții",
        "name:ru": "Строительный колледж",
        "public_transport": "platform"
      }
    },
    {
      "type": "node",
      "id": 325004940,
      "lat": 46.9980181,
      "lon": 28.8203898,
      "tags": {
        "highway": "bus_stop",
        "name": "str. V. Korolenko",
        "name:ru": "ул. В. Короленко",
        "public_transport": "platform"
      }
    },
    {
      "type": "node",
      "id": 325004946,
      "lat": 47.001116,
      "lon": 28.8219818,
      "tags": {
        "highway": "bus_stop",
        "name": "str. Gh. Asachi",
        "name:ru": "ул. Георге Асаки",
        "public_transport": "platform"
      }
    },
    {
      "type": "node",
      "id": 325004949,
      "lat": 47.003521,
      "lon": 28.824314,
      "tags": {
        "highway": "bus_stop",
        "loc_name": "Academia de Politia",
        "name": "str. Gh. Tudor",
        "name:ru": "ул. Г. Тудор",
        "public_transport": "platform"
      }
    },
    {
      "type": "node",
      "id": 325004957,
      "lat": 47.0084584,
      "lon": 28.8273085,
      "tags": {
        "highway": "bus_stop",
        "name": "Piaţa Pan Halippa",
        "name:ru": "Площадь Пана Халипы",
        "public_transport": "platform"
      }
    },
    {
      "type": "node",
      "id": 325005092,
      "lat": 47.0202032,
      "lon": 28.8392228,
      "tags": {
        "bus": "yes",
        "highway": "bus_stop",
        "name": "str. Armenească",
        "name:ru": "Армянская ул.",
        "public_transport": "platform"
      }
    },
    {
      "type": "node",
      "id": 325005105,
      "lat": 47.0110807,
      "lon": 28.8582041,
      "tags": {
        "highway": "bus_stop",
        "name": "Gara Feroviara",
        "name:ru": "Железнодорожный вокзал. ЖД вокзал",
        "public_transport": "platform"
      }
    },
    {
      "type": "node",
      "id": 325005107,
      "lat": 47.0111314,
      "lon": 28.8586766,
      "tags": {
        "highway": "bus_stop",
        "name": "Gara Feroviara",
        "name:ru": "Железнодорожный вокзал. ЖД вокзал",
        "public_transport": "platform"
      }
    },
    {
      "type": "node",
      "id": 325005112,
      "lat": 47.000739,
      "lon": 28.8601763,
      "tags": {
        "highway": "bus_stop",
        "name": "str. N. Titulescu",
        "name:ru": "ул. Н. Титулеску",
        "public_transport": "platform"
      }
    },
    {
      "type": "node",
      "id": 325005120,
      "lat": 46.9932625,
      "lon": 28.8651937,
      "tags": {
        "highway": "bus_stop",
        "name": "str. Sarmizegetusa",
        "name:ru": "ул. Сармизеджетуса",
        "public_transport": "platform"
      }
    },
    {
      "type": "node",
      "id": 325005186,
      "lat": 47.0028774,
      "lon": 28.816803,
      "tags": {
        "highway": "bus_stop",
        "name": "str. Dokuciaev",
        "name:ru": "ул. Докучаева",
        "public_transport": "platform"
      }
    },
    {
      "type": "node",
      "id": 325005189,
      "lat": 46.999051,
      "lon": 28.8087899,
      "tags": {
        "highway": "bus_stop",
        "name": "Telecentru",
        "name:ru": "Телецентр",
        "public_transport": "platform"
      }
    },
    {
      "type": "node",
      "id": 325005191,
      "lat": 47.004913,
      "lon": 28.8213058,
      "tags": {
        "highway": "bus_stop",
        "loc_name": "Secenov",
        "name": "str. Gh. Tudor",
        "name:ru": "ул. Г. Тудор",
        "public_transport": "platform"
      }
    },
    {
      "type": "node",
      "id": 340053720,
      "lat": 47.0189164,
      "lon": 28.8516557,
      "tags": {
        "highway": "bus_stop",
        "name": "bd. Dumitrie Cantemir",
        "name:ru": "пр-т Дмитрия Кантемира",
        "public_transport": "platform"
      }
    },
    {
      "type": "node",
      "id": 340053722,
      "lat": 47.0136719,
      "lon": 28.8538448,
      "tags": {
        "highway": "bus_stop",
        "name": "Bulevardul Constantin Negruzzi",
        "name:ru": "бул. Негруцци",
        "name_1": "bd. Negruzzi",
        "public_transport": "platform"
      }
    },
    {
      "type": "node",
      "id": 376339068,
      "lat": 47.0083224,
      "lon": 28.8328181,
      "tags": {
        "highway": "bus_stop",
        "name": "Complexul Memorial \"Eternitate\"",
        "name:ru": "Мемориальный комплекс \"Вечность\"",
        "public_transport": "platform"
      }
    },
    {
      "type": "node",
      "id": 376339079,
      "lat": 47.0122535,
      "lon": 28.8406029,
      "tags": {
        "highway": "bus_stop",
        "name": "str. București",
        "name:ru": "улица Букурешть",
        "public_transport": "platform"
      }
    },
    {
      "type": "node",
      "id": 376339108,
      "lat": 47.0092827,
      "lon": 28.8362401,
      "tags": {
        "highway": "bus_stop",
        "name": "A. Mateevici",
        "name:ru": "А. Матеевич",
        "public_transport": "platform"
      }
    },
    {
      "type": "node",
      "id": 376339147,
      "lat": 47.0128935,
      "lon": 28.8279157,
      "tags": {
        "highway": "bus_stop",
        "name": "str. Anton Crihan",
        "name:ru": "ул. Антон Крихан",
        "public_transport": "platform"
      }
    },
    {
      "type": "node",
      "id": 376339217,
      "lat": 46.9968141,
      "lon": 28.8616505,
      "tags": {
        "highway": "bus_stop",
        "name": "str. Minsk",
        "name:ru": "Минская ул.",
        "public_transport": "platform"
      }
    },
    {
      "type": "node",
      "id": 376339245,
      "lat": 47.0049378,
      "lon": 28.8674495,
      "tags": {
        "highway": "bus_stop",
        "name": "str. Dimineții",
        "name:ru": "ул. Диминеций",
        "public_transport": "platform"
      }
    },
    {
      "type": "node",
      "id": 376339247,
      "lat": 47.0094149,
      "lon": 28.8615212,
      "tags": {
        "highway": "bus_stop",
        "name": "str. Muncești",
        "name:ru": "ул. Мунчештская",
        "public_transport": "platform"
      }
    },
    {
      "type": "node",
      "id": 376339262,
      "lat": 46.9931871,
      "lon": 28.8799737,
      "tags": {
        "highway": "bus_stop",
        "name": "str. Tomiș",
        "name:ru": "ул. Томиш",
        "public_transport": "platform"
      }
    },
    {
      "type": "node",
      "id": 376339268,
      "lat": 46.9974987,
      "lon": 28.8749532,
      "tags": {
        "highway": "bus_stop",
        "name": "str. Căușeni",
        "name:ru": "Каушанская ул.",
        "public_transport": "platform"
      }
    },
    {
      "type": "node",
      "id": 376339304,
      "lat": 47.0145921,
      "lon": 28.8548825,
      "tags": {
        "highway": "bus_stop",
        "name": "Hotel Cosmos",
        "name:ru": "Гостиница \"Космос\"",
        "public_transport": "platform"
      }
    },
    {
      "type": "node",
      "id": 376339379,
      "lat": 47.0166431,
      "lon": 28.8474454,
      "tags": {
        "highway": "bus_stop",
        "name": "Ismail",
        "name:ja": "165空港行きミニバス",
        "name:ru": "Измаил",
        "public_transport": "platform"
      }
    },
    {
      "type": "node",
      "id": 464512110,
      "lat": 46.9835425,
      "lon": 28.8778861,
      "tags": {
        "highway": "bus_stop",
        "name": "Asociaţia \"Franzeluţa\"",
        "name:ru": "ул. Буребиста",
        "public_transport": "platform"
      }
    },
    {
      "type": "node",
      "id": 1032276238,
      "lat": 47.0064518,
      "lon": 28.8249976,
      "tags": {
        "highway": "bus_stop",
        "name": "Magazin \"Fidesco\"",
        "name:ru": "Магазин \"Фидеско\"",
        "public_transport": "platform"
      }
    },
    {
      "type": "node",
      "id": 1163335402,
      "lat": 47.0075235,
      "lon": 28.8600921,
      "tags": {
        "highway": "bus_stop",
        "name": "Hidrotehnica",
        "name:ru": "Гидротехника",
        "public_transport": "platform"
      }
    },
    {
      "type": "node",
      "id": 1216583516,
      "lat": 47.0152582,
      "lon": 28.8448887,
      "tags": {
        "highway": "bus_stop",
        "name": "Bulevardul Ștefan cel Mare și Sfânt",
        "name:ro": "Bulevardul Ștefan cel Mare și Sfânt",
        "name:ru": "бульвар Штефан чел Маре",
        "public_transport": "platform"
      }
    },
    {
      "type": "node",
      "id": 1258789424,
      "lat": 46.9907753,
      "lon": 28.8676891,
      "tags": {
        "highway": "bus_stop",
        "name": "str. Butucului",
        "name:ru": "ул. Бутукулуй",
        "public_transport": "platform"
      }
    },
    {
      "type": "node",
      "id": 1482712250,
      "lat": 46.9886079,
      "lon": 28.8859487,
      "tags": {
        "highway": "bus_stop",
        "name": "Parcul de Troleibuze nr. 2",
        "name:ru": "Троллейбусный парк №2",
        "public_transport": "platform"
      }
    },
    {
      "type": "node",
      "id": 1484644401,
      "lat": 46.987022,
      "lon": 28.8730369,
      "tags": {
        "highway": "bus_stop",
        "name": "Colegiul de Transport",
        "name:ru": "Колледж Транспорта",
        "public_transport": "platform"
      }
    },
    {
      "type": "node",
      "id": 4100959489,
      "lat": 47.0027781,
      "lon": 28.8693152,
      "tags": {
        "highway": "bus_stop",
        "name": "str. Minsk",
        "name:ru": "Минская ул.",
        "public_transport": "platform"
      }
    },
    {
      "type": "node",
      "id": 4563504809,
      "lat": 46.9905633,
      "lon": 28.8835706,
      "tags": {
        "highway": "bus_stop",
        "name": "Asociaţia \"Carmez\"",
        "name:ru": "Ассоциация \"Кармез\"",
        "public_transport": "platform"
      }
    },
    {
      "type": "node",
      "id": 4563504812,
      "lat": 46.9994013,
      "lon": 28.8726835,
      "tags": {
        "highway": "bus_stop",
        "name": "Pandurilor",
        "name:ru": "ул. Пандурилор",
        "public_transport": "platform"
      }
    },
    {
      "type": "node",
      "id": 4566693255,
      "lat": 46.9855083,
      "lon": 28.8817662,
      "tags": {
        "highway": "bus_stop",
        "name": "Uzina \"Etalon\"",
        "name:ru": "Завод \"Эталон\"",
        "public_transport": "platform"
      }
    },
    {
      "type": "node",
      "id": 4884310091,
      "lat": 47.0163961,
      "lon": 28.8448429,
      "tags": {
        "highway": "bus_stop",
        "name": "UNIC",
        "name:ru": "Уник",
        "public_transport": "platform"
      }
    }
  ]
}
