{
  "type": "FeatureCollection",
  "features": [
    {
      "type": "Feature",
      "properties": {
        "type": "way",
        "id": 24760745,
        "tags": {
          "highway": "trunk",
          "junction": "roundabout",
          "lanes": "2",
          "maxspeed": "50",
          "oneway": "yes"
        }
      },
      "geometry": {
        "type": "LineString",
        "coordinates": [
          [28.8435909, 47.040655],
          [28.8436793, 47.0406165],
          [28.8437814, 47.0406004],
          [28.8438856, 47.0406084],
          [28.8439799, 47.0406397],
          [28.8440534, 47.0406907],
          [28.8440899, 47.0407523],
          [28.8441077, 47.0408266]
        ]
      }
    },
    {
      "type": "Feature",
      "properties": {
        "type": "way",
        "id": 24760758,
        "tags": {
          "highway": "primary",
          "lanes": "3",
          "maxspeed": "50",
          "name": "Strada Mihai Viteazul",
          "name:ru": "\u0443\u043b\u0438\u0446\u0430 \u041c\u0438\u0445\u0430\u044f \u0412\u0438\u0442\u044f\u0437\u0443\u043b\u0430",
          "old_name": "\u041e\u0440\u0433\u0435\u0435\u0432\u0441\u043a\u0430\u044f \u0443\u043b\u0438\u0446\u0430"
        }
      },
      "geometry": {
        "type": "LineString",
        "coordinates": [[28.8325222, 47.0426234], [28.832601, 47.0426715]]
      }
    },
    {
      "type": "Feature",
      "properties": {
        "type": "way",
        "id": 24760760,
        "tags": {
          "highway": "primary",
          "junction": "roundabout",
          "maxspeed": "50"
        }
      },
      "geometry": {
        "type": "LineString",
        "coordinates": [
          [28.8336567, 47.0435879],
          [28.8335805, 47.0436008],
          [28.8335022, 47.0436049],
          [28.833424, 47.0436],
          [28.8333481, 47.0435863],
          [28.8332766, 47.043564],
          [28.8332116, 47.043534],
          [28.8331549, 47.043497],
          [28.8331081, 47.043454],
          [28.8330725, 47.0434063]
        ]
      }
    },
    {
      "type": "Feature",
      "properties": {
        "type": "way",
        "id": 24764671,
        "tags": {
          "highway": "primary",
          "lanes": "6",
          "maxspeed": "50",
          "name": "Strada Mihai Viteazul",
          "name:ru": "\u0443\u043b\u0438\u0446\u0430 \u041c\u0438\u0445\u0430\u044f \u0412\u0438\u0442\u044f\u0437\u0443\u043b\u0430",
          "old_name": "\u041e\u0440\u0433\u0435\u0435\u0432\u0441\u043a\u0430\u044f \u0443\u043b\u0438\u0446\u0430"
        }
      },
      "geometry": {
        "type": "LineString",
        "coordinates": [
          [28.8186263, 47.0338537],
          [28.8188273, 47.0339865],
          [28.8190864, 47.0341578],
          [28.8205251, 47.0351088],
          [28.8207431, 47.0352529]
        ]
      }
    },
    {
      "type": "Feature",
      "properties": {
        "type": "way",
        "id": 24778301,
        "tags": {
          "highway": "primary",
          "lanes": "3",
          "maxspeed": "50",
          "name": "Strada Petricani",
          "name:ro": "Strada Petricani",
          "name:ru": "\u041f\u0435\u0442\u0440\u0438\u043a\u0430\u043d\u0441\u043a\u0430\u044f \u0443\u043b\u0438\u0446\u0430",
          "oneway": "yes"
        }
      },
      "geometry": {
        "type": "LineString",
        "coordinates": [
          [28.8436463, 47.0409995],
          [28.8433472, 47.0410558],
          [28.8430967, 47.0410543],
          [28.8429341, 47.0410646],
          [28.8427621, 47.041075]
        ]
      }
    },
    {
      "type": "Feature",
      "properties": {
        "type": "way",
        "id": 24778310,
        "tags": {
          "highway": "primary",
          "lanes": "3",
          "maxspeed": "50",
          "name": "Strada Mihai Viteazul",
          "name:ro": "Strada Mihai Viteazul",
          "name:ru": "\u0443\u043b\u0438\u0446\u0430 \u041c\u0438\u0445\u0430\u044f \u0412\u0438\u0442\u044f\u0437\u0443\u043b\u0430",
          "old_name": "\u041e\u0440\u0433\u0435\u0435\u0432\u0441\u043a\u0430\u044f \u0443\u043b\u0438\u0446\u0430",
          "oneway": "yes"
        }
      },
      "geometry": {
        "type": "LineString",
        "coordinates": [
          [28.8330437, 47.0432368],
          [28.8328936, 47.0430344],
          [28.832766, 47.0428838],
          [28.832601, 47.0426715]
        ]
      }
    },
    {
      "type": "Feature",
      "properties": {
        "type": "way",
        "id": 24778311,
        "tags": {
          "highway": "primary",
          "maxspeed": "50",
          "name": "Strada Petricani",
          "name:ro": "Strada Petricani",
          "name:ru": "\u041f\u0435\u0442\u0440\u0438\u043a\u0430\u043d\u0441\u043a\u0430\u044f \u0443\u043b\u0438\u0446\u0430",
          "oneway": "yes"
        }
      },
      "geometry": {
        "type": "LineString",
        "coordinates": [
          [28.8336898, 47.0429931],
          [28.8339832, 47.042975],
          [28.8342954, 47.042975],
          [28.8345559, 47.0429608],
          [28.8348344, 47.0429269],
          [28.8351792, 47.0428641],
          [28.8352771, 47.0428444],
          [28.8353961, 47.0428556]
        ]
      }
    },
    {
      "type": "Feature",
      "properties": {
        "type": "way",
        "id": 24778312,
        "tags": {
          "highway": "primary",
          "lanes": "3",
          "maxspeed": "50",
          "name": "Strada Petricani",
          "name:ro": "Strada Petricani",
          "name:ru": "\u041f\u0435\u0442\u0440\u0438\u043a\u0430\u043d\u0441\u043a\u0430\u044f \u0443\u043b\u0438\u0446\u0430",
          "oneway": "yes"
        }
      },
      "geometry": {
        "type": "LineString",
        "coordinates": [
          [28.8427621, 47.041075],
          [28.8429151, 47.0409963],
          [28.8431352, 47.0409134],
          [28.8432774, 47.0408444],
          [28.843353, 47.0407959],
          [28.8435265, 47.0407114]
        ]
      }
    },
    {
      "type": "Feature",
      "properties": {
        "type": "way",
        "id": 24778313,
        "tags": {
          "highway": "trunk",
          "lanes": "3",
          "maxspeed": "50",
          "name": "Strada Calea Orheiului",
          "name:ro": "Strada Calea Orheiului",
          "name:ru": "\u0443\u043b\u0438\u0446\u0430 \u041a\u0430\u043b\u044f \u041e\u0440\u0445\u0435\u044e\u043b\u0443\u0439",
          "oneway": "yes",
          "surface": "asphalt"
        }
      },
      "geometry": {
        "type": "LineString",
        "coordinates": [
          [28.8441077, 47.0408266],
          [28.844157, 47.0409643],
          [28.8442825, 47.0412243],
          [28.8444312, 47.0415254],
          [28.8446002, 47.0419088]
        ]
      }
    },
    {
      "type": "Feature",
      "properties": {
        "type": "way",
        "id": 24797058,
        "tags": {
          "highway": "primary",
          "lanes": "3",
          "maxspeed": "50",
          "name": "Strada Me\u0219terul Manole",
          "name:ru": "\u0443\u043b\u0438\u0446\u0430 \u041c\u0435\u0448\u0442\u0435\u0440\u0443\u043b \u041c\u0430\u043d\u043e\u043b\u0435",
          "old_name": "\u0443\u043b\u0438\u0446\u0430 \u0414\u043e\u0431\u0440\u043e\u0432\u043e\u043b\u044c\u0441\u043a\u043e\u0433\u043e",
          "oneway": "yes",
          "trolley_wire": "yes",
          "turn:lanes": "through|through|through"
        }
      },
      "geometry": {
        "type": "LineString",
        "coordinates": [
          [28.8898944, 47.0356891],
          [28.8899209, 47.0359373],
          [28.8899206, 47.0360992]
        ]
      }
    },
    {
      "type": "Feature",
      "properties": {
        "type": "way",
        "id": 24797742,
        "tags": {
          "highway": "primary",
          "lanes": "3",
          "maxspeed": "50",
          "name": "Strada Me\u0219terul Manole",
          "name:ru": "\u0443\u043b\u0438\u0446\u0430 \u041c\u0435\u0448\u0442\u0435\u0440\u0443\u043b \u041c\u0430\u043d\u043e\u043b\u0435",
          "old_name": "\u0443\u043b\u0438\u0446\u0430 \u0414\u043e\u0431\u0440\u043e\u0432\u043e\u043b\u044c\u0441\u043a\u043e\u0433\u043e",
          "oneway": "yes",
          "trolley_wire": "yes"
        }
      },
      "geometry": {
        "type": "LineString",
        "coordinates": [
          [28.8889581, 47.0359605],
          [28.8890541, 47.0357416],
          [28.8890583, 47.035722],
          [28.8890834, 47.0355962],
          [28.8890442, 47.0351069],
          [28.8888424, 47.0330004]
        ]
      }
    },
    {
      "type": "Feature",
      "properties": {
        "type": "way",
        "id": 24797743,
        "tags": {
          "highway": "primary",
          "lanes": "3",
          "maxspeed": "50",
          "name": "Strada Bogdan Voievod",
          "name:ru": "\u0443\u043b\u0438\u0446\u0430 \u0411\u043e\u0433\u0434\u0430\u043d \u0412\u043e\u0435\u0432\u043e\u0434",
          "oneway": "yes",
          "surface": "asphalt"
        }
      },
      "geometry": {
        "type": "LineString",
        "coordinates": [
          [28.8537078, 47.0429999],
          [28.8538231, 47.0430818],
          [28.8539537, 47.0431522],
          [28.8540972, 47.0432098],
          [28.8542509, 47.0432535],
          [28.8544468, 47.0432916]
        ]
      }
    },
    {
      "type": "Feature",
      "properties": {
        "type": "way",
        "id": 24797744,
        "tags": {
          "highway": "primary",
          "lanes": "3",
          "maxspeed": "50",
          "name": "Strada Bogdan Voievod",
          "name:ru": "\u0443\u043b\u0438\u0446\u0430 \u0411\u043e\u0433\u0434\u0430\u043d \u0412\u043e\u0435\u0432\u043e\u0434",
          "oneway": "yes",
          "surface": "asphalt"
        }
      },
      "geometry": {
        "type": "LineString",
        "coordinates": [
          [28.8544468, 47.0432916],
          [28.8541755, 47.0433049],
          [28.8541131, 47.0433079],
          [28.8538101, 47.0433266]
        ]
      }
    },
    {
      "type": "Feature",
      "properties": {
        "type": "way",
        "id": 24797745,
        "tags": {
          "highway": "primary",
          "lanes": "6",
          "maxspeed": "50",
          "name": "Strada Bogdan Voievod",
          "name:ru": "\u0443\u043b\u0438\u0446\u0430 \u0411\u043e\u0433\u0434\u0430\u043d \u0412\u043e\u0435\u0432\u043e\u0434",
          "surface": "asphalt"
        }
      },
      "geometry": {
        "type": "LineString",
        "coordinates": [[28.8544468, 47.0432916], [28.8546972, 47.043276]]
      }
    },
    {
      "type": "Feature",
      "properties": {
        "type": "way",
        "id": 24824961,
        "tags": {
          "highway": "trunk",
          "int_ref": "E 584",
          "lanes": "3",
          "maxspeed": "50",
          "name": "Bulevardul Rena\u015fterii Na\u0163ionale",
          "name:ro": "Bulevardul Rena\u0219terii Na\u021bionale",
          "name:ru": "\u043f\u0440\u043e\u0441\u043f\u0435\u043a\u0442 \u0420\u0435\u043d\u0430\u0448\u0442\u0435\u0440\u0438\u0439 \u041d\u0430\u0446\u0438\u043e\u043d\u0430\u043b\u0435",
          "oneway": "yes",
          "turn:lanes": "through|through|right"
        }
      },
      "geometry": {
        "type": "LineString",
        "coordinates": [
          [28.8496229, 47.0448966],
          [28.8492626, 47.0451249],
          [28.8489707, 47.045306]
        ]
      }
    },
    {
      "type": "Feature",
      "properties": {
        "type": "way",
        "id": 24848585,
        "tags": {
          "highway": "secondary",
          "lanes": "2",
          "maxspeed": "50",
          "name": "Bulevardul Alba Iulia",
          "name:ro": "Bulevardul Alba Iulia",
          "name:ru": "\u0431\u0443\u043b\u044c\u0432\u0430\u0440 \u0410\u043b\u0431\u0430-\u042e\u043b\u0438\u044f",
          "oneway": "yes",
          "trolley_wire": "yes"
        }
      },
      "geometry": {
        "type": "LineString",
        "coordinates": [
          [28.7926221, 47.0272085],
          [28.7923783, 47.027308],
          [28.792108, 47.027427],
          [28.7915814, 47.0276419]
        ]
      }
    },
    {
      "type": "Feature",
      "properties": {
        "type": "way",
        "id": 24848586,
        "tags": {
          "highway": "secondary",
          "lanes": "2",
          "maxspeed": "40",
          "name": "Strada Ion Creang\u0103",
          "name:ro": "Strada Ion Creang\u0103",
          "name:ru": "\u0443\u043b\u0438\u0446\u0430 \u0418\u043e\u043d\u0430 \u041a\u0440\u044f\u043d\u0433\u044d",
          "oneway": "yes",
          "trolley_wire": "yes"
        }
      },
      "geometry": {
        "type": "LineString",
        "coordinates": [[28.7931374, 47.0268806], [28.7934629, 47.0271983]]
      }
    },
    {
      "type": "Feature",
      "properties": {
        "type": "way",
        "id": 24848587,
        "tags": {
          "highway": "secondary",
          "lanes": "2",
          "maxspeed": "40",
          "name": "Strada Ion Creang\u0103",
          "name:ro": "Strada Ion Creang\u0103",
          "name:ru": "\u0443\u043b\u0438\u0446\u0430 \u0418\u043e\u043d\u0430 \u041a\u0440\u044f\u043d\u0433\u044d",
          "oneway": "yes",
          "trolley_wire": "yes"
        }
      },
      "geometry": {
        "type": "LineString",
        "coordinates": [[28.7934629, 47.0271983], [28.7928465, 47.0271938]]
      }
    },
    {
      "type": "Feature",
      "properties": {
        "type": "way",
        "id": 24848588,
        "tags": {
          "highway": "secondary",
          "lanes": "2",
          "maxspeed": "50",
          "name": "Bulevardul Alba Iulia",
          "name:ro": "Bulevardul Alba Iulia",
          "name:ru": "\u0431\u0443\u043b\u044c\u0432\u0430\u0440 \u0410\u043b\u0431\u0430-\u042e\u043b\u0438\u044f",
          "oneway": "yes",
          "trolley_wire": "yes"
        }
      },
      "geometry": {
        "type": "LineString",
        "coordinates": [
          [28.7915814, 47.0276419],
          [28.7918602, 47.0273466],
          [28.7920882, 47.0270794],
          [28.7922493, 47.0268741]
        ]
      }
    },
    {
      "type": "Feature",
      "properties": {
        "type": "way",
        "id": 24848589,
        "tags": {
          "highway": "secondary",
          "lanes": "6",
          "maxspeed": "50",
          "name": "Bulevardul Alba Iulia",
          "name:ro": "Bulevardul Alba Iulia",
          "name:ru": "\u0431\u0443\u043b\u044c\u0432\u0430\u0440 \u0410\u043b\u0431\u0430-\u042e\u043b\u0438\u044f",
          "trolley_wire": "yes"
        }
      },
      "geometry": {
        "type": "LineString",
        "coordinates": [
          [28.7915814, 47.0276419],
          [28.7913923, 47.027742],
          [28.7910196, 47.0279344],
          [28.7903824, 47.028245]
        ]
      }
    },
    {
      "type": "Feature",
      "properties": {
        "type": "way",
        "id": 24848593,
        "tags": {
          "highway": "secondary",
          "lanes": "2",
          "maxspeed": "40",
          "name": "Strada Ion Creang\u0103",
          "name:ro": "Strada Ion Creang\u0103",
          "name:ru": "\u0443\u043b\u0438\u0446\u0430 \u0418\u043e\u043d\u0430 \u041a\u0440\u044f\u043d\u0433\u044d",
          "trolley_wire": "yes"
        }
      },
      "geometry": {
        "type": "LineString",
        "coordinates": [
          [28.8017185, 47.0303042],
          [28.8014255, 47.0301665],
          [28.8003307, 47.0297493]
        ]
      }
    },
    {
      "type": "Feature",
      "properties": {
        "type": "way",
        "id": 24848596,
        "tags": {
          "highway": "secondary",
          "lanes": "2",
          "maxspeed": "50",
          "name": "Strada Ion Creang\u0103",
          "name:ro": "Strada Ion Creang\u0103",
          "name:ru": "\u0443\u043b\u0438\u0446\u0430 \u0418\u043e\u043d\u0430 \u041a\u0440\u044f\u043d\u0433\u044d"
        }
      },
      "geometry": {
        "type": "LineString",
        "coordinates": [
          [28.8120685, 47.0372541],
          [28.8118136, 47.0370641],
          [28.8116861, 47.0369689]
        ]
      }
    },
    {
      "type": "Feature",
      "properties": {
        "type": "way",
        "id": 24848597,
        "tags": {
          "highway": "secondary",
          "lanes": "2",
          "maxspeed": "50",
          "name": "Strada Ion Creang\u0103",
          "name:ro": "Strada Ion Creang\u0103",
          "name:ru": "\u0443\u043b\u0438\u0446\u0430 \u0418\u043e\u043d\u0430 \u041a\u0440\u044f\u043d\u0433\u044d",
          "oneway": "yes"
        }
      },
      "geometry": {
        "type": "LineString",
        "coordinates": [
          [28.8120685, 47.0372541],
          [28.8124642, 47.037459],
          [28.812634, 47.0375854]
        ]
      }
    },
    {
      "type": "Feature",
      "properties": {
        "type": "way",
        "id": 24848601,
        "tags": {
          "highway": "secondary",
          "lanes": "2",
          "maxspeed": "50",
          "name": "Strada Ion Creang\u0103",
          "name:ro": "Strada Ion Creang\u0103",
          "name:ru": "\u0443\u043b\u0438\u0446\u0430 \u0418\u043e\u043d\u0430 \u041a\u0440\u044f\u043d\u0433\u044d",
          "oneway": "yes"
        }
      },
      "geometry": {
        "type": "LineString",
        "coordinates": [
          [28.8122182, 47.0377144],
          [28.812217, 47.0376267],
          [28.8122169, 47.037495],
          [28.8121662, 47.0373678],
          [28.8120685, 47.0372541]
        ]
      }
    },
    {
      "type": "Feature",
      "properties": {
        "type": "way",
        "id": 24849099,
        "tags": {
          "highway": "trunk",
          "int_ref": "E 584",
          "lanes": "3",
          "maxspeed": "50",
          "name": "Bulevardul Rena\u015fterii Na\u0163ionale",
          "name:ro": "Bulevardul Rena\u0219terii Na\u021bionale",
          "name:ru": "\u043f\u0440\u043e\u0441\u043f\u0435\u043a\u0442 \u0420\u0435\u043d\u0430\u0448\u0442\u0435\u0440\u0438\u0439 \u041d\u0430\u0446\u0438\u043e\u043d\u0430\u043b\u0435",
          "oneway": "no"
        }
      },
      "geometry": {
        "type": "LineString",
        "coordinates": [
          [28.8517188, 47.0438011],
          [28.8508306, 47.0442548],
          [28.8496229, 47.0448966]
        ]
      }
    },
    {
      "type": "Feature",
      "properties": {
        "type": "way",
        "id": 24855029,
        "tags": {
          "highway": "trunk",
          "int_ref": "E 584",
          "lanes": "2",
          "maxspeed": "50",
          "name": "Bulevardul Rena\u0219terii Na\u021bionale",
          "name:ru": "\u043f\u0440\u043e\u0441\u043f\u0435\u043a\u0442 \u0420\u0435\u043d\u0430\u0448\u0442\u0435\u0440\u0438\u0439 \u041d\u0430\u0446\u0438\u043e\u043d\u0430\u043b\u0435",
          "oneway": "yes",
          "surface": "asphalt"
        }
      },
      "geometry": {
        "type": "LineString",
        "coordinates": [[28.853257, 47.0433523], [28.8528638, 47.0434555]]
      }
    },
    {
      "type": "Feature",
      "properties": {
        "type": "way",
        "id": 24855030,
        "tags": {
          "highway": "trunk",
          "lanes": "3",
          "maxspeed": "50",
          "name": "Strada Calea Orheiului",
          "name:ro": "Strada Calea Orheiului",
          "name:ru": "\u0443\u043b\u0438\u0446\u0430 \u041a\u0430\u043b\u044f \u041e\u0440\u0445\u0435\u044e\u043b\u0443\u0439",
          "oneway": "yes",
          "turn:lanes": "through|through|right"
        }
      },
      "geometry": {
        "type": "LineString",
        "coordinates": [
          [28.8477852, 47.0445699],
          [28.8479277, 47.0446971],
          [28.848044, 47.044801],
          [28.8482452, 47.0449732],
          [28.8482863, 47.0450113]
        ]
      }
    },
    {
      "type": "Feature",
      "properties": {
        "type": "way",
        "id": 24858480,
        "tags": {
          "highway": "primary",
          "lanes": "3",
          "maxspeed": "50",
          "name": "Strada Mihai Viteazul",
          "name:ro": "Strada Mihai Viteazul",
          "name:ru": "\u0443\u043b\u0438\u0446\u0430 \u041c\u0438\u0445\u0430\u044f \u0412\u0438\u0442\u044f\u0437\u0443\u043b\u0430",
          "old_name": "\u041e\u0440\u0433\u0435\u0435\u0432\u0441\u043a\u0430\u044f \u0443\u043b\u0438\u0446\u0430",
          "oneway": "yes"
        }
      },
      "geometry": {
        "type": "LineString",
        "coordinates": [
          [28.832601, 47.0426715],
          [28.8330673, 47.0428441],
          [28.833474, 47.0429681]
        ]
      }
    },
    {
      "type": "Feature",
      "properties": {
        "type": "way",
        "id": 24858481,
        "tags": {
          "bridge": "yes",
          "highway": "primary",
          "lanes": "3",
          "layer": "2",
          "loc_name": "Podul Mihai Viteazul",
          "loc_name:ru": "\u041e\u0440\u0433\u0435\u0435\u0432\u0441\u043a\u0438\u0439 \u041c\u043e\u0441\u0442",
          "maxspeed": "50",
          "name": "Strada Mihai Viteazul",
          "name:ru": "\u0443\u043b\u0438\u0446\u0430 \u041c\u0438\u0445\u0430\u044f \u0412\u0438\u0442\u044f\u0437\u0443\u043b\u0430",
          "old_name": "\u041e\u0440\u0433\u0435\u0435\u0432\u0441\u043a\u0430\u044f \u0443\u043b\u0438\u0446\u0430"
        }
      },
      "geometry": {
        "type": "LineString",
        "coordinates": [
          [28.8293618, 47.0406435],
          [28.8301152, 47.0411151],
          [28.8309147, 47.0416176],
          [28.8325222, 47.0426234]
        ]
      }
    },
    {
      "type": "Feature",
      "properties": {
        "type": "way",
        "id": 25108331,
        "tags": {
          "highway": "trunk",
          "int_ref": "E 584",
          "junction": "roundabout",
          "lanes": "2",
          "maxspeed": "50",
          "oneway": "yes"
        }
      },
      "geometry": {
        "type": "LineString",
        "coordinates": [
          [28.8529952, 47.0428803],
          [28.8531254, 47.042819],
          [28.8532689, 47.042792],
          [28.8534172, 47.0428014],
          [28.8535509, 47.0428461],
          [28.8536527, 47.04292]
        ]
      }
    },
    {
      "type": "Feature",
      "properties": {
        "type": "way",
        "id": 25548918,
        "tags": {
          "highway": "primary",
          "maxspeed": "50",
          "name": "Strada Petricani",
          "name:ro": "Strada Petricani",
          "name:ru": "\u041f\u0435\u0442\u0440\u0438\u043a\u0430\u043d\u0441\u043a\u0430\u044f \u0443\u043b\u0438\u0446\u0430",
          "oneway": "yes"
        }
      },
      "geometry": {
        "type": "LineString",
        "coordinates": [
          [28.8353961, 47.0428556],
          [28.8353205, 47.0429328],
          [28.8352282, 47.0429642],
          [28.8346169, 47.043172],
          [28.8344712, 47.0432391],
          [28.8342734, 47.0433179],
          [28.8341282, 47.0433762],
          [28.8338787, 47.0434786]
        ]
      }
    },
    {
      "type": "Feature",
      "properties": {
        "type": "way",
        "id": 25548919,
        "tags": {
          "highway": "primary",
          "lanes": "6",
          "maxspeed": "50",
          "name": "Strada Petricani",
          "name:ro": "Strada Petricani",
          "name:ru": "\u041f\u0435\u0442\u0440\u0438\u043a\u0430\u043d\u0441\u043a\u0430\u044f \u0443\u043b\u0438\u0446\u0430"
        }
      },
      "geometry": {
        "type": "LineString",
        "coordinates": [
          [28.8427621, 47.041075],
          [28.8426438, 47.0411062],
          [28.8422665, 47.0412154],
          [28.8422369, 47.0412246],
          [28.8421001, 47.0412668]
        ]
      }
    },
    {
      "type": "Feature",
      "properties": {
        "type": "way",
        "id": 25589165,
        "tags": {
          "highway": "trunk",
          "lanes": "3",
          "maxspeed": "50",
          "name": "Bulevardul \u0218tefan cel Mare \u0219i Sf\u00eent",
          "name:ru": "\u0431\u0443\u043b\u044c\u0432\u0430\u0440 \u0428\u0442\u0435\u0444\u0430\u043d \u0447\u0435\u043b \u041c\u0430\u0440\u0435",
          "oneway": "yes",
          "surface": "asphalt",
          "trolley_wire": "yes"
        }
      },
      "geometry": {
        "type": "LineString",
        "coordinates": [
          [28.8128351, 47.0375792],
          [28.8130733, 47.037464],
          [28.813519, 47.0372136]
        ]
      }
    },
    {
      "type": "Feature",
      "properties": {
        "type": "way",
        "id": 27168260,
        "tags": {
          "highway": "trunk",
          "lanes": "3",
          "maxspeed": "50",
          "name": "Strada Calea Orheiului",
          "name:ro": "Strada Calea Orheiului",
          "name:ru": "\u0443\u043b\u0438\u0446\u0430 \u041a\u0430\u043b\u044f \u041e\u0440\u0445\u0435\u044e\u043b\u0443\u0439",
          "oneway": "yes"
        }
      },
      "geometry": {
        "type": "LineString",
        "coordinates": [
          [28.848001, 47.0452471],
          [28.8479731, 47.0450639],
          [28.8479639, 47.0450038],
          [28.847877, 47.0447587],
          [28.8477852, 47.0445699]
        ]
      }
    },
    {
      "type": "Feature",
      "properties": {
        "type": "way",
        "id": 33080374,
        "tags": {
          "highway": "tertiary",
          "lanes": "2",
          "maxspeed": "50",
          "name": "Strada Henri Coand\u0103",
          "name:ru": "\u0443\u043b\u0438\u0446\u0430 \u0410\u043d\u0440\u0438 \u041a\u043e\u0430\u043d\u0434\u044d",
          "old_name": "\u041c\u043e\u0442\u043e\u0440\u043d\u0430\u044f \u0443\u043b\u0438\u0446\u0430",
          "oneway": "yes",
          "postal_code": "MD-2004"
        }
      },
      "geometry": {
        "type": "LineString",
        "coordinates": [
          [28.8186773, 47.0379573],
          [28.8185358, 47.0379823],
          [28.8183895, 47.0379917],
          [28.8167729, 47.0379945],
          [28.8161894, 47.0380093],
          [28.8161056, 47.0380086],
          [28.8155501, 47.038023],
          [28.8148134, 47.0380479],
          [28.8145164, 47.0380668],
          [28.8143706, 47.0380764],
          [28.8142121, 47.038093],
          [28.8140168, 47.0381185],
          [28.8137945, 47.0381548],
          [28.8137031, 47.03817],
          [28.8133366, 47.0382062]
        ]
      }
    },
    {
      "type": "Feature",
      "properties": {
        "type": "way",
        "id": 38297452,
        "tags": {
          "highway": "tertiary",
          "lanes": "2",
          "maxspeed": "50",
          "name": "Strada Columna",
          "name:ru": "\u0443\u043b\u0438\u0446\u0430 \u041a\u043e\u043b\u0443\u043c\u043d\u0430",
          "old_name": "\u0443\u043b. \u0424\u0440\u0443\u043d\u0437\u0435",
          "oneway": "yes",
          "postal_code": "MD-2004"
        }
      },
      "geometry": {
        "type": "LineString",
        "coordinates": [
          [28.8217961, 47.0359355],
          [28.8215578, 47.0360731],
          [28.8202371, 47.0369617],
          [28.8188714, 47.0378607],
          [28.8186773, 47.0379573]
        ]
      }
    },
    {
      "type": "Feature",
      "properties": {
        "type": "way",
        "id": 46909904,
        "tags": {
          "highway": "trunk",
          "lanes": "6",
          "maxspeed": "50",
          "name": "Bulevardul \u0218tefan cel Mare \u0219i Sf\u00e2nt",
          "name:-1840": "str. Millionnaia",
          "name:1840-1877": "str. Moskovskaia",
          "name:1877-1924": "str. Aleksandrovskaia",
          "name:1924-1931": "bd. Alexandru cel Bun",
          "name:1931-1944": "bd. Regele Carol II",
          "name:1944-1952": "strada Lenin",
          "name:1952-1990": "bulevardul Lenin",
          "name:bg": "\u0431\u0443\u043b. \u0421\u0442\u0435\u0444\u0430\u043d \u0412\u0435\u043b\u0438\u043a\u0438",
          "name:ro": "Bulevardul \u0218tefan cel Mare \u0219i Sf\u00e2nt",
          "name:ru": "\u0431\u0443\u043b\u044c\u0432\u0430\u0440 \u0428\u0442\u0435\u0444\u0430\u043d \u0447\u0435\u043b \u041c\u0430\u0440\u0435",
          "name_1": "bd.\u0218tefan cel Mare",
          "old_name": "bd. Alexandru cel Bun",
          "postal_code": "MD-2004",
          "surface": "asphalt",
          "trolley_wire": "yes",
          "wikipedia:ro": "Bulevardul \u0218tefan cel Mare \u0219i Sf\u00eent din Chi\u0219in\u0103u"
        }
      },
      "geometry": {
        "type": "LineString",
        "coordinates": [
          [28.8186263, 47.0338537],
          [28.8183963, 47.0339988],
          [28.8181508, 47.0341531],
          [28.8178824, 47.0343219],
          [28.8172356, 47.0347284]
        ]
      }
    },
    {
      "type": "Feature",
      "properties": {
        "type": "way",
        "id": 49359159,
        "tags": {
          "highway": "primary",
          "lanes": "2",
          "maxspeed": "50",
          "name": "Strada Me\u0219terul Manole",
          "name:ru": "\u0443\u043b\u0438\u0446\u0430 \u041c\u0435\u0448\u0442\u0435\u0440\u0443\u043b \u041c\u0430\u043d\u043e\u043b\u0435",
          "old_name": "\u0443\u043b\u0438\u0446\u0430 \u0414\u043e\u0431\u0440\u043e\u0432\u043e\u043b\u044c\u0441\u043a\u043e\u0433\u043e",
          "oneway": "yes"
        }
      },
      "geometry": {
        "type": "LineString",
        "coordinates": [
          [28.8869996, 47.0118326],
          [28.8871518, 47.011884],
          [28.8872301, 47.0119698],
          [28.8872856, 47.012059],
          [28.887323, 47.0121808],
          [28.8873449, 47.0123291]
        ]
      }
    },
    {
      "type": "Feature",
      "properties": {
        "type": "way",
        "id": 49868154,
        "tags": {
          "highway": "primary",
          "lanes": "2",
          "maxspeed": "50",
          "name": "Strada Me\u0219terul Manole",
          "name:ro": "Strada Me\u0219terul Manole",
          "name:ru": "\u0443\u043b\u0438\u0446\u0430 \u041c\u0435\u0448\u0442\u0435\u0440\u0443\u043b \u041c\u0430\u043d\u043e\u043b\u0435",
          "old_name": "\u0443\u043b\u0438\u0446\u0430 \u0414\u043e\u0431\u0440\u043e\u0432\u043e\u043b\u044c\u0441\u043a\u043e\u0433\u043e",
          "oneway": "yes",
          "trolley_wire": "yes"
        }
      },
      "geometry": {
        "type": "LineString",
        "coordinates": [
          [28.8873782, 47.0126461],
          [28.887701, 47.0157202],
          [28.887936, 47.0179583],
          [28.8881992, 47.0203916],
          [28.8882513, 47.0206556],
          [28.8882935, 47.0209881]
        ]
      }
    },
    {
      "type": "Feature",
      "properties": {
        "type": "way",
        "id": 52060155,
        "tags": {
          "highway": "primary",
          "lanes": "3",
          "maxspeed": "50",
          "name": "Strada Mihai Viteazul",
          "name:ru": "\u0443\u043b\u0438\u0446\u0430 \u041c\u0438\u0445\u0430\u044f \u0412\u0438\u0442\u044f\u0437\u0443\u043b\u0430",
          "old_name": "\u041e\u0440\u0433\u0435\u0435\u0432\u0441\u043a\u0430\u044f \u0443\u043b\u0438\u0446\u0430"
        }
      },
      "geometry": {
        "type": "LineString",
        "coordinates": [[28.8271476, 47.0392518], [28.8274454, 47.0394408]]
      }
    },
    {
      "type": "Feature",
      "properties": {
        "type": "way",
        "id": 52060158,
        "tags": {
          "highway": "secondary",
          "lanes": "6",
          "maxspeed": "50",
          "name": "Bulevardul Alba Iulia",
          "name:ro": "Bulevardul Alba Iulia",
          "name:ru": "\u0431\u0443\u043b\u044c\u0432\u0430\u0440 \u0410\u043b\u0431\u0430-\u042e\u043b\u0438\u044f",
          "old_name": "\u043f\u0440-\u0442 \u042d\u043d\u0433\u0435\u043b\u044c\u0441\u0430",
          "oneway": "no",
          "surface": "asphalt",
          "trolley_wire": "yes"
        }
      },
      "geometry": {
        "type": "LineString",
        "coordinates": [
          [28.7885584, 47.0291423],
          [28.7882692, 47.0292834],
          [28.7878242, 47.0295032],
          [28.7875547, 47.0296331]
        ]
      }
    },
    {
      "type": "Feature",
      "properties": {
        "type": "way",
        "id": 52060162,
        "tags": {
          "highway": "primary",
          "lanes": "6",
          "maxspeed": "50",
          "name": "Strada Mihai Viteazul",
          "name:ru": "\u0443\u043b\u0438\u0446\u0430 \u041c\u0438\u0445\u0430\u044f \u0412\u0438\u0442\u044f\u0437\u0443\u043b\u0430",
          "old_name": "\u041e\u0440\u0433\u0435\u0435\u0432\u0441\u043a\u0430\u044f \u0443\u043b\u0438\u0446\u0430"
        }
      },
      "geometry": {
        "type": "LineString",
        "coordinates": [
          [28.8217961, 47.0359355],
          [28.8219639, 47.0360272],
          [28.8222155, 47.0361832],
          [28.8225128, 47.0363623],
          [28.8228242, 47.0365699]
        ]
      }
    },
    {
      "type": "Feature",
      "properties": {
        "type": "way",
        "id": 52060163,
        "tags": {
          "highway": "primary",
          "lanes": "6",
          "maxspeed": "50",
          "name": "Strada Mihai Viteazul",
          "name:ru": "\u0443\u043b\u0438\u0446\u0430 \u041c\u0438\u0445\u0430\u044f \u0412\u0438\u0442\u044f\u0437\u0443\u043b\u0430",
          "old_name": "\u041e\u0440\u0433\u0435\u0435\u0432\u0441\u043a\u0430\u044f \u0443\u043b\u0438\u0446\u0430"
        }
      },
      "geometry": {
        "type": "LineString",
        "coordinates": [
          [28.8207431, 47.0352529],
          [28.8208322, 47.0353271],
          [28.8210652, 47.0354697],
          [28.821457, 47.0357105],
          [28.8215918, 47.03581],
          [28.8217961, 47.0359355]
        ]
      }
    },
    {
      "type": "Feature",
      "properties": {
        "type": "way",
        "id": 52061938,
        "tags": {
          "highway": "secondary",
          "lanes": "6",
          "maxspeed": "50",
          "name": "Bulevardul Alba Iulia",
          "name:ro": "Bulevardul Alba Iulia",
          "name:ru": "\u0431\u0443\u043b\u044c\u0432\u0430\u0440 \u0410\u043b\u0431\u0430-\u042e\u043b\u0438\u044f",
          "old_name": "\u043f\u0440-\u0442 \u042d\u043d\u0433\u0435\u043b\u044c\u0441\u0430",
          "trolley_wire": "yes"
        }
      },
      "geometry": {
        "type": "LineString",
        "coordinates": [[28.769654, 47.0384351], [28.7693329, 47.0385949]]
      }
    },
    {
      "type": "Feature",
      "properties": {
        "type": "way",
        "id": 52132049,
        "tags": {
          "highway": "primary",
          "lanes": "3",
          "maxspeed": "50",
          "name": "Strada Bogdan Voievod",
          "name:ru": "\u0443\u043b\u0438\u0446\u0430 \u0411\u043e\u0433\u0434\u0430\u043d \u0412\u043e\u0435\u0432\u043e\u0434",
          "oneway": "yes",
          "surface": "asphalt"
        }
      },
      "geometry": {
        "type": "LineString",
        "coordinates": [[28.8538101, 47.0433266], [28.8534019, 47.0433464]]
      }
    },
    {
      "type": "Feature",
      "properties": {
        "type": "way",
        "id": 52299536,
        "tags": {
          "highway": "primary",
          "lanes": "3",
          "maxspeed": "50",
          "name": "Strada Me\u0219terul Manole",
          "name:ro": "Strada Me\u0219terul Manole",
          "name:ru": "\u0443\u043b\u0438\u0446\u0430 \u041c\u0435\u0448\u0442\u0435\u0440\u0443\u043b \u041c\u0430\u043d\u043e\u043b\u0435",
          "old_name": "\u0443\u043b\u0438\u0446\u0430 \u0414\u043e\u0431\u0440\u043e\u0432\u043e\u043b\u044c\u0441\u043a\u043e\u0433\u043e",
          "oneway": "yes",
          "trolley_wire": "yes"
        }
      },
      "geometry": {
        "type": "LineString",
        "coordinates": [
          [28.8882935, 47.0209881],
          [28.8886707, 47.0246143],
          [28.8887612, 47.02542],
          [28.888772, 47.0255163],
          [28.8889551, 47.0271537],
          [28.8890327, 47.0278402],
          [28.8891088, 47.0285136],
          [28.8895833, 47.0327125],
          [28.8896204, 47.0330408],
          [28.8896674, 47.0332848]
        ]
      }
    },
    {
      "type": "Feature",
      "properties": {
        "type": "way",
        "id": 52299537,
        "tags": {
          "highway": "primary",
          "lanes": "3",
          "maxspeed": "50",
          "name": "Strada Me\u0219terul Manole",
          "name:ro": "Strada Me\u0219terul Manole",
          "name:ru": "\u0443\u043b\u0438\u0446\u0430 \u041c\u0435\u0448\u0442\u0435\u0440\u0443\u043b \u041c\u0430\u043d\u043e\u043b\u0435",
          "old_name": "\u0443\u043b\u0438\u0446\u0430 \u0414\u043e\u0431\u0440\u043e\u0432\u043e\u043b\u044c\u0441\u043a\u043e\u0433\u043e",
          "oneway": "yes",
          "trolley_wire": "yes"
        }
      },
      "geometry": {
        "type": "LineString",
        "coordinates": [
          [28.8888424, 47.0330004],
          [28.8887674, 47.0326603],
          [28.8887345, 47.0323976],
          [28.8887109, 47.0321069],
          [28.8886395, 47.0314943],
          [28.8885095, 47.0306158],
          [28.8883942, 47.0292969],
          [28.8881461, 47.0272],
          [28.8879681, 47.0254314],
          [28.8878937, 47.02473],
          [28.8874843, 47.0211198]
        ]
      }
    },
    {
      "type": "Feature",
      "properties": {
        "type": "way",
        "id": 52299542,
        "tags": {
          "highway": "primary",
          "lanes": "2",
          "maxspeed": "50",
          "name": "Strada Me\u0219terul Manole",
          "name:ro": "Strada Me\u0219terul Manole",
          "name:ru": "\u0443\u043b\u0438\u0446\u0430 \u041c\u0435\u0448\u0442\u0435\u0440\u0443\u043b \u041c\u0430\u043d\u043e\u043b\u0435",
          "old_name": "\u0443\u043b\u0438\u0446\u0430 \u0414\u043e\u0431\u0440\u043e\u0432\u043e\u043b\u044c\u0441\u043a\u043e\u0433\u043e",
          "oneway": "yes",
          "trolley_wire": "yes"
        }
      },
      "geometry": {
        "type": "LineString",
        "coordinates": [
          [28.8874843, 47.0211198],
          [28.8874564, 47.020922],
          [28.8874045, 47.0204522],
          [28.8873679, 47.0201207],
          [28.8871351, 47.0180141],
          [28.8868427, 47.0153683],
          [28.8866015, 47.0129703]
        ]
      }
    },
    {
      "type": "Feature",
      "properties": {
        "type": "way",
        "id": 61158998,
        "tags": {
          "highway": "secondary",
          "lanes": "2",
          "maxspeed": "50",
          "name": "Strada Ion Creang\u0103",
          "name:ru": "\u0443\u043b\u0438\u0446\u0430 \u0418\u043e\u043d\u0430 \u041a\u0440\u044f\u043d\u0433\u044d"
        }
      },
      "geometry": {
        "type": "LineString",
        "coordinates": [
          [28.8069419, 47.033444],
          [28.8067576, 47.0333378],
          [28.8066392, 47.0332636],
          [28.80563, 47.0326278]
        ]
      }
    },
    {
      "type": "Feature",
      "properties": {
        "type": "way",
        "id": 80346247,
        "tags": {
          "highway": "trunk",
          "lanes": "6",
          "maxspeed": "50",
          "name": "Strada Calea Orheiului",
          "name:ro": "Strada Calea Orheiului",
          "name:ru": "\u0443\u043b\u0438\u0446\u0430 \u041a\u0430\u043b\u044f \u041e\u0440\u0445\u0435\u044e\u043b\u0443\u0439",
          "oneway": "no",
          "surface": "asphalt"
        }
      },
      "geometry": {
        "type": "LineString",
        "coordinates": [
          [28.8446002, 47.0419088],
          [28.8447754, 47.0421125],
          [28.8449159, 47.0422507],
          [28.84514, 47.0424589],
          [28.8453785, 47.04266],
          [28.8458144, 47.0429675],
          [28.8462154, 47.0432577]
        ]
      }
    },
    {
      "type": "Feature",
      "properties": {
        "type": "way",
        "id": 97534907,
        "tags": {
          "highway": "primary",
          "lanes": "6",
          "maxspeed": "30",
          "name": "Strada Bogdan Voievod",
          "name:ro": "Strada Bogdan Voievod",
          "name:ru": "\u0443\u043b\u0438\u0446\u0430 \u0411\u043e\u0433\u0434\u0430\u043d \u0412\u043e\u0435\u0432\u043e\u0434",
          "surface": "asphalt"
        }
      },
      "geometry": {
        "type": "LineString",
        "coordinates": [
          [28.8546972, 47.043276],
          [28.855036, 47.0432719],
          [28.8555149, 47.0432828],
          [28.8557167, 47.0432994]
        ]
      }
    },
    {
      "type": "Feature",
      "properties": {
        "type": "way",
        "id": 110531148,
        "tags": {
          "highway": "primary",
          "lanes": "3",
          "maxspeed": "50",
          "name": "Strada Mihai Viteazul",
          "name:ro": "Strada Mihai Viteazul",
          "name:ru": "\u0443\u043b\u0438\u0446\u0430 \u041c\u0438\u0445\u0430\u044f \u0412\u0438\u0442\u044f\u0437\u0443\u043b\u0430",
          "old_name": "\u041e\u0440\u0433\u0435\u0435\u0432\u0441\u043a\u0430\u044f \u0443\u043b\u0438\u0446\u0430"
        }
      },
      "geometry": {
        "type": "LineString",
        "coordinates": [[28.8287146, 47.0402385], [28.8293618, 47.0406435]]
      }
    },
    {
      "type": "Feature",
      "properties": {
        "type": "way",
        "id": 176564409,
        "tags": {
          "highway": "trunk",
          "lanes": "3",
          "maxspeed": "50",
          "name": "Strada Calea Orheiului",
          "name:ro": "Strada Calea Orheiului",
          "name:ru": "\u0443\u043b\u0438\u0446\u0430 \u041a\u0430\u043b\u044f \u041e\u0440\u0445\u0435\u044e\u043b\u0443\u0439",
          "oneway": "yes",
          "surface": "asphalt"
        }
      },
      "geometry": {
        "type": "LineString",
        "coordinates": [
          [28.8446002, 47.0419088],
          [28.8444681, 47.0418034],
          [28.8443382, 47.0416684],
          [28.8442727, 47.0416102],
          [28.8441795, 47.0415178],
          [28.8440975, 47.0414264]
        ]
      }
    },
    {
      "type": "Feature",
      "properties": {
        "type": "way",
        "id": 208886379,
        "tags": {
          "highway": "primary",
          "lanes": "3",
          "maxspeed": "40",
          "name": "Strada Alecu Russo",
          "name:ru": "\u0443\u043b\u0438\u0446\u0430 \u0410\u043b\u0435\u043a\u0443 \u0420\u0443\u0441\u0441\u043e",
          "old_name": "\u0443\u043b\u0438\u0446\u0430 \u0424\u0435\u0434\u044c\u043a\u043e",
          "oneway": "yes",
          "postal_code": "MD-2044",
          "surface": "asphalt"
        }
      },
      "geometry": {
        "type": "LineString",
        "coordinates": [
          [28.8892244, 47.0366187],
          [28.8888194, 47.036664],
          [28.8884555, 47.0367184],
          [28.8883021, 47.036751],
          [28.8879522, 47.0368316]
        ]
      }
    },
    {
      "type": "Feature",
      "properties": {
        "type": "way",
        "id": 236106342,
        "tags": {
          "highway": "trunk",
          "int_ref": "E 584",
          "lanes": "3",
          "maxspeed": "50",
          "name": "Bulevardul Rena\u015fterii Na\u0163ionale",
          "name:ro": "Bulevardul Rena\u0219terii Na\u021bionale",
          "name:ru": "\u043f\u0440\u043e\u0441\u043f\u0435\u043a\u0442 \u0420\u0435\u043d\u0430\u0448\u0442\u0435\u0440\u0438\u0439 \u041d\u0430\u0446\u0438\u043e\u043d\u0430\u043b\u0435",
          "oneway": "yes"
        }
      },
      "geometry": {
        "type": "LineString",
        "coordinates": [
          [28.8485285, 47.0451589],
          [28.8488021, 47.0451245],
          [28.8491425, 47.0450579],
          [28.8496229, 47.0448966]
        ]
      }
    },
    {
      "type": "Feature",
      "properties": {
        "type": "way",
        "id": 236135815,
        "tags": {
          "highway": "primary",
          "lanes": "6",
          "maxspeed": "50",
          "name": "Strada Petricani",
          "name:ro": "Strada Petricani",
          "name:ru": "\u041f\u0435\u0442\u0440\u0438\u043a\u0430\u043d\u0441\u043a\u0430\u044f \u0443\u043b\u0438\u0446\u0430"
        }
      },
      "geometry": {
        "type": "LineString",
        "coordinates": [[28.8380616, 47.04229], [28.8370383, 47.0425062]]
      }
    },
    {
      "type": "Feature",
      "properties": {
        "type": "way",
        "id": 236135816,
        "tags": {
          "highway": "primary",
          "lanes": "6",
          "maxspeed": "50",
          "name": "Strada Petricani",
          "name:ro": "Strada Petricani",
          "name:ru": "\u041f\u0435\u0442\u0440\u0438\u043a\u0430\u043d\u0441\u043a\u0430\u044f \u0443\u043b\u0438\u0446\u0430"
        }
      },
      "geometry": {
        "type": "LineString",
        "coordinates": [[28.8386235, 47.0421768], [28.8380616, 47.04229]]
      }
    },
    {
      "type": "Feature",
      "properties": {
        "type": "way",
        "id": 236135817,
        "tags": {
          "highway": "primary",
          "lanes": "6",
          "maxspeed": "50",
          "name": "Strada Petricani",
          "name:ro": "Strada Petricani",
          "name:ru": "\u041f\u0435\u0442\u0440\u0438\u043a\u0430\u043d\u0441\u043a\u0430\u044f \u0443\u043b\u0438\u0446\u0430"
        }
      },
      "geometry": {
        "type": "LineString",
        "coordinates": [
          [28.8421001, 47.0412668],
          [28.8415711, 47.0414191],
          [28.8413564, 47.0414842]
        ]
      }
    },
    {
      "type": "Feature",
      "properties": {
        "type": "way",
        "id": 236139337,
        "tags": {
          "highway": "primary",
          "lanes": "6",
          "maxspeed": "30",
          "name": "Strada Bogdan Voievod",
          "name:ro": "str. Bogdan Voievod",
          "name:ru": "\u0443\u043b\u0438\u0446\u0430 \u0411\u043e\u0433\u0434\u0430\u043d \u0412\u043e\u0435\u0432\u043e\u0434",
          "oneway": "no",
          "surface": "asphalt"
        }
      },
      "geometry": {
        "type": "LineString",
        "coordinates": [
          [28.860172, 47.0441162],
          [28.8604837, 47.0441793],
          [28.8606297, 47.0442088]
        ]
      }
    },
    {
      "type": "Feature",
      "properties": {
        "type": "way",
        "id": 236319211,
        "tags": {
          "highway": "trunk",
          "lanes": "6",
          "maxspeed": "50",
          "name": "Bulevardul \u0218tefan cel Mare \u0219i Sf\u00eent",
          "name:-1840": "str. Millionnaia",
          "name:1840-1877": "str. Moskovskaia",
          "name:1877-1924": "str. Aleksandrovskaia",
          "name:1924-1931": "bd. Alexandru cel Bun",
          "name:1931-1944": "bd. Regele Carol II",
          "name:1944-1952": "strada Lenin",
          "name:1952-1990": "bulevardul Lenin",
          "name:bg": "\u0431\u0443\u043b. \u0421\u0442\u0435\u0444\u0430\u043d \u0412\u0435\u043b\u0438\u043a\u0438",
          "name:ro": "Bulevardul \u0218tefan cel Mare \u0219i Sf\u00e2nt",
          "name:ru": "\u0431\u0443\u043b\u044c\u0432\u0430\u0440 \u0428\u0442\u0435\u0444\u0430\u043d \u0447\u0435\u043b \u041c\u0430\u0440\u0435",
          "name_1": "bd.\u0218tefan cel Mare",
          "old_name": "bd. Alexandru cel Bun",
          "postal_code": "MD-2004",
          "surface": "asphalt",
          "trolley_wire": "yes",
          "wikipedia:ro": "Bulevardul \u0218tefan cel Mare \u0219i Sf\u00eent din Chi\u0219in\u0103u"
        }
      },
      "geometry": {
        "type": "LineString",
        "coordinates": [[28.8145437, 47.0365194], [28.8141019, 47.0368146]]
      }
    },
    {
      "type": "Feature",
      "properties": {
        "type": "way",
        "id": 236319214,
        "tags": {
          "highway": "trunk",
          "lanes": "6",
          "maxspeed": "50",
          "name": "Bulevardul \u0218tefan cel Mare \u0219i Sf\u00e2nt",
          "name:-1840": "str. Millionnaia",
          "name:1840-1877": "str. Moskovskaia",
          "name:1877-1924": "str. Aleksandrovskaia",
          "name:1924-1931": "bd. Alexandru cel Bun",
          "name:1931-1944": "bd. Regele Carol II",
          "name:1944-1952": "strada Lenin",
          "name:1952-1990": "bulevardul Lenin",
          "name:ro": "Bulevardul \u0218tefan cel Mare \u0219i Sf\u00e2nt",
          "name:ru": "\u0431\u0443\u043b\u044c\u0432\u0430\u0440 \u0428\u0442\u0435\u0444\u0430\u043d \u0447\u0435\u043b \u041c\u0430\u0440\u0435",
          "name_1": "bd.\u0218tefan cel Mare",
          "old_name": "bd. Alexandru cel Bun",
          "postal_code": "MD-2004",
          "surface": "asphalt",
          "trolley_wire": "yes",
          "wikipedia:ro": "Bulevardul \u0218tefan cel Mare \u0219i Sf\u00eent din Chi\u0219in\u0103u"
        }
      },
      "geometry": {
        "type": "LineString",
        "coordinates": [[28.8172356, 47.0347284], [28.8145437, 47.0365194]]
      }
    },
    {
      "type": "Feature",
      "properties": {
        "type": "way",
        "id": 236319217,
        "tags": {
          "highway": "trunk",
          "lanes": "6",
          "maxspeed": "50",
          "name": "Bulevardul \u0218tefan cel Mare \u0219i Sf\u00eent",
          "name:-1840": "str. Millionnaia",
          "name:1840-1877": "str. Moskovskaia",
          "name:1877-1924": "str. Aleksandrovskaia",
          "name:1924-1931": "bd. Alexandru cel Bun",
          "name:1931-1944": "bd. Regele Carol II",
          "name:1944-1952": "strada Lenin",
          "name:1952-1990": "bulevardul Lenin",
          "name:bg": "\u0431\u0443\u043b. \u0421\u0442\u0435\u0444\u0430\u043d \u0412\u0435\u043b\u0438\u043a\u0438",
          "name:ro": "Bulevardul \u0218tefan cel Mare \u0219i Sf\u00e2nt",
          "name:ru": "\u0431\u0443\u043b\u044c\u0432\u0430\u0440 \u0428\u0442\u0435\u0444\u0430\u043d \u0447\u0435\u043b \u041c\u0430\u0440\u0435",
          "name_1": "bd. \u0218tefan cel Mare",
          "old_name": "bd. Alexandru cel Bun",
          "postal_code": "MD-2004",
          "surface": "asphalt",
          "trolley_wire": "yes"
        }
      },
      "geometry": {
        "type": "LineString",
        "coordinates": [[28.8141019, 47.0368146], [28.813519, 47.0372136]]
      }
    },
    {
      "type": "Feature",
      "properties": {
        "type": "way",
        "id": 236730807,
        "tags": {
          "highway": "primary",
          "lanes": "6",
          "maxspeed": "50",
          "name": "Strada Mihai Viteazul",
          "name:ru": "\u0443\u043b\u0438\u0446\u0430 \u041c\u0438\u0445\u0430\u044f \u0412\u0438\u0442\u044f\u0437\u0443\u043b\u0430",
          "old_name": "\u041e\u0440\u0433\u0435\u0435\u0432\u0441\u043a\u0430\u044f \u0443\u043b\u0438\u0446\u0430"
        }
      },
      "geometry": {
        "type": "LineString",
        "coordinates": [
          [28.8253354, 47.038142],
          [28.8255326, 47.0382633],
          [28.8255679, 47.0382865],
          [28.8263876, 47.038793]
        ]
      }
    },
    {
      "type": "Feature",
      "properties": {
        "type": "way",
        "id": 236878982,
        "tags": {
          "highway": "primary",
          "lanes": "6",
          "maxspeed": "50",
          "name": "Strada Mihai Viteazul",
          "name:ru": "\u0443\u043b\u0438\u0446\u0430 \u041c\u0438\u0445\u0430\u044f \u0412\u0438\u0442\u044f\u0437\u0443\u043b\u0430",
          "old_name": "\u041e\u0440\u0433\u0435\u0435\u0432\u0441\u043a\u0430\u044f \u0443\u043b\u0438\u0446\u0430"
        }
      },
      "geometry": {
        "type": "LineString",
        "coordinates": [
          [28.8263876, 47.038793],
          [28.8265689, 47.038899],
          [28.8269085, 47.0391123]
        ]
      }
    },
    {
      "type": "Feature",
      "properties": {
        "type": "way",
        "id": 236878983,
        "tags": {
          "highway": "primary",
          "lanes": "3",
          "maxspeed": "50",
          "name": "Strada Mihai Viteazul",
          "name:ru": "\u0443\u043b\u0438\u0446\u0430 \u041c\u0438\u0445\u0430\u044f \u0412\u0438\u0442\u044f\u0437\u0443\u043b\u0430",
          "old_name": "\u041e\u0440\u0433\u0435\u0435\u0432\u0441\u043a\u0430\u044f \u0443\u043b\u0438\u0446\u0430"
        }
      },
      "geometry": {
        "type": "LineString",
        "coordinates": [[28.8245724, 47.0376559], [28.8253354, 47.038142]]
      }
    },
    {
      "type": "Feature",
      "properties": {
        "type": "way",
        "id": 236878984,
        "tags": {
          "highway": "primary",
          "lanes": "3",
          "maxspeed": "50",
          "name": "Strada Mihai Viteazul",
          "name:ru": "\u0443\u043b\u0438\u0446\u0430 \u041c\u0438\u0445\u0430\u044f \u0412\u0438\u0442\u044f\u0437\u0443\u043b\u0430",
          "old_name": "\u041e\u0440\u0433\u0435\u0435\u0432\u0441\u043a\u0430\u044f \u0443\u043b\u0438\u0446\u0430"
        }
      },
      "geometry": {
        "type": "LineString",
        "coordinates": [[28.8269085, 47.0391123], [28.8271476, 47.0392518]]
      }
    },
    {
      "type": "Feature",
      "properties": {
        "type": "way",
        "id": 237157428,
        "tags": {
          "highway": "trunk",
          "lanes": "3",
          "maxspeed": "50",
          "name": "Strada Calea Orheiului",
          "name:ro": "Strada Calea Orheiului",
          "name:ru": "\u0443\u043b\u0438\u0446\u0430 \u041a\u0430\u043b\u044f \u041e\u0440\u0445\u0435\u044e\u043b\u0443\u0439"
        }
      },
      "geometry": {
        "type": "LineString",
        "coordinates": [[28.8474274, 47.0442041], [28.8477852, 47.0445699]]
      }
    },
    {
      "type": "Feature",
      "properties": {
        "type": "way",
        "id": 237157429,
        "tags": {
          "highway": "trunk",
          "lanes": "3",
          "maxspeed": "50",
          "name": "Strada Calea Orheiului",
          "name:ro": "Strada Calea Orheiului",
          "name:ru": "\u0443\u043b\u0438\u0446\u0430 \u041a\u0430\u043b\u044f \u041e\u0440\u0445\u0435\u044e\u043b\u0443\u0439"
        }
      },
      "geometry": {
        "type": "LineString",
        "coordinates": [[28.8472773, 47.0440582], [28.8474274, 47.0442041]]
      }
    },
    {
      "type": "Feature",
      "properties": {
        "type": "way",
        "id": 237157430,
        "tags": {
          "highway": "trunk",
          "lanes": "3",
          "maxspeed": "50",
          "name": "Strada Calea Orheiului",
          "name:ro": "Strada Calea Orheiului",
          "name:ru": "\u0443\u043b\u0438\u0446\u0430 \u041a\u0430\u043b\u044f \u041e\u0440\u0445\u0435\u044e\u043b\u0443\u0439"
        }
      },
      "geometry": {
        "type": "LineString",
        "coordinates": [
          [28.8462154, 47.0432577],
          [28.8465383, 47.0434861],
          [28.8468295, 47.0436958],
          [28.8471327, 47.0439381],
          [28.8472773, 47.0440582]
        ]
      }
    },
    {
      "type": "Feature",
      "properties": {
        "type": "way",
        "id": 237157431,
        "tags": {
          "highway": "primary",
          "lanes": "3",
          "maxspeed": "6",
          "name": "Strada Petricani",
          "name:ro": "Strada Petricani",
          "name:ru": "\u041f\u0435\u0442\u0440\u0438\u043a\u0430\u043d\u0441\u043a\u0430\u044f \u0443\u043b\u0438\u0446\u0430"
        }
      },
      "geometry": {
        "type": "LineString",
        "coordinates": [
          [28.839181, 47.0420527],
          [28.8391096, 47.0420717],
          [28.8389942, 47.0420965]
        ]
      }
    },
    {
      "type": "Feature",
      "properties": {
        "type": "way",
        "id": 237157432,
        "tags": {
          "highway": "primary",
          "lanes": "6",
          "maxspeed": "50",
          "name": "Strada Petricani",
          "name:ro": "Strada Petricani",
          "name:ru": "\u041f\u0435\u0442\u0440\u0438\u043a\u0430\u043d\u0441\u043a\u0430\u044f \u0443\u043b\u0438\u0446\u0430"
        }
      },
      "geometry": {
        "type": "LineString",
        "coordinates": [[28.8401455, 47.0418288], [28.8397415, 47.0419298]]
      }
    },
    {
      "type": "Feature",
      "properties": {
        "type": "way",
        "id": 237157433,
        "tags": {
          "highway": "primary",
          "lanes": "6",
          "maxspeed": "50",
          "name": "Strada Petricani",
          "name:ro": "Strada Petricani",
          "name:ru": "\u041f\u0435\u0442\u0440\u0438\u043a\u0430\u043d\u0441\u043a\u0430\u044f \u0443\u043b\u0438\u0446\u0430"
        }
      },
      "geometry": {
        "type": "LineString",
        "coordinates": [
          [28.8413564, 47.0414842],
          [28.8405768, 47.041713],
          [28.8401455, 47.0418288]
        ]
      }
    },
    {
      "type": "Feature",
      "properties": {
        "type": "way",
        "id": 300961675,
        "tags": {
          "highway": "primary",
          "junction": "roundabout",
          "lanes": "3",
          "surface": "asphalt"
        }
      },
      "geometry": {
        "type": "LineString",
        "coordinates": [[28.8614978, 47.0442741], [28.8615326, 47.0443016]]
      }
    },
    {
      "type": "Feature",
      "properties": {
        "type": "way",
        "id": 300961676,
        "tags": {
          "highway": "primary",
          "lanes": "3",
          "maxspeed": "50",
          "name": "Strada Bogdan Voievod",
          "name:ro": "str. Bogdan Voievod",
          "name:ru": "\u0443\u043b\u0438\u0446\u0430 \u0411\u043e\u0433\u0434\u0430\u043d \u0412\u043e\u0435\u0432\u043e\u0434",
          "oneway": "yes",
          "surface": "asphalt"
        }
      },
      "geometry": {
        "type": "LineString",
        "coordinates": [
          [28.8612627, 47.0444322],
          [28.8611908, 47.0443903],
          [28.8611353, 47.0443676],
          [28.8609577, 47.0443118],
          [28.8607385, 47.0442317]
        ]
      }
    },
    {
      "type": "Feature",
      "properties": {
        "type": "way",
        "id": 311137951,
        "tags": {
          "highway": "secondary",
          "lanes": "6",
          "maxspeed": "50",
          "name": "Bulevardul Alba Iulia",
          "name:ro": "Bulevardul Alba Iulia",
          "name:ru": "\u0431\u0443\u043b\u044c\u0432\u0430\u0440 \u0410\u043b\u0431\u0430-\u042e\u043b\u0438\u044f",
          "old_name": "\u043f\u0440-\u0442 \u042d\u043d\u0433\u0435\u043b\u044c\u0441\u0430",
          "trolley_wire": "yes"
        }
      },
      "geometry": {
        "type": "LineString",
        "coordinates": [
          [28.7758301, 47.0353956],
          [28.7756771, 47.0354684],
          [28.7754533, 47.0355833],
          [28.7752766, 47.0356741]
        ]
      }
    },
    {
      "type": "Feature",
      "properties": {
        "type": "way",
        "id": 320548207,
        "tags": {
          "highway": "secondary",
          "lanes": "2",
          "maxspeed": "40",
          "name": "Strada Ion Creang\u0103",
          "name:ro": "Strada Ion Creang\u0103",
          "name:ru": "\u0443\u043b\u0438\u0446\u0430 \u0418\u043e\u043d\u0430 \u041a\u0440\u044f\u043d\u0433\u044d",
          "trolley_wire": "yes"
        }
      },
      "geometry": {
        "type": "LineString",
        "coordinates": [[28.795541, 47.0279685], [28.7952127, 47.0278436]]
      }
    },
    {
      "type": "Feature",
      "properties": {
        "type": "way",
        "id": 344600092,
        "tags": {
          "highway": "trunk",
          "int_ref": "E 584",
          "maxspeed": "50",
          "name": "Bulevardul Rena\u0219terii Na\u021bionale",
          "name:ru": "\u043f\u0440\u043e\u0441\u043f\u0435\u043a\u0442 \u0420\u0435\u043d\u0430\u0448\u0442\u0435\u0440\u0438\u0439 \u041d\u0430\u0446\u0438\u043e\u043d\u0430\u043b\u0435",
          "old_name": "\u043f\u0440\u043e\u0441\u043f\u0435\u043a\u0442 \u041c\u043e\u043b\u043e\u0434\u0451\u0436\u0438",
          "oneway": "yes",
          "surface": "asphalt"
        }
      },
      "geometry": {
        "type": "LineString",
        "coordinates": [
          [28.8517188, 47.0438011],
          [28.8518721, 47.0436769],
          [28.8520064, 47.0436086],
          [28.8521484, 47.0435371],
          [28.8522939, 47.0434491],
          [28.8524864, 47.0433086],
          [28.8526971, 47.0431416]
        ]
      }
    },
    {
      "type": "Feature",
      "properties": {
        "type": "way",
        "id": 349539998,
        "tags": {
          "highway": "trunk",
          "int_ref": "E 584",
          "lanes": "2",
          "maxspeed": "50",
          "name": "Bulevardul Rena\u0219terii Na\u021bionale",
          "name:ru": "\u043f\u0440\u043e\u0441\u043f\u0435\u043a\u0442 \u0420\u0435\u043d\u0430\u0448\u0442\u0435\u0440\u0438\u0439 \u041d\u0430\u0446\u0438\u043e\u043d\u0430\u043b\u0435",
          "oneway": "yes",
          "surface": "asphalt"
        }
      },
      "geometry": {
        "type": "LineString",
        "coordinates": [
          [28.8528638, 47.0434555],
          [28.8524797, 47.043552],
          [28.8522114, 47.0436321],
          [28.851972, 47.0437295],
          [28.8517188, 47.0438011]
        ]
      }
    },
    {
      "type": "Feature",
      "properties": {
        "type": "way",
        "id": 382892301,
        "tags": {
          "foot": "no",
          "highway": "primary",
          "lanes": "3",
          "maxspeed": "50",
          "name": "Strada Alecu Russo",
          "name:ru": "\u0443\u043b\u0438\u0446\u0430 \u0410\u043b\u0435\u043a\u0443 \u0420\u0443\u0441\u0441\u043e",
          "old_name": "\u0443\u043b\u0438\u0446\u0430 \u0424\u0435\u0434\u044c\u043a\u043e",
          "oneway": "yes",
          "surface": "asphalt"
        }
      },
      "geometry": {
        "type": "LineString",
        "coordinates": [
          [28.882144, 47.0392658],
          [28.8822381, 47.039241],
          [28.8833371, 47.0388731]
        ]
      }
    },
    {
      "type": "Feature",
      "properties": {
        "type": "way",
        "id": 382894023,
        "tags": {
          "highway": "primary",
          "lanes": "3",
          "maxspeed": "50",
          "name": "Strada Alecu Russo",
          "name:ru": "\u0443\u043b\u0438\u0446\u0430 \u0410\u043b\u0435\u043a\u0443 \u0420\u0443\u0441\u0441\u043e",
          "old_name": "\u0443\u043b\u0438\u0446\u0430 \u0424\u0435\u0434\u044c\u043a\u043e",
          "oneway": "yes"
        }
      },
      "geometry": {
        "type": "LineString",
        "coordinates": [
          [28.8821901, 47.0395139],
          [28.8820087, 47.0395685],
          [28.8816006, 47.0396813],
          [28.8813101, 47.039739]
        ]
      }
    },
    {
      "type": "Feature",
      "properties": {
        "type": "way",
        "id": 382897093,
        "tags": {
          "highway": "primary",
          "lanes": "3",
          "maxspeed": "50",
          "name": "Strada Alecu Russo",
          "name:ro": "Strada Alecu Russo",
          "name:ru": "\u0443\u043b\u0438\u0446\u0430 \u0410\u043b\u0435\u043a\u0443 \u0420\u0443\u0441\u0441\u043e",
          "old_name": "\u0443\u043b\u0438\u0446\u0430 \u0424\u0435\u0434\u044c\u043a\u043e",
          "oneway": "yes",
          "surface": "asphalt"
        }
      },
      "geometry": {
        "type": "LineString",
        "coordinates": [
          [28.8615326, 47.0443016],
          [28.8615867, 47.0443293],
          [28.8616432, 47.0443423],
          [28.8617425, 47.0443486],
          [28.8618149, 47.0443477],
          [28.8619601, 47.0443372],
          [28.8621488, 47.0443194]
        ]
      }
    },
    {
      "type": "Feature",
      "properties": {
        "type": "way",
        "id": 383160938,
        "tags": {
          "foot": "no",
          "highway": "primary",
          "lanes": "8",
          "maxspeed": "50",
          "name": "Strada Alecu Russo",
          "name:ru": "\u0443\u043b\u0438\u0446\u0430 \u0410\u043b\u0435\u043a\u0443 \u0420\u0443\u0441\u0441\u043e",
          "old_name": "\u0443\u043b\u0438\u0446\u0430 \u0424\u0435\u0434\u044c\u043a\u043e",
          "postal_code": "MD-2044",
          "surface": "asphalt"
        }
      },
      "geometry": {
        "type": "LineString",
        "coordinates": [
          [28.8813101, 47.039739],
          [28.8810632, 47.0398385],
          [28.8804139, 47.0400814]
        ]
      }
    },
    {
      "type": "Feature",
      "properties": {
        "type": "way",
        "id": 415152465,
        "tags": {
          "foot": "no",
          "highway": "primary",
          "lanes": "3",
          "maxspeed": "50",
          "name": "Strada Alecu Russo",
          "name:ro": "Strada Alecu Russo",
          "name:ru": "\u0443\u043b\u0438\u0446\u0430 \u0410\u043b\u0435\u043a\u0443 \u0420\u0443\u0441\u0441\u043e",
          "old_name": "\u0443\u043b\u0438\u0446\u0430 \u0424\u0435\u0434\u044c\u043a\u043e",
          "oneway": "yes",
          "postal_code": "MD-2044",
          "surface": "asphalt"
        }
      },
      "geometry": {
        "type": "LineString",
        "coordinates": [
          [28.861947, 47.0443896],
          [28.8618218, 47.0444135],
          [28.8617181, 47.0444325],
          [28.8615667, 47.044452],
          [28.8614665, 47.0444612]
        ]
      }
    },
    {
      "type": "Feature",
      "properties": {
        "type": "way",
        "id": 456332977,
        "tags": {
          "highway": "primary",
          "lanes": "3",
          "maxspeed": "50",
          "name": "Strada Alecu Russo",
          "name:ru": "\u0443\u043b\u0438\u0446\u0430 \u0410\u043b\u0435\u043a\u0443 \u0420\u0443\u0441\u0441\u043e",
          "old_name": "\u0443\u043b\u0438\u0446\u0430 \u0424\u0435\u0434\u044c\u043a\u043e",
          "oneway": "yes"
        }
      },
      "geometry": {
        "type": "LineString",
        "coordinates": [
          [28.8813101, 47.039739],
          [28.8815096, 47.0396076],
          [28.881682, 47.03951],
          [28.8819018, 47.0393776],
          [28.8819498, 47.0393459]
        ]
      }
    },
    {
      "type": "Feature",
      "properties": {
        "type": "way",
        "id": 460715187,
        "tags": {
          "highway": "secondary",
          "lanes": "2",
          "maxspeed": "50",
          "name": "Bulevardul Alba Iulia",
          "name:ro": "Bulevardul Alba Iulia",
          "name:ru": "\u0431\u0443\u043b\u044c\u0432\u0430\u0440 \u0410\u043b\u0431\u0430-\u042e\u043b\u0438\u044f",
          "old_name": "\u043f\u0440-\u0442 \u042d\u043d\u0433\u0435\u043b\u044c\u0441\u0430",
          "surface": "asphalt",
          "trolley_wire": "yes"
        }
      },
      "geometry": {
        "type": "LineString",
        "coordinates": [[28.7638784, 47.041268], [28.7631948, 47.0416004]]
      }
    },
    {
      "type": "Feature",
      "properties": {
        "type": "way",
        "id": 461102214,
        "tags": {
          "highway": "primary",
          "lanes": "2",
          "maxspeed": "50",
          "name": "Strada Me\u0219terul Manole",
          "name:ru": "\u0443\u043b\u0438\u0446\u0430 \u041c\u0435\u0448\u0442\u0435\u0440\u0443\u043b \u041c\u0430\u043d\u043e\u043b\u0435",
          "old_name": "\u0443\u043b\u0438\u0446\u0430 \u0414\u043e\u0431\u0440\u043e\u0432\u043e\u043b\u044c\u0441\u043a\u043e\u0433\u043e",
          "oneway": "yes",
          "trolley_wire": "yes"
        }
      },
      "geometry": {
        "type": "LineString",
        "coordinates": [
          [28.8873449, 47.0123291],
          [28.8873541, 47.0124164],
          [28.88737, 47.0125683],
          [28.8873782, 47.0126461]
        ]
      }
    },
    {
      "type": "Feature",
      "properties": {
        "type": "way",
        "id": 461102215,
        "tags": {
          "highway": "primary",
          "lanes": "2",
          "maxspeed": "50",
          "name": "Strada Me\u0219terul Manole",
          "name:ru": "\u0443\u043b\u0438\u0446\u0430 \u041c\u0435\u0448\u0442\u0435\u0440\u0443\u043b \u041c\u0430\u043d\u043e\u043b\u0435",
          "old_name": "\u0443\u043b\u0438\u0446\u0430 \u0414\u043e\u0431\u0440\u043e\u0432\u043e\u043b\u044c\u0441\u043a\u043e\u0433\u043e",
          "oneway": "yes",
          "trolley_wire": "yes"
        }
      },
      "geometry": {
        "type": "LineString",
        "coordinates": [
          [28.8866015, 47.0129703],
          [28.8865504, 47.0125531],
          [28.8865125, 47.0122622],
          [28.8865221, 47.0121057],
          [28.8865696, 47.0119699],
          [28.8866513, 47.0118949],
          [28.8867598, 47.011837],
          [28.8869996, 47.0118326]
        ]
      }
    },
    {
      "type": "Feature",
      "properties": {
        "type": "way",
        "id": 461131169,
        "tags": {
          "highway": "secondary",
          "lanes": "2",
          "maxspeed": "50",
          "name": "Strada Alba Iulia",
          "name:ru": "\u0443\u043b\u0438\u0446\u0430 \u0410\u043b\u0431\u0430-\u042e\u043b\u0438\u044f",
          "old_name": "\u043f\u0440-\u0442 \u042d\u043d\u0433\u0435\u043b\u044c\u0441\u0430",
          "trolley_wire": "yes"
        }
      },
      "geometry": {
        "type": "LineString",
        "coordinates": [[28.7642626, 47.0410731], [28.7638784, 47.041268]]
      }
    },
    {
      "type": "Feature",
      "properties": {
        "type": "way",
        "id": 461138197,
        "tags": {
          "highway": "secondary",
          "lanes": "2",
          "maxspeed": "40",
          "name": "Strada Ion Creang\u0103",
          "name:ru": "\u0443\u043b\u0438\u0446\u0430 \u0418\u043e\u043d\u0430 \u041a\u0440\u044f\u043d\u0433\u044d",
          "trolley_wire": "yes"
        }
      },
      "geometry": {
        "type": "LineString",
        "coordinates": [[28.796254, 47.0282277], [28.795541, 47.0279685]]
      }
    },
    {
      "type": "Feature",
      "properties": {
        "type": "way",
        "id": 549188166,
        "tags": {
          "highway": "primary",
          "junction": "roundabout",
          "lanes": "3",
          "surface": "asphalt"
        }
      },
      "geometry": {
        "type": "LineString",
        "coordinates": [
          [28.8614665, 47.0444612],
          [28.861413, 47.0444726],
          [28.861357, 47.0444712],
          [28.8613049, 47.0444572],
          [28.8612627, 47.0444322]
        ]
      }
    },
    {
      "type": "Feature",
      "properties": {
        "type": "way",
        "id": 584676297,
        "tags": {
          "highway": "trunk",
          "junction": "roundabout",
          "lanes": "3",
          "maxspeed": "50",
          "name": "Pia\u021ba Dimitrie Cantemir",
          "surface": "asphalt",
          "trolley_wire": "yes"
        }
      },
      "geometry": {
        "type": "LineString",
        "coordinates": [
          [28.8132842, 47.0382437],
          [28.8132347, 47.038261],
          [28.8131435, 47.0382793],
          [28.8129571, 47.0382957],
          [28.8127238, 47.0383021],
          [28.8125615, 47.0383003],
          [28.8124555, 47.0382957],
          [28.8123259, 47.0382756],
          [28.8122777, 47.038263],
          [28.8122265, 47.0382497]
        ]
      }
    },
    {
      "type": "Feature",
      "properties": {
        "type": "way",
        "id": 584676299,
        "tags": {
          "highway": "trunk",
          "junction": "roundabout",
          "lanes": "3",
          "maxspeed": "50",
          "name": "Pia\u021ba Dimitrie Cantemir",
          "surface": "asphalt",
          "trolley_wire": "yes"
        }
      },
      "geometry": {
        "type": "LineString",
        "coordinates": [
          [28.8122265, 47.0382497],
          [28.812156, 47.0381909],
          [28.8121055, 47.0381212],
          [28.8120841, 47.0380798],
          [28.8120733, 47.0380097],
          [28.8120827, 47.0379219],
          [28.8121149, 47.0378424],
          [28.8121645, 47.0377547]
        ]
      }
    },
    {
      "type": "Feature",
      "properties": {
        "type": "way",
        "id": 599291511,
        "tags": {
          "highway": "primary",
          "junction": "roundabout",
          "lanes": "2",
          "maxspeed": "40",
          "postal_code": "MD-2044"
        }
      },
      "geometry": {
        "type": "LineString",
        "coordinates": [
          [28.8819498, 47.0393459],
          [28.8819811, 47.0393105],
          [28.8820272, 47.0392837]
        ]
      }
    },
    {
      "type": "Feature",
      "properties": {
        "type": "way",
        "id": 599291512,
        "tags": {
          "highway": "primary",
          "junction": "roundabout",
          "lanes": "2",
          "maxspeed": "40",
          "postal_code": "MD-2044"
        }
      },
      "geometry": {
        "type": "LineString",
        "coordinates": [[28.8822862, 47.0394597], [28.8822449, 47.0394923]]
      }
    },
    {
      "type": "Feature",
      "properties": {
        "type": "way",
        "id": 599296597,
        "tags": {
          "highway": "primary",
          "junction": "roundabout",
          "lanes": "3",
          "maxspeed": "50",
          "trolley_wire": "yes",
          "turn:lanes": "through|through;right|through;right"
        }
      },
      "geometry": {
        "type": "LineString",
        "coordinates": [
          [28.8899126, 47.0363538],
          [28.8898237, 47.0364421],
          [28.8897302, 47.0365214],
          [28.8896141, 47.0365798],
          [28.8894979, 47.0366098],
          [28.8893857, 47.0366233],
          [28.8892244, 47.0366187]
        ]
      }
    },
    {
      "type": "Feature",
      "properties": {
        "type": "way",
        "id": 599296598,
        "tags": {
          "highway": "primary",
          "junction": "roundabout",
          "lanes": "3",
          "maxspeed": "50",
          "trolley_wire": "yes",
          "turn:lanes": "through|through;right|through;right"
        }
      },
      "geometry": {
        "type": "LineString",
        "coordinates": [
          [28.8899206, 47.0360992],
          [28.8899288, 47.0362209],
          [28.8899126, 47.0363538]
        ]
      }
    },
    {
      "type": "Feature",
      "properties": {
        "type": "way",
        "id": 599296599,
        "tags": {
          "highway": "primary",
          "junction": "roundabout",
          "lanes": "3",
          "maxspeed": "50",
          "trolley_wire": "yes",
          "turn:lanes": "through|through;right|through;right"
        }
      },
      "geometry": {
        "type": "LineString",
        "coordinates": [[28.888821, 47.0360893], [28.888892, 47.0360054]]
      }
    },
    {
      "type": "Feature",
      "properties": {
        "type": "way",
        "id": 610459510,
        "tags": {
          "highway": "trunk",
          "junction": "roundabout",
          "lanes": "3",
          "maxspeed": "50",
          "name": "Pia\u021ba Dimitrie Cantemir",
          "surface": "asphalt",
          "trolley_wire": "yes"
        }
      },
      "geometry": {
        "type": "LineString",
        "coordinates": [[28.8121645, 47.0377547], [28.8122182, 47.0377144]]
      }
    },
    {
      "type": "Feature",
      "properties": {
        "type": "way",
        "id": 624356191,
        "tags": {
          "highway": "primary",
          "junction": "roundabout",
          "lanes": "3",
          "maxspeed": "50",
          "trolley_wire": "yes",
          "turn:lanes": "through|through;right|through;right"
        }
      },
      "geometry": {
        "type": "LineString",
        "coordinates": [[28.888892, 47.0360054], [28.8889581, 47.0359605]]
      }
    },
    {
      "type": "Feature",
      "properties": {
        "type": "way",
        "id": 624356195,
        "tags": {
          "highway": "trunk",
          "junction": "roundabout",
          "lanes": "3",
          "maxspeed": "50",
          "name": "Pia\u021ba Dimitrie Cantemir",
          "surface": "asphalt",
          "trolley_wire": "yes"
        }
      },
      "geometry": {
        "type": "LineString",
        "coordinates": [[28.812634, 47.0375854], [28.8128351, 47.0375792]]
      }
    },
    {
      "type": "Feature",
      "properties": {
        "type": "way",
        "id": 655676501,
        "tags": {
          "highway": "primary",
          "junction": "roundabout",
          "maxspeed": "50"
        }
      },
      "geometry": {
        "type": "LineString",
        "coordinates": [
          [28.8338787, 47.0434786],
          [28.8338328, 47.0435141],
          [28.8337797, 47.0435446],
          [28.8337206, 47.0435693],
          [28.8336567, 47.0435879]
        ]
      }
    },
    {
      "type": "Feature",
      "properties": {
        "type": "way",
        "id": 655676503,
        "tags": {
          "highway": "primary",
          "junction": "roundabout",
          "maxspeed": "50"
        }
      },
      "geometry": {
        "type": "LineString",
        "coordinates": [[28.833474, 47.0429681], [28.8336898, 47.0429931]]
      }
    },
    {
      "type": "Feature",
      "properties": {
        "type": "way",
        "id": 655676505,
        "tags": {
          "highway": "primary",
          "junction": "roundabout",
          "maxspeed": "50"
        }
      },
      "geometry": {
        "type": "LineString",
        "coordinates": [
          [28.8330725, 47.0434063],
          [28.8330411, 47.0433229],
          [28.8330437, 47.0432368]
        ]
      }
    },
    {
      "type": "Feature",
      "properties": {
        "type": "way",
        "id": 655676642,
        "tags": {
          "highway": "trunk",
          "junction": "roundabout",
          "lanes": "2",
          "maxspeed": "50",
          "oneway": "yes"
        }
      },
      "geometry": {
        "type": "LineString",
        "coordinates": [[28.8435265, 47.0407114], [28.8435909, 47.040655]]
      }
    },
    {
      "type": "Feature",
      "properties": {
        "type": "way",
        "id": 655677038,
        "tags": {
          "highway": "trunk",
          "lanes": "3",
          "maxspeed": "50",
          "name": "Strada Calea Orheiului",
          "name:mo": "Strada Calea Orheiului",
          "name:ru": "\u0443\u043b\u0438\u0446\u0430 \u041a\u0430\u043b\u044f \u041e\u0440\u0445\u0435\u044e\u043b\u0443\u0439",
          "oneway": "yes",
          "surface": "asphalt"
        }
      },
      "geometry": {
        "type": "LineString",
        "coordinates": [
          [28.8440975, 47.0414264],
          [28.8440205, 47.0413443],
          [28.8438986, 47.0412275]
        ]
      }
    },
    {
      "type": "Feature",
      "properties": {
        "type": "way",
        "id": 655677039,
        "tags": {
          "highway": "trunk",
          "lanes": "3",
          "maxspeed": "50",
          "oneway": "yes"
        }
      },
      "geometry": {
        "type": "LineString",
        "coordinates": [
          [28.8438986, 47.0412275],
          [28.8437841, 47.0411421],
          [28.8436463, 47.0409995]
        ]
      }
    },
    {
      "type": "Feature",
      "properties": {
        "type": "way",
        "id": 655678545,
        "tags": {
          "highway": "trunk",
          "int_ref": "E 584",
          "junction": "roundabout",
          "lanes": "2",
          "maxspeed": "50",
          "oneway": "yes"
        }
      },
      "geometry": {
        "type": "LineString",
        "coordinates": [[28.8529339, 47.042949], [28.8529952, 47.0428803]]
      }
    },
    {
      "type": "Feature",
      "properties": {
        "type": "way",
        "id": 655678548,
        "tags": {
          "highway": "trunk",
          "int_ref": "E 584",
          "junction": "roundabout",
          "lanes": "2",
          "maxspeed": "50",
          "oneway": "yes"
        }
      },
      "geometry": {
        "type": "LineString",
        "coordinates": [
          [28.8534019, 47.0433464],
          [28.8533298, 47.0433537],
          [28.853257, 47.0433523]
        ]
      }
    },
    {
      "type": "Feature",
      "properties": {
        "type": "way",
        "id": 655678551,
        "tags": {
          "highway": "trunk",
          "int_ref": "E 584",
          "junction": "roundabout",
          "lanes": "2",
          "maxspeed": "50",
          "oneway": "yes"
        }
      },
      "geometry": {
        "type": "LineString",
        "coordinates": [
          [28.8536527, 47.04292],
          [28.853679, 47.0429522],
          [28.8537078, 47.0429999]
        ]
      }
    },
    {
      "type": "Feature",
      "properties": {
        "type": "way",
        "id": 655679018,
        "tags": {
          "highway": "trunk",
          "int_ref": "E 584",
          "junction": "roundabout",
          "lanes": "3",
          "maxspeed": "50",
          "turn:lanes": "through|through|through"
        }
      },
      "geometry": {
        "type": "LineString",
        "coordinates": [
          [28.8486778, 47.0455326],
          [28.8485829, 47.0456074],
          [28.8484551, 47.0456541],
          [28.8483112, 47.0456664]
        ]
      }
    },
    {
      "type": "Feature",
      "properties": {
        "type": "way",
        "id": 655679019,
        "tags": {
          "highway": "trunk",
          "int_ref": "E 584",
          "junction": "roundabout",
          "lanes": "3",
          "maxspeed": "50"
        }
      },
      "geometry": {
        "type": "LineString",
        "coordinates": [[28.8487089, 47.0454872], [28.8486778, 47.0455326]]
      }
    },
    {
      "type": "Feature",
      "properties": {
        "type": "way",
        "id": 655679020,
        "tags": {
          "highway": "trunk",
          "int_ref": "E 584",
          "junction": "roundabout",
          "lanes": "3",
          "maxspeed": "50"
        }
      },
      "geometry": {
        "type": "LineString",
        "coordinates": [[28.848423, 47.0451312], [28.8485285, 47.0451589]]
      }
    },
    {
      "type": "Feature",
      "properties": {
        "type": "way",
        "id": 655679022,
        "tags": {
          "highway": "trunk",
          "int_ref": "E 584",
          "junction": "roundabout",
          "lanes": "3",
          "maxspeed": "50",
          "turn:lanes": "through|through;right|through;right"
        }
      },
      "geometry": {
        "type": "LineString",
        "coordinates": [
          [28.8479364, 47.0453856],
          [28.8479455, 47.045337],
          [28.8479673, 47.0452904],
          [28.848001, 47.0452471]
        ]
      }
    },
    {
      "type": "Feature",
      "properties": {
        "type": "way",
        "id": 655679023,
        "tags": {
          "highway": "trunk",
          "int_ref": "E 584",
          "junction": "roundabout",
          "lanes": "3",
          "maxspeed": "50",
          "turn:lanes": "through|through;right|through;right"
        }
      },
      "geometry": {
        "type": "LineString",
        "coordinates": [
          [28.848045, 47.0455821],
          [28.8479835, 47.045524],
          [28.8479464, 47.0454569],
          [28.8479364, 47.0453856]
        ]
      }
    },
    {
      "type": "Feature",
      "properties": {
        "type": "way",
        "id": 655679024,
        "tags": {
          "highway": "trunk",
          "int_ref": "E 584",
          "junction": "roundabout",
          "lanes": "3",
          "maxspeed": "50",
          "turn:lanes": "through|through;right|through;right"
        }
      },
      "geometry": {
        "type": "LineString",
        "coordinates": [
          [28.8481703, 47.0456428],
          [28.8481028, 47.045613],
          [28.848045, 47.0455821]
        ]
      }
    },
    {
      "type": "Feature",
      "properties": {
        "type": "way",
        "id": 655897062,
        "tags": {
          "highway": "primary",
          "junction": "roundabout",
          "lanes": "2",
          "maxspeed": "40",
          "postal_code": "MD-2044"
        }
      },
      "geometry": {
        "type": "LineString",
        "coordinates": [[28.8822449, 47.0394923], [28.8821901, 47.0395139]]
      }
    },
    {
      "type": "Feature",
      "properties": {
        "type": "way",
        "id": 655904913,
        "tags": {
          "highway": "secondary",
          "junction": "roundabout",
          "maxspeed": "50",
          "trolley_wire": "yes"
        }
      },
      "geometry": {
        "type": "LineString",
        "coordinates": [
          [28.7928465, 47.0271938],
          [28.7927357, 47.0272109],
          [28.7926221, 47.0272085]
        ]
      }
    },
    {
      "type": "Feature",
      "properties": {
        "type": "way",
        "id": 655904914,
        "tags": {
          "highway": "secondary",
          "junction": "roundabout",
          "maxspeed": "50",
          "trolley_wire": "yes"
        }
      },
      "geometry": {
        "type": "LineString",
        "coordinates": [[28.7930924, 47.0267723], [28.7931374, 47.0268806]]
      }
    },
    {
      "type": "Feature",
      "properties": {
        "type": "way",
        "id": 655904915,
        "tags": {
          "highway": "secondary",
          "junction": "roundabout",
          "maxspeed": "50",
          "trolley_wire": "yes"
        }
      },
      "geometry": {
        "type": "LineString",
        "coordinates": [
          [28.7923924, 47.0266831],
          [28.7925065, 47.0266316],
          [28.7926381, 47.0266061],
          [28.7927749, 47.026609],
          [28.792904, 47.02664],
          [28.7930133, 47.0266962],
          [28.7930924, 47.0267723]
        ]
      }
    },
    {
      "type": "Feature",
      "properties": {
        "type": "way",
        "id": 655904916,
        "tags": {
          "highway": "secondary",
          "junction": "roundabout",
          "maxspeed": "50",
          "trolley_wire": "yes"
        }
      },
      "geometry": {
        "type": "LineString",
        "coordinates": [[28.7922988, 47.0267652], [28.7923924, 47.0266831]]
      }
    },
    {
      "type": "Feature",
      "properties": {
        "type": "way",
        "id": 655904917,
        "tags": {
          "highway": "secondary",
          "junction": "roundabout",
          "maxspeed": "50",
          "trolley_wire": "yes"
        }
      },
      "geometry": {
        "type": "LineString",
        "coordinates": [[28.7922493, 47.0268741], [28.7922988, 47.0267652]]
      }
    },
    {
      "type": "Feature",
      "properties": {
        "type": "way",
        "id": 660167557,
        "tags": {
          "highway": "secondary",
          "lanes": "2",
          "maxspeed": "40",
          "name": "Strada Ion Creang\u0103",
          "name:ro": "Strada Ion Creang\u0103",
          "name:ru": "\u0443\u043b\u0438\u0446\u0430 \u0418\u043e\u043d\u0430 \u041a\u0440\u044f\u043d\u0433\u044d",
          "trolley_wire": "yes"
        }
      },
      "geometry": {
        "type": "LineString",
        "coordinates": [[28.7952127, 47.0278436], [28.794286, 47.0274989]]
      }
    },
    {
      "type": "Feature",
      "properties": {
        "type": "way",
        "id": 660238978,
        "tags": {
          "highway": "secondary",
          "lanes": "2",
          "maxspeed": "50",
          "name": "Strada Ion Creang\u0103",
          "name:ro": "Strada Ion Creang\u0103",
          "name:ru": "\u0443\u043b\u0438\u0446\u0430 \u0418\u043e\u043d\u0430 \u041a\u0440\u044f\u043d\u0433\u044d"
        }
      },
      "geometry": {
        "type": "LineString",
        "coordinates": [
          [28.8096393, 47.0354461],
          [28.8089865, 47.0349598],
          [28.8084941, 47.0345935],
          [28.8077479, 47.0340467]
        ]
      }
    },
    {
      "type": "Feature",
      "properties": {
        "type": "way",
        "id": 660478861,
        "tags": {
          "highway": "secondary",
          "lanes": "2",
          "maxspeed": "50",
          "name": "Strada Ion Creang\u0103",
          "name:ro": "Strada Ion Creang\u0103",
          "name:ru": "\u0443\u043b\u0438\u0446\u0430 \u0418\u043e\u043d\u0430 \u041a\u0440\u044f\u043d\u0433\u044d"
        }
      },
      "geometry": {
        "type": "LineString",
        "coordinates": [[28.8116861, 47.0369689], [28.8111445, 47.0365644]]
      }
    },
    {
      "type": "Feature",
      "properties": {
        "type": "way",
        "id": 660528156,
        "tags": {
          "highway": "secondary",
          "lanes": "2",
          "maxspeed": "50",
          "name": "Strada Ion Creang\u0103",
          "name:ro": "Strada Ion Creang\u0103",
          "name:ru": "\u0443\u043b\u0438\u0446\u0430 \u0418\u043e\u043d\u0430 \u041a\u0440\u044f\u043d\u0433\u044d"
        }
      },
      "geometry": {
        "type": "LineString",
        "coordinates": [
          [28.8077479, 47.0340467],
          [28.8072993, 47.0337151],
          [28.8072768, 47.0336983]
        ]
      }
    },
    {
      "type": "Feature",
      "properties": {
        "type": "way",
        "id": 660528308,
        "tags": {
          "highway": "secondary",
          "lanes": "2",
          "maxspeed": "50",
          "name": "Strada Ion Creang\u0103",
          "name:ro": "Strada Ion Creang\u0103",
          "name:ru": "\u0443\u043b\u0438\u0446\u0430 \u0418\u043e\u043d\u0430 \u041a\u0440\u044f\u043d\u0433\u044d"
        }
      },
      "geometry": {
        "type": "LineString",
        "coordinates": [[28.8072768, 47.0336983], [28.8069419, 47.033444]]
      }
    },
    {
      "type": "Feature",
      "properties": {
        "type": "way",
        "id": 660529510,
        "tags": {
          "highway": "secondary",
          "lanes": "2",
          "maxspeed": "50",
          "name": "Strada Ion Creang\u0103",
          "name:ru": "\u0443\u043b\u0438\u0446\u0430 \u0418\u043e\u043d\u0430 \u041a\u0440\u044f\u043d\u0433\u044d"
        }
      },
      "geometry": {
        "type": "LineString",
        "coordinates": [
          [28.80563, 47.0326278],
          [28.8053556, 47.0324625],
          [28.8046074, 47.0320278],
          [28.8044551, 47.031929],
          [28.8043481, 47.0318699],
          [28.8030872, 47.0311082],
          [28.80251, 47.0307555],
          [28.8017185, 47.0303042]
        ]
      }
    },
    {
      "type": "Feature",
      "properties": {
        "type": "way",
        "id": 660529571,
        "tags": {
          "highway": "secondary",
          "lanes": "2",
          "maxspeed": "50",
          "name": "Strada Ion Creang\u0103",
          "name:ro": "Strada Ion Creang\u0103",
          "name:ru": "\u0443\u043b\u0438\u0446\u0430 \u0418\u043e\u043d\u0430 \u041a\u0440\u044f\u043d\u0433\u044d"
        }
      },
      "geometry": {
        "type": "LineString",
        "coordinates": [
          [28.8105636, 47.0361306],
          [28.8101766, 47.035844],
          [28.8096393, 47.0354461]
        ]
      }
    },
    {
      "type": "Feature",
      "properties": {
        "type": "way",
        "id": 660645981,
        "tags": {
          "highway": "primary",
          "lanes": "6",
          "maxspeed": "50",
          "name": "Strada Petricani",
          "name:ro": "Strada Petricani",
          "name:ru": "\u041f\u0435\u0442\u0440\u0438\u043a\u0430\u043d\u0441\u043a\u0430\u044f \u0443\u043b\u0438\u0446\u0430"
        }
      },
      "geometry": {
        "type": "LineString",
        "coordinates": [[28.8370383, 47.0425062], [28.8367051, 47.0425754]]
      }
    },
    {
      "type": "Feature",
      "properties": {
        "type": "way",
        "id": 660646235,
        "tags": {
          "highway": "primary",
          "lanes": "6",
          "maxspeed": "50",
          "name": "Strada Petricani",
          "name:ro": "Strada Petricani",
          "name:ru": "\u041f\u0435\u0442\u0440\u0438\u043a\u0430\u043d\u0441\u043a\u0430\u044f \u0443\u043b\u0438\u0446\u0430"
        }
      },
      "geometry": {
        "type": "LineString",
        "coordinates": [[28.8389942, 47.0420965], [28.8386235, 47.0421768]]
      }
    },
    {
      "type": "Feature",
      "properties": {
        "type": "way",
        "id": 660646373,
        "tags": {
          "highway": "primary",
          "lanes": "6",
          "maxspeed": "50",
          "name": "Strada Petricani",
          "name:ro": "Strada Petricani",
          "name:ru": "\u041f\u0435\u0442\u0440\u0438\u043a\u0430\u043d\u0441\u043a\u0430\u044f \u0443\u043b\u0438\u0446\u0430"
        }
      },
      "geometry": {
        "type": "LineString",
        "coordinates": [[28.8396146, 47.0419607], [28.839181, 47.0420527]]
      }
    },
    {
      "type": "Feature",
      "properties": {
        "type": "way",
        "id": 660646374,
        "tags": {
          "highway": "primary",
          "lanes": "3",
          "maxspeed": "50",
          "name": "Strada Petricani",
          "name:ro": "Strada Petricani",
          "name:ru": "\u041f\u0435\u0442\u0440\u0438\u043a\u0430\u043d\u0441\u043a\u0430\u044f \u0443\u043b\u0438\u0446\u0430"
        }
      },
      "geometry": {
        "type": "LineString",
        "coordinates": [[28.8397415, 47.0419298], [28.8396146, 47.0419607]]
      }
    },
    {
      "type": "Feature",
      "properties": {
        "type": "way",
        "id": 660881614,
        "tags": {
          "highway": "secondary",
          "lanes": "2",
          "maxspeed": "40",
          "name": "Strada Ion Creang\u0103",
          "name:ro": "Strada Ion Creang\u0103",
          "name:ru": "\u0443\u043b\u0438\u0446\u0430 \u0418\u043e\u043d\u0430 \u041a\u0440\u044f\u043d\u0433\u044d",
          "trolley_wire": "yes"
        }
      },
      "geometry": {
        "type": "LineString",
        "coordinates": [
          [28.8003307, 47.0297493],
          [28.7999466, 47.029603],
          [28.7994765, 47.0294266]
        ]
      }
    },
    {
      "type": "Feature",
      "properties": {
        "type": "way",
        "id": 660882301,
        "tags": {
          "highway": "secondary",
          "lanes": "2",
          "maxspeed": "40",
          "name": "Strada Ion Creang\u0103",
          "name:ro": "Strada Ion Creang\u0103",
          "name:ru": "\u0443\u043b\u0438\u0446\u0430 \u0418\u043e\u043d\u0430 \u041a\u0440\u044f\u043d\u0433\u044d",
          "trolley_wire": "yes"
        }
      },
      "geometry": {
        "type": "LineString",
        "coordinates": [
          [28.7994765, 47.0294266],
          [28.7989481, 47.02923],
          [28.7981274, 47.0289232]
        ]
      }
    },
    {
      "type": "Feature",
      "properties": {
        "type": "way",
        "id": 660882476,
        "tags": {
          "highway": "secondary",
          "lanes": "2",
          "maxspeed": "40",
          "name": "Strada Ion Creang\u0103",
          "name:ro": "Strada Ion Creang\u0103",
          "name:ru": "\u0443\u043b\u0438\u0446\u0430 \u0418\u043e\u043d\u0430 \u041a\u0440\u044f\u043d\u0433\u044d",
          "trolley_wire": "yes"
        }
      },
      "geometry": {
        "type": "LineString",
        "coordinates": [[28.7981274, 47.0289232], [28.7978508, 47.0288193]]
      }
    },
    {
      "type": "Feature",
      "properties": {
        "type": "way",
        "id": 660882477,
        "tags": {
          "highway": "secondary",
          "lanes": "2",
          "maxspeed": "40",
          "name": "Strada Ion Creang\u0103",
          "name:ro": "Strada Ion Creang\u0103",
          "name:ru": "\u0443\u043b\u0438\u0446\u0430 \u0418\u043e\u043d\u0430 \u041a\u0440\u044f\u043d\u0433\u044d",
          "trolley_wire": "yes"
        }
      },
      "geometry": {
        "type": "LineString",
        "coordinates": [
          [28.7978508, 47.0288193],
          [28.7974292, 47.0286622],
          [28.7971417, 47.0285558]
        ]
      }
    },
    {
      "type": "Feature",
      "properties": {
        "type": "way",
        "id": 660882478,
        "tags": {
          "highway": "secondary",
          "lanes": "2",
          "maxspeed": "40",
          "name": "Strada Ion Creang\u0103",
          "name:ro": "Strada Ion Creang\u0103",
          "name:ru": "\u0443\u043b\u0438\u0446\u0430 \u0418\u043e\u043d\u0430 \u041a\u0440\u044f\u043d\u0433\u044d",
          "trolley_wire": "yes"
        }
      },
      "geometry": {
        "type": "LineString",
        "coordinates": [
          [28.7971417, 47.0285558],
          [28.7963138, 47.0282495],
          [28.796254, 47.0282277]
        ]
      }
    },
    {
      "type": "Feature",
      "properties": {
        "type": "way",
        "id": 660884121,
        "tags": {
          "highway": "secondary",
          "lanes": "2",
          "maxspeed": "40",
          "name": "Strada Ion Creang\u0103",
          "name:ro": "Strada Ion Creang\u0103",
          "name:ru": "\u0443\u043b\u0438\u0446\u0430 \u0418\u043e\u043d\u0430 \u041a\u0440\u044f\u043d\u0433\u044d",
          "trolley_wire": "yes"
        }
      },
      "geometry": {
        "type": "LineString",
        "coordinates": [
          [28.794286, 47.0274989],
          [28.7938065, 47.0273206],
          [28.7935117, 47.0272157],
          [28.7934629, 47.0271983]
        ]
      }
    },
    {
      "type": "Feature",
      "properties": {
        "type": "way",
        "id": 660884395,
        "tags": {
          "highway": "secondary",
          "lanes": "6",
          "maxspeed": "50",
          "name": "Bulevardul Alba Iulia",
          "name:ro": "Bulevardul Alba Iulia",
          "name:ru": "\u0431\u0443\u043b\u044c\u0432\u0430\u0440 \u0410\u043b\u0431\u0430-\u042e\u043b\u0438\u044f",
          "trolley_wire": "yes"
        }
      },
      "geometry": {
        "type": "LineString",
        "coordinates": [
          [28.7900025, 47.0284291],
          [28.7895991, 47.0286321],
          [28.7892299, 47.0288064],
          [28.7887297, 47.0290565],
          [28.7885584, 47.0291423]
        ]
      }
    },
    {
      "type": "Feature",
      "properties": {
        "type": "way",
        "id": 660884396,
        "tags": {
          "highway": "secondary",
          "lanes": "6",
          "maxspeed": "50",
          "name": "Bulevardul Alba Iulia",
          "name:ro": "Bulevardul Alba Iulia",
          "name:ru": "\u0431\u0443\u043b\u044c\u0432\u0430\u0440 \u0410\u043b\u0431\u0430-\u042e\u043b\u0438\u044f",
          "trolley_wire": "yes"
        }
      },
      "geometry": {
        "type": "LineString",
        "coordinates": [[28.7903824, 47.028245], [28.7900025, 47.0284291]]
      }
    },
    {
      "type": "Feature",
      "properties": {
        "type": "way",
        "id": 660884397,
        "tags": {
          "highway": "secondary",
          "lanes": "6",
          "maxspeed": "50",
          "name": "Bulevardul Alba Iulia",
          "name:ro": "Bulevardul Alba Iulia",
          "name:ru": "\u0431\u0443\u043b\u044c\u0432\u0430\u0440 \u0410\u043b\u0431\u0430-\u042e\u043b\u0438\u044f",
          "old_name": "\u043f\u0440-\u0442 \u042d\u043d\u0433\u0435\u043b\u044c\u0441\u0430",
          "oneway": "no",
          "surface": "asphalt",
          "trolley_wire": "yes"
        }
      },
      "geometry": {
        "type": "LineString",
        "coordinates": [
          [28.7875547, 47.0296331],
          [28.7869009, 47.0299524],
          [28.7863728, 47.0302113],
          [28.7853071, 47.0307382],
          [28.7828069, 47.0319694],
          [28.7822502, 47.0322435],
          [28.7815642, 47.0325797],
          [28.779157, 47.0337595],
          [28.7788706, 47.0339017],
          [28.7778752, 47.0343962]
        ]
      }
    },
    {
      "type": "Feature",
      "properties": {
        "type": "way",
        "id": 660884430,
        "tags": {
          "highway": "secondary",
          "lanes": "6",
          "maxspeed": "50",
          "name": "Bulevardul Alba Iulia",
          "name:ro": "Bulevardul Alba-Iulia",
          "name:ru": "\u0431\u0443\u043b\u044c\u0432\u0430\u0440 \u0410\u043b\u0431\u0430-\u042e\u043b\u0438\u044f",
          "old_name": "\u043f\u0440-\u0442 \u042d\u043d\u0433\u0435\u043b\u044c\u0441\u0430",
          "oneway": "no",
          "surface": "asphalt",
          "trolley_wire": "yes"
        }
      },
      "geometry": {
        "type": "LineString",
        "coordinates": [
          [28.7778752, 47.0343962],
          [28.7765303, 47.0350507],
          [28.776019, 47.0353024],
          [28.7758301, 47.0353956]
        ]
      }
    },
    {
      "type": "Feature",
      "properties": {
        "type": "way",
        "id": 661279632,
        "tags": {
          "highway": "primary",
          "lanes": "6",
          "maxspeed": "50",
          "name": "Strada Petricani",
          "name:ro": "Strada Petricani",
          "name:ru": "\u041f\u0435\u0442\u0440\u0438\u043a\u0430\u043d\u0441\u043a\u0430\u044f \u0443\u043b\u0438\u0446\u0430"
        }
      },
      "geometry": {
        "type": "LineString",
        "coordinates": [
          [28.8359428, 47.0427347],
          [28.8356498, 47.0427962],
          [28.8353961, 47.0428556]
        ]
      }
    },
    {
      "type": "Feature",
      "properties": {
        "type": "way",
        "id": 661279633,
        "tags": {
          "highway": "primary",
          "lanes": "3",
          "maxspeed": "50",
          "name": "Strada Petricani",
          "name:ro": "Strada Petricani",
          "name:ru": "\u041f\u0435\u0442\u0440\u0438\u043a\u0430\u043d\u0441\u043a\u0430\u044f \u0443\u043b\u0438\u0446\u0430"
        }
      },
      "geometry": {
        "type": "LineString",
        "coordinates": [
          [28.8367051, 47.0425754],
          [28.8363496, 47.0426492],
          [28.8359428, 47.0427347]
        ]
      }
    },
    {
      "type": "Feature",
      "properties": {
        "type": "way",
        "id": 661298463,
        "tags": {
          "highway": "primary",
          "lanes": "6",
          "maxspeed": "30",
          "name": "Strada Bogdan Voievod",
          "name:ro": "Strada Bogdan Voievod",
          "name:ru": "\u0443\u043b\u0438\u0446\u0430 \u0411\u043e\u0433\u0434\u0430\u043d \u0412\u043e\u0435\u0432\u043e\u0434",
          "surface": "asphalt"
        }
      },
      "geometry": {
        "type": "LineString",
        "coordinates": [
          [28.8581008, 47.0437021],
          [28.8598604, 47.0440516],
          [28.860172, 47.0441162]
        ]
      }
    },
    {
      "type": "Feature",
      "properties": {
        "type": "way",
        "id": 661298464,
        "tags": {
          "highway": "primary",
          "lanes": "6",
          "maxspeed": "30",
          "name": "Strada Bogdan Voievod",
          "name:ro": "Strada Bogdan Voievod",
          "name:ru": "\u0443\u043b\u0438\u0446\u0430 \u0411\u043e\u0433\u0434\u0430\u043d \u0412\u043e\u0435\u0432\u043e\u0434",
          "surface": "asphalt"
        }
      },
      "geometry": {
        "type": "LineString",
        "coordinates": [[28.8568244, 47.0434411], [28.8581008, 47.0437021]]
      }
    },
    {
      "type": "Feature",
      "properties": {
        "type": "way",
        "id": 661298465,
        "tags": {
          "highway": "primary",
          "lanes": "6",
          "maxspeed": "30",
          "name": "Strada Bogdan Voievod",
          "name:ro": "Strada Bogdan Voievod",
          "name:ru": "\u0443\u043b\u0438\u0446\u0430 \u0411\u043e\u0433\u0434\u0430\u043d \u0412\u043e\u0435\u0432\u043e\u0434",
          "surface": "asphalt"
        }
      },
      "geometry": {
        "type": "LineString",
        "coordinates": [
          [28.855767, 47.0433037],
          [28.8559651, 47.0433223],
          [28.8560858, 47.0433349],
          [28.8562892, 47.0433564],
          [28.8565601, 47.043395],
          [28.8568244, 47.0434411]
        ]
      }
    },
    {
      "type": "Feature",
      "properties": {
        "type": "way",
        "id": 661298467,
        "tags": {
          "highway": "primary",
          "lanes": "3",
          "maxspeed": "30",
          "name": "Strada Bogdan Voievod",
          "name:ro": "Strada Bogdan Voievod",
          "name:ru": "\u0443\u043b\u0438\u0446\u0430 \u0411\u043e\u0433\u0434\u0430\u043d \u0412\u043e\u0435\u0432\u043e\u0434",
          "surface": "asphalt"
        }
      },
      "geometry": {
        "type": "LineString",
        "coordinates": [[28.8557167, 47.0432994], [28.855767, 47.0433037]]
      }
    },
    {
      "type": "Feature",
      "properties": {
        "type": "way",
        "id": 663288800,
        "tags": {
          "highway": "primary",
          "lanes": "6",
          "maxspeed": "50",
          "name": "Strada Mihai Viteazul",
          "name:ru": "\u0443\u043b\u0438\u0446\u0430 \u041c\u0438\u0445\u0430\u044f \u0412\u0438\u0442\u044f\u0437\u0443\u043b\u0430",
          "old_name": "\u041e\u0440\u0433\u0435\u0435\u0432\u0441\u043a\u0430\u044f \u0443\u043b\u0438\u0446\u0430"
        }
      },
      "geometry": {
        "type": "LineString",
        "coordinates": [[28.8228242, 47.0365699], [28.823166, 47.0367805]]
      }
    },
    {
      "type": "Feature",
      "properties": {
        "type": "way",
        "id": 663288802,
        "tags": {
          "highway": "primary",
          "lanes": "6",
          "maxspeed": "50",
          "name": "Strada Mihai Viteazul",
          "name:ru": "\u0443\u043b\u0438\u0446\u0430 \u041c\u0438\u0445\u0430\u044f \u0412\u0438\u0442\u044f\u0437\u0443\u043b\u0430",
          "old_name": "\u041e\u0440\u0433\u0435\u0435\u0432\u0441\u043a\u0430\u044f \u0443\u043b\u0438\u0446\u0430"
        }
      },
      "geometry": {
        "type": "LineString",
        "coordinates": [
          [28.823166, 47.0367805],
          [28.8242168, 47.0374383],
          [28.8245724, 47.0376559]
        ]
      }
    },
    {
      "type": "Feature",
      "properties": {
        "type": "way",
        "id": 663291575,
        "tags": {
          "highway": "primary",
          "lanes": "3",
          "maxspeed": "50",
          "name": "Strada Mihai Viteazul",
          "name:ru": "\u0443\u043b\u0438\u0446\u0430 \u041c\u0438\u0445\u0430\u044f \u0412\u0438\u0442\u044f\u0437\u0443\u043b\u0430",
          "old_name": "\u041e\u0440\u0433\u0435\u0435\u0432\u0441\u043a\u0430\u044f \u0443\u043b\u0438\u0446\u0430"
        }
      },
      "geometry": {
        "type": "LineString",
        "coordinates": [
          [28.8274454, 47.0394408],
          [28.8278285, 47.0396839],
          [28.8285292, 47.040126]
        ]
      }
    },
    {
      "type": "Feature",
      "properties": {
        "type": "way",
        "id": 663291672,
        "tags": {
          "highway": "primary",
          "lanes": "3",
          "maxspeed": "50",
          "name": "Strada Mihai Viteazul",
          "name:ru": "\u0443\u043b\u0438\u0446\u0430 \u041c\u0438\u0445\u0430\u044f \u0412\u0438\u0442\u044f\u0437\u0443\u043b\u0430",
          "old_name": "\u041e\u0440\u0433\u0435\u0435\u0432\u0441\u043a\u0430\u044f \u0443\u043b\u0438\u0446\u0430"
        }
      },
      "geometry": {
        "type": "LineString",
        "coordinates": [[28.8285292, 47.040126], [28.8287146, 47.0402385]]
      }
    },
    {
      "type": "Feature",
      "properties": {
        "type": "way",
        "id": 664440031,
        "tags": {
          "highway": "secondary",
          "lanes": "6",
          "maxspeed": "50",
          "name": "Bulevardul Alba Iulia",
          "name:ro": "Bulevardul Alba Iulia",
          "name:ru": "\u0431\u0443\u043b\u044c\u0432\u0430\u0440 \u0410\u043b\u0431\u0430-\u042e\u043b\u0438\u044f",
          "old_name": "\u043f\u0440-\u0442 \u042d\u043d\u0433\u0435\u043b\u044c\u0441\u0430",
          "trolley_wire": "yes"
        }
      },
      "geometry": {
        "type": "LineString",
        "coordinates": [
          [28.7752766, 47.0356741],
          [28.7745963, 47.036006],
          [28.7734291, 47.0365756],
          [28.7710582, 47.0377413],
          [28.7709661, 47.0377848],
          [28.7703993, 47.0380631],
          [28.76998, 47.0382744],
          [28.7699306, 47.0382993],
          [28.769654, 47.0384351]
        ]
      }
    },
    {
      "type": "Feature",
      "properties": {
        "type": "way",
        "id": 665873316,
        "tags": {
          "highway": "secondary",
          "lanes": "6",
          "maxspeed": "50",
          "name": "Bulevardul Alba Iulia",
          "name:ro": "Bulevardul Alba Iulia",
          "name:ru": "\u0431\u0443\u043b\u044c\u0432\u0430\u0440 \u0410\u043b\u0431\u0430-\u042e\u043b\u0438\u044f",
          "old_name": "\u043f\u0440-\u0442 \u042d\u043d\u0433\u0435\u043b\u044c\u0441\u0430",
          "trolley_wire": "yes"
        }
      },
      "geometry": {
        "type": "LineString",
        "coordinates": [
          [28.769188, 47.0386675],
          [28.7691482, 47.0386874],
          [28.7684286, 47.039034],
          [28.7680481, 47.0392172],
          [28.7676848, 47.0393959],
          [28.7667478, 47.0398562],
          [28.7663793, 47.040038],
          [28.7662758, 47.040091],
          [28.7658103, 47.0403182],
          [28.7653981, 47.0405192],
          [28.765287, 47.0405675],
          [28.7644192, 47.0410035],
          [28.7642626, 47.0410731]
        ]
      }
    },
    {
      "type": "Feature",
      "properties": {
        "type": "way",
        "id": 665873317,
        "tags": {
          "highway": "secondary",
          "lanes": "6",
          "maxspeed": "50",
          "name": "Bulevardul Alba Iulia",
          "name:ro": "Bulevardul Alba Iulia",
          "name:ru": "\u0431\u0443\u043b\u044c\u0432\u0430\u0440 \u0410\u043b\u0431\u0430-\u042e\u043b\u0438\u044f",
          "old_name": "\u043f\u0440-\u0442 \u042d\u043d\u0433\u0435\u043b\u044c\u0441\u0430",
          "trolley_wire": "yes"
        }
      },
      "geometry": {
        "type": "LineString",
        "coordinates": [[28.7693329, 47.0385949], [28.769188, 47.0386675]]
      }
    },
    {
      "type": "Feature",
      "properties": {
        "type": "way",
        "id": 666174026,
        "tags": {
          "highway": "secondary",
          "lanes": "2",
          "maxspeed": "50",
          "name": "Strada Ion Creang\u0103",
          "name:ro": "Strada Ion Creang\u0103",
          "name:ru": "\u0443\u043b\u0438\u0446\u0430 \u0418\u043e\u043d\u0430 \u041a\u0440\u044f\u043d\u0433\u044d"
        }
      },
      "geometry": {
        "type": "LineString",
        "coordinates": [[28.8111445, 47.0365644], [28.8105636, 47.0361306]]
      }
    },
    {
      "type": "Feature",
      "properties": {
        "type": "way",
        "id": 680089655,
        "tags": {
          "highway": "trunk",
          "int_ref": "E 584",
          "junction": "roundabout",
          "lanes": "3",
          "maxspeed": "50",
          "turn:lanes": "through|through;right|through;right"
        }
      },
      "geometry": {
        "type": "LineString",
        "coordinates": [[28.8483112, 47.0456664], [28.8481703, 47.0456428]]
      }
    },
    {
      "type": "Feature",
      "properties": {
        "type": "way",
        "id": 680089658,
        "tags": {
          "highway": "trunk",
          "int_ref": "E 584",
          "lanes": "3",
          "maxspeed": "50",
          "name": "Bulevardul Rena\u015fterii Na\u0163ionale",
          "name:ro": "Bulevardul Rena\u0219terii Na\u021bionale",
          "name:ru": "\u043f\u0440\u043e\u0441\u043f\u0435\u043a\u0442 \u0420\u0435\u043d\u0430\u0448\u0442\u0435\u0440\u0438\u0439 \u041d\u0430\u0446\u0438\u043e\u043d\u0430\u043b\u0435",
          "oneway": "yes"
        }
      },
      "geometry": {
        "type": "LineString",
        "coordinates": [
          [28.8489707, 47.045306],
          [28.8489263, 47.045337],
          [28.8487089, 47.0454872]
        ]
      }
    },
    {
      "type": "Feature",
      "properties": {
        "type": "way",
        "id": 680089659,
        "tags": {
          "highway": "trunk",
          "lanes": "3",
          "maxspeed": "50",
          "name": "Strada Calea Orheiului",
          "name:ro": "Strada Calea Orheiului",
          "name:ru": "\u0443\u043b\u0438\u0446\u0430 \u041a\u0430\u043b\u044f \u041e\u0440\u0445\u0435\u044e\u043b\u0443\u0439",
          "oneway": "yes"
        }
      },
      "geometry": {
        "type": "LineString",
        "coordinates": [[28.8482863, 47.0450113], [28.848423, 47.0451312]]
      }
    },
    {
      "type": "Feature",
      "properties": {
        "type": "way",
        "id": 683300019,
        "tags": {
          "highway": "trunk",
          "junction": "roundabout",
          "lanes": "3",
          "maxspeed": "50",
          "name": "Pia\u021ba Dimitrie Cantemir",
          "trolley_wire": "yes"
        }
      },
      "geometry": {
        "type": "LineString",
        "coordinates": [[28.8133366, 47.0382062], [28.8132842, 47.0382437]]
      }
    },
    {
      "type": "Feature",
      "properties": {
        "type": "way",
        "id": 690496839,
        "tags": {
          "foot": "no",
          "highway": "primary",
          "lanes": "3",
          "maxspeed": "50",
          "name": "Strada Alecu Russo",
          "name:ru": "\u0443\u043b\u0438\u0446\u0430 \u0410\u043b\u0435\u043a\u0443 \u0420\u0443\u0441\u0441\u043e",
          "old_name": "\u0443\u043b\u0438\u0446\u0430 \u0424\u0435\u0434\u044c\u043a\u043e",
          "oneway": "yes",
          "surface": "asphalt",
          "turn:lanes": "through|through|through;right"
        }
      },
      "geometry": {
        "type": "LineString",
        "coordinates": [
          [28.8883532, 47.0365722],
          [28.8884438, 47.0364797],
          [28.8886246, 47.0362777],
          [28.888821, 47.0360893]
        ]
      }
    },
    {
      "type": "Feature",
      "properties": {
        "type": "way",
        "id": 690497593,
        "tags": {
          "highway": "primary",
          "lanes": "3",
          "maxspeed": "50",
          "name": "Strada Me\u0219terul Manole",
          "name:ru": "\u0443\u043b\u0438\u0446\u0430 \u041c\u0435\u0448\u0442\u0435\u0440\u0443\u043b \u041c\u0430\u043d\u043e\u043b\u0435",
          "old_name": "\u0443\u043b\u0438\u0446\u0430 \u0414\u043e\u0431\u0440\u043e\u0432\u043e\u043b\u044c\u0441\u043a\u043e\u0433\u043e",
          "oneway": "yes",
          "trolley_wire": "yes"
        }
      },
      "geometry": {
        "type": "LineString",
        "coordinates": [
          [28.8896674, 47.0332848],
          [28.8897581, 47.0343596],
          [28.8898944, 47.0356891]
        ]
      }
    },
    {
      "type": "Feature",
      "properties": {
        "type": "way",
        "id": 706041396,
        "tags": {
          "highway": "primary",
          "lanes": "3",
          "maxspeed": "50",
          "name": "Strada Bogdan Voievod",
          "name:mo": "Strada Bogdan Voievod",
          "name:ro": "Strada Bogdan Voievod",
          "name:ru": "\u0443\u043b\u0438\u0446\u0430 \u0411\u043e\u0433\u0434\u0430\u043d \u0412\u043e\u0435\u0432\u043e\u0434",
          "oneway": "yes",
          "surface": "asphalt"
        }
      },
      "geometry": {
        "type": "LineString",
        "coordinates": [
          [28.8607385, 47.0442317],
          [28.8609075, 47.0442286],
          [28.8610074, 47.04423],
          [28.8610947, 47.0442409],
          [28.8611808, 47.0442491],
          [28.8612446, 47.0442507],
          [28.8613469, 47.0442516]
        ]
      }
    },
    {
      "type": "Feature",
      "properties": {
        "type": "way",
        "id": 706041402,
        "tags": {
          "highway": "primary",
          "junction": "roundabout",
          "lanes": "3",
          "surface": "asphalt"
        }
      },
      "geometry": {
        "type": "LineString",
        "coordinates": [
          [28.8613469, 47.0442516],
          [28.8613999, 47.0442477],
          [28.861452, 47.0442555],
          [28.8614978, 47.0442741]
        ]
      }
    },
    {
      "type": "Feature",
      "properties": {
        "type": "way",
        "id": 706069131,
        "tags": {
          "highway": "trunk",
          "int_ref": "E 584",
          "maxspeed": "50",
          "oneway": "yes",
          "surface": "asphalt"
        }
      },
      "geometry": {
        "type": "LineString",
        "coordinates": [[28.8526971, 47.0431416], [28.8529339, 47.042949]]
      }
    },
    {
      "type": "Feature",
      "properties": {
        "type": "way",
        "id": 722400322,
        "tags": {
          "highway": "primary",
          "lanes": "6",
          "maxspeed": "30",
          "name": "Strada Bogdan Voievod",
          "name:ro": "str. Bogdan Voievod",
          "name:ru": "\u0443\u043b\u0438\u0446\u0430 \u0411\u043e\u0433\u0434\u0430\u043d \u0412\u043e\u0435\u0432\u043e\u0434",
          "oneway": "no",
          "surface": "asphalt"
        }
      },
      "geometry": {
        "type": "LineString",
        "coordinates": [
          [28.8606297, 47.0442088],
          [28.8606948, 47.044222],
          [28.8607385, 47.0442317]
        ]
      }
    },
    {
      "type": "Feature",
      "properties": {
        "type": "way",
        "id": 730291301,
        "tags": {
          "highway": "primary",
          "lanes": "3",
          "maxspeed": "40",
          "name": "Strada Alecu Russo",
          "name:ru": "\u0443\u043b\u0438\u0446\u0430 \u0410\u043b\u0435\u043a\u0443 \u0420\u0443\u0441\u0441\u043e",
          "old_name": "\u0443\u043b\u0438\u0446\u0430 \u0424\u0435\u0434\u044c\u043a\u043e",
          "oneway": "yes",
          "postal_code": "MD-2044"
        }
      },
      "geometry": {
        "type": "LineString",
        "coordinates": [
          [28.8833371, 47.0388731],
          [28.8824465, 47.0393779],
          [28.8823605, 47.0394217],
          [28.8822862, 47.0394597]
        ]
      }
    },
    {
      "type": "Feature",
      "properties": {
        "type": "way",
        "id": 730291302,
        "tags": {
          "highway": "primary",
          "junction": "roundabout",
          "lanes": "2",
          "maxspeed": "40",
          "postal_code": "MD-2044"
        }
      },
      "geometry": {
        "type": "LineString",
        "coordinates": [
          [28.8820272, 47.0392837],
          [28.8820834, 47.0392682],
          [28.882144, 47.0392658]
        ]
      }
    },
    {
      "type": "Feature",
      "properties": {
        "type": "way",
        "id": 730291306,
        "tags": {
          "foot": "no",
          "highway": "primary",
          "lanes": "6",
          "maxspeed": "50",
          "name": "Strada Alecu Russo",
          "name:ru": "\u0443\u043b\u0438\u0446\u0430 \u0410\u043b\u0435\u043a\u0443 \u0420\u0443\u0441\u0441\u043e",
          "old_name": "\u0443\u043b\u0438\u0446\u0430 \u0424\u0435\u0434\u044c\u043a\u043e",
          "postal_code": "MD-2044",
          "surface": "asphalt"
        }
      },
      "geometry": {
        "type": "LineString",
        "coordinates": [
          [28.8804139, 47.0400814],
          [28.8801545, 47.0401785],
          [28.8801124, 47.0401942]
        ]
      }
    },
    {
      "type": "Feature",
      "properties": {
        "type": "way",
        "id": 730291307,
        "tags": {
          "foot": "no",
          "highway": "primary",
          "lanes": "6",
          "maxspeed": "50",
          "name": "Strada Alecu Russo",
          "name:ru": "\u0443\u043b\u0438\u0446\u0430 \u0410\u043b\u0435\u043a\u0443 \u0420\u0443\u0441\u0441\u043e",
          "old_name": "\u0443\u043b\u0438\u0446\u0430 \u0424\u0435\u0434\u044c\u043a\u043e",
          "surface": "asphalt"
        }
      },
      "geometry": {
        "type": "LineString",
        "coordinates": [
          [28.8833371, 47.0388731],
          [28.8837905, 47.0386747],
          [28.8838966, 47.0386283],
          [28.8846132, 47.0383112],
          [28.8847006, 47.0382722],
          [28.8864626, 47.0374884],
          [28.887262, 47.0371347],
          [28.8879522, 47.0368316]
        ]
      }
    },
    {
      "type": "Feature",
      "properties": {
        "type": "way",
        "id": 730291308,
        "tags": {
          "highway": "primary",
          "lanes": "6",
          "maxspeed": "50",
          "name": "Strada Alecu Russo",
          "name:ro": "Strada Alecu Russo",
          "name:ru": "\u0443\u043b\u0438\u0446\u0430 \u0410\u043b\u0435\u043a\u0443 \u0420\u0443\u0441\u0441\u043e",
          "old_name": "\u0443\u043b\u0438\u0446\u0430 \u0424\u0435\u0434\u044c\u043a\u043e",
          "surface": "asphalt"
        }
      },
      "geometry": {
        "type": "LineString",
        "coordinates": [
          [28.8621488, 47.0443194],
          [28.8626848, 47.0442128],
          [28.8634349, 47.0440637],
          [28.8638803, 47.0439752],
          [28.8645864, 47.0438348],
          [28.8649842, 47.0437557],
          [28.8655402, 47.0436454],
          [28.8661127, 47.0435314],
          [28.8663039, 47.0434934],
          [28.8668337, 47.043388],
          [28.8671216, 47.0433308],
          [28.867378, 47.0432798],
          [28.8683645, 47.0430837],
          [28.8685942, 47.043038]
        ]
      }
    },
    {
      "type": "Feature",
      "properties": {
        "type": "way",
        "id": 730291309,
        "tags": {
          "foot": "no",
          "highway": "primary",
          "lanes": "3",
          "maxspeed": "50",
          "name": "Strada Alecu Russo",
          "name:ro": "Strada Alecu Russo",
          "name:ru": "\u0443\u043b\u0438\u0446\u0430 \u0410\u043b\u0435\u043a\u0443 \u0420\u0443\u0441\u0441\u043e",
          "old_name": "\u0443\u043b\u0438\u0446\u0430 \u0424\u0435\u0434\u044c\u043a\u043e",
          "oneway": "yes",
          "postal_code": "MD-2044",
          "surface": "asphalt"
        }
      },
      "geometry": {
        "type": "LineString",
        "coordinates": [[28.8621488, 47.0443194], [28.861947, 47.0443896]]
      }
    },
    {
      "type": "Feature",
      "properties": {
        "type": "way",
        "id": 730291310,
        "tags": {
          "foot": "no",
          "highway": "primary",
          "lanes": "3",
          "maxspeed": "50",
          "name": "Strada Alecu Russo",
          "name:ru": "\u0443\u043b\u0438\u0446\u0430 \u0410\u043b\u0435\u043a\u0443 \u0420\u0443\u0441\u0441\u043e",
          "old_name": "\u0443\u043b\u0438\u0446\u0430 \u0424\u0435\u0434\u044c\u043a\u043e",
          "oneway": "yes",
          "surface": "asphalt"
        }
      },
      "geometry": {
        "type": "LineString",
        "coordinates": [
          [28.8879522, 47.0368316],
          [28.8882269, 47.0366688],
          [28.8883532, 47.0365722]
        ]
      }
    },
    {
      "type": "Feature",
      "properties": {
        "type": "way",
        "id": 730291317,
        "tags": {
          "foot": "no",
          "highway": "primary",
          "lanes": "6",
          "maxspeed": "50",
          "name": "Strada Alecu Russo",
          "name:ru": "\u0443\u043b\u0438\u0446\u0430 \u0410\u043b\u0435\u043a\u0443 \u0420\u0443\u0441\u0441\u043e",
          "old_name": "\u0443\u043b\u0438\u0446\u0430 \u0424\u0435\u0434\u044c\u043a\u043e",
          "postal_code": "MD-2044",
          "surface": "asphalt"
        }
      },
      "geometry": {
        "type": "LineString",
        "coordinates": [
          [28.8801124, 47.0401942],
          [28.8800229, 47.0402277],
          [28.8794104, 47.0404428],
          [28.878722, 47.040667],
          [28.8780652, 47.0408708],
          [28.8774773, 47.0410393],
          [28.8769696, 47.0411787],
          [28.8764564, 47.0413142],
          [28.8757265, 47.0414879],
          [28.8748763, 47.0416808],
          [28.871573, 47.0423921],
          [28.8698201, 47.042773],
          [28.8685942, 47.043038]
        ]
      }
    }
  ]
}
