{
  "version": 0.6,
  "generator": "Overpass API 0.7.55.7 8b86ff77",
  "osm3s": {
    "timestamp_osm_base": "2019-10-04T21:52:02Z",
    "copyright": "The data included in this document is from www.openstreetmap.org. The data is made available under ODbL."
  },
  "elements": [
    {
      "type": "node",
      "id": 340052776,
      "lat": 47.0431908,
      "lon": 28.8673308,
      "tags": {
        "highway": "bus_stop",
        "name": "Nicolai Dimo",
        "name:ru": "ул. Н. Димо",
        "public_transport": "platform"
      }
    },
    {
      "type": "node",
      "id": 370413213,
      "lat": 47.0561356,
      "lon": 28.8908454,
      "tags": {
        "highway": "bus_stop",
        "name": "str. Ion Dumeniuc",
        "name:ro": "str. Ion Dumeniuc 26",
        "name:ru": "ул. Ион Думенюк",
        "public_transport": "platform"
      }
    },
    {
      "type": "node",
      "id": 370413215,
      "lat": 47.0569726,
      "lon": 28.8917057,
      "tags": {
        "highway": "bus_stop",
        "name": "str. Ion Dumeniuc",
        "name:ru": "ул. Иона Думенюка",
        "public_transport": "platform"
      }
    },
    {
      "type": "node",
      "id": 370413235,
      "lat": 47.0504495,
      "lon": 28.8900272,
      "tags": {
        "highway": "bus_stop",
        "name": "str. Igor Vieru",
        "name:ru": "ул. Игорь Виеру",
        "public_transport": "platform"
      }
    },
    {
      "type": "node",
      "id": 370413258,
      "lat": 47.0373296,
      "lon": 28.8900143,
      "tags": {
        "bench": "yes",
        "covered": "yes",
        "highway": "bus_stop",
        "name": "Bd. Mircea cel Bătrân",
        "name:ru": "бульвар Мирча чел Бэтрын",
        "public_transport": "platform",
        "shelter": "yes"
      }
    },
    {
      "type": "node",
      "id": 376339067,
      "lat": 47.0621768,
      "lon": 28.8458975,
      "tags": {
        "bench": "yes",
        "bus": "yes",
        "covered": "yes",
        "highway": "bus_stop",
        "name": "str. Socoleni",
        "name:ru": "ул. Соколень",
        "public_transport": "platform",
        "shelter": "yes"
      }
    },
    {
      "type": "node",
      "id": 376339324,
      "lat": 47.0542585,
      "lon": 28.8498929,
      "tags": {
        "highway": "bus_stop",
        "name": "str. Calea Orheiului",
        "name:ru": "ул. Каля Орхеюлуй",
        "public_transport": "platform"
      }
    },
    {
      "type": "node",
      "id": 376339441,
      "lat": 47.0472054,
      "lon": 28.8908978,
      "tags": {
        "bench": "yes",
        "covered": "yes",
        "highway": "bus_stop",
        "name": "Judecătoria sectorului Ciocana",
        "name:ru": "Суд сектора Чекан",
        "public_transport": "platform",
        "shelter": "yes"
      }
    },
    {
      "type": "node",
      "id": 461604332,
      "lat": 47.0441294,
      "lon": 28.8626332,
      "tags": {
        "highway": "bus_stop",
        "name": "str. Alecu Russo",
        "name:ru": "ул. Алеку Руссо",
        "public_transport": "platform"
      }
    },
    {
      "type": "node",
      "id": 527885215,
      "lat": 47.0381312,
      "lon": 28.8845789,
      "tags": {
        "bench": "yes",
        "bus": "yes",
        "covered": "yes",
        "highway": "bus_stop",
        "name": "str. Mihail Sadoveanu",
        "name:ro": "str. Mihail Sadoveanu",
        "name:ru": "ул. Михаил Садовяну",
        "public_transport": "platform",
        "shelter": "yes"
      }
    },
    {
      "type": "node",
      "id": 633630323,
      "lat": 47.0378918,
      "lon": 28.8893437,
      "tags": {
        "bench": "yes",
        "covered": "yes",
        "highway": "bus_stop",
        "name": "Ginta Latină",
        "name:ru": "Джинта Латинэ",
        "public_transport": "platform",
        "shelter": "yes"
      }
    },
    {
      "type": "node",
      "id": 633630325,
      "lat": 47.0430106,
      "lon": 28.8898419,
      "tags": {
        "bench": "yes",
        "covered": "yes",
        "highway": "bus_stop",
        "name": "str. Petru Zadnipru",
        "name:ro": "str. Petru Zadnipru",
        "name:ru": "ул. Петру Заднипру",
        "public_transport": "platform",
        "shelter": "yes"
      }
    },
    {
      "type": "node",
      "id": 633630328,
      "lat": 47.0438114,
      "lon": 28.8907301,
      "tags": {
        "bench": "yes",
        "covered": "yes",
        "highway": "bus_stop",
        "name": "Petru Zadnipru",
        "name:ro": "str. Petru Zadnipru",
        "name:ru": "ул. Петру Заднипру",
        "public_transport": "platform",
        "shelter": "yes"
      }
    },
    {
      "type": "node",
      "id": 633630330,
      "lat": 47.0517895,
      "lon": 28.8909312,
      "tags": {
        "highway": "bus_stop",
        "name": "Str. Igor Vieru",
        "name:ro": "Str. Igor Vieru",
        "name:ru": "ул. Игорь Виеру",
        "public_transport": "platform"
      }
    },
    {
      "type": "node",
      "id": 1035241557,
      "lat": 47.0613022,
      "lon": 28.8460111,
      "tags": {
        "bench": "yes",
        "bus": "yes",
        "highway": "bus_stop",
        "name": "str. Socoleni",
        "name:ru": "ул. Соколень",
        "public_transport": "platform"
      }
    },
    {
      "type": "node",
      "id": 1209486292,
      "lat": 47.0575091,
      "lon": 28.8477965,
      "tags": {
        "highway": "bus_stop",
        "name": "str. Iazului",
        "name:ru": "ул. Язулуй",
        "public_transport": "platform"
      }
    },
    {
      "type": "node",
      "id": 1211607992,
      "lat": 47.0551428,
      "lon": 28.8496256,
      "tags": {
        "highway": "bus_stop",
        "name": "str. Ceucari",
        "name:ru": "ул. Чеукарь",
        "public_transport": "platform"
      }
    },
    {
      "type": "node",
      "id": 1211611471,
      "lat": 47.0580755,
      "lon": 28.8477516,
      "tags": {
        "highway": "bus_stop",
        "name": "str. Iazului",
        "name:ru": "ул. Язулуй",
        "public_transport": "platform"
      }
    },
    {
      "type": "node",
      "id": 1211614943,
      "lat": 47.0510337,
      "lon": 28.8500667,
      "tags": {
        "bench": "yes",
        "covered": "yes",
        "highway": "bus_stop",
        "name": "str. Vasile Badiu",
        "name:ru": "ул. Василе Бадю",
        "public_transport": "platform",
        "shelter": "yes"
      }
    },
    {
      "type": "node",
      "id": 1211616127,
      "lat": 47.0516229,
      "lon": 28.850732,
      "tags": {
        "bench": "no",
        "covered": "yes",
        "highway": "bus_stop",
        "name": "str. Vasile Badiu",
        "name:ru": "ул. Василе Бадю",
        "public_transport": "platform",
        "shelter": "yes"
      }
    },
    {
      "type": "node",
      "id": 1216583454,
      "lat": 47.0406309,
      "lon": 28.890406,
      "tags": {
        "highway": "bus_stop",
        "name": "Pretura sectorului Ciocana",
        "name:ru": "Петруа сек. Чекан",
        "public_transport": "platform"
      }
    },
    {
      "type": "node",
      "id": 1554651685,
      "lat": 47.0436294,
      "lon": 28.8661533,
      "tags": {
        "highway": "bus_stop",
        "name": "str. N. Dimo",
        "name:ru": "ул. Н. Димо",
        "public_transport": "platform"
      }
    },
    {
      "type": "node",
      "id": 1554651691,
      "lat": 47.0441788,
      "lon": 28.8597773,
      "tags": {
        "highway": "bus_stop",
        "name": "Bogdan Voievod",
        "name:ro": "Bogdan Voievod",
        "name:ru": "Богдан Воевод",
        "public_transport": "platform"
      }
    },
    {
      "type": "node",
      "id": 1557395456,
      "lat": 47.0436246,
      "lon": 28.852523,
      "tags": {
        "highway": "bus_stop",
        "name": "str. Florilor",
        "name:ro": "Florilor 6/2",
        "name:ru": "ул. Флорилор",
        "public_transport": "platform"
      }
    },
    {
      "type": "node",
      "id": 1557395459,
      "lat": 47.046181,
      "lon": 28.8488458,
      "tags": {
        "highway": "bus_stop",
        "name": "str. Calea Orheiului",
        "public_transport": "platform"
      }
    },
    {
      "type": "node",
      "id": 1557395464,
      "lat": 47.0466317,
      "lon": 28.8485801,
      "tags": {
        "highway": "bus_stop",
        "name": "bd. Renașterii Naționale",
        "name:ru": "пр. Ренаштерий Национале",
        "public_transport": "platform"
      }
    },
    {
      "type": "node",
      "id": 1557396061,
      "lat": 47.065218,
      "lon": 28.8444294,
      "tags": {
        "bus": "yes",
        "highway": "bus_stop",
        "name": "Liceul \"George Călinescu\"",
        "name:ru": "Лицей им. Джордже Кэлинеску",
        "public_transport": "platform"
      }
    },
    {
      "type": "node",
      "id": 1557396084,
      "lat": 47.0653801,
      "lon": 28.8439748,
      "tags": {
        "bus": "yes",
        "highway": "bus_stop",
        "name": "Liceul \"George Călinescu\"",
        "name:ru": "Лицей им. Джордже Кэлинеску",
        "public_transport": "platform"
      }
    },
    {
      "type": "node",
      "id": 1723817019,
      "lat": 47.0372194,
      "lon": 28.887358,
      "tags": {
        "bench": "yes",
        "covered": "yes",
        "highway": "bus_stop",
        "name": "str. Alecu Russo",
        "name:ru": "ул. Алеку Руссо",
        "public_transport": "platform",
        "shelter": "yes"
      }
    },
    {
      "type": "node",
      "id": 1844942249,
      "lat": 47.043221,
      "lon": 28.8560557,
      "tags": {
        "highway": "bus_stop",
        "name": "Str. Bogdan Voievod",
        "name:ro": "Str. Bogdan Voievod",
        "name:ru": "ул. Богдан Воевод",
        "public_transport": "platform",
        "shelter": "no",
        "tactile_paving": "no"
      }
    },
    {
      "type": "node",
      "id": 3856161595,
      "lat": 47.0384098,
      "lon": 28.8847033,
      "tags": {
        "bench": "yes",
        "covered": "yes",
        "highway": "bus_stop",
        "name": "str. Mihail Sadoveanu",
        "name:ro": "str. Mihail Sadoveanu",
        "name:ru": "ул. Михаил Садовяну",
        "public_transport": "platform",
        "shelter": "yes"
      }
    },
    {
      "type": "node",
      "id": 3861263969,
      "lat": 47.0365479,
      "lon": 28.8882772,
      "tags": {
        "bench": "yes",
        "covered": "yes",
        "highway": "bus_stop",
        "name": "Meşterul Manole",
        "name:ru": "ул. Мастера Маноле (Мештерул Маноле)",
        "public_transport": "platform",
        "shelter": "yes"
      }
    },
    {
      "type": "node",
      "id": 4110348292,
      "lat": 47.046203,
      "lon": 28.8901893,
      "tags": {
        "bench": "yes",
        "covered": "yes",
        "highway": "bus_stop",
        "name": "Statia de ruta a magazinul Budesti",
        "name:en": "Bus station of supermarket Budesti",
        "name:ru": "Районный суд Чекан",
        "public_transport": "platform",
        "shelter": "yes"
      }
    }
  ]
}
