{
  "version": 0.6,
  "generator": "Overpass API 0.7.55.7 8b86ff77",
  "osm3s": {
    "timestamp_osm_base": "2019-10-04T21:52:02Z",
    "copyright": "The data included in this document is from www.openstreetmap.org. The data is made available under ODbL."
  },
  "elements": [
    {
      "type": "node",
      "id": 325005049,
      "lat": 47.0381774,
      "lon": 28.8099481,
      "tags": {
        "highway": "bus_stop",
        "name": "Piaţa Dimitrie Cantemir",
        "name:ru": "пл. Дмитрие Кантемир",
        "operator": "orange",
        "public_transport": "platform"
      }
    },
    {
      "type": "node",
      "id": 340052776,
      "lat": 47.0431908,
      "lon": 28.8673308,
      "tags": {
        "highway": "bus_stop",
        "name": "Nicolai Dimo",
        "name:ru": "ул. Н. Димо",
        "public_transport": "platform"
      }
    },
    {
      "type": "node",
      "id": 370413213,
      "lat": 47.0561356,
      "lon": 28.8908454,
      "tags": {
        "highway": "bus_stop",
        "name": "str. Ion Dumeniuc",
        "name:ro": "str. Ion Dumeniuc 26",
        "name:ru": "ул. Ион Думенюк",
        "public_transport": "platform"
      }
    },
    {
      "type": "node",
      "id": 370413215,
      "lat": 47.0569726,
      "lon": 28.8917057,
      "tags": {
        "highway": "bus_stop",
        "name": "str. Ion Dumeniuc",
        "name:ru": "ул. Иона Думенюка",
        "public_transport": "platform"
      }
    },
    {
      "type": "node",
      "id": 370413235,
      "lat": 47.0504495,
      "lon": 28.8900272,
      "tags": {
        "highway": "bus_stop",
        "name": "str. Igor Vieru",
        "name:ru": "ул. Игорь Виеру",
        "public_transport": "platform"
      }
    },
    {
      "type": "node",
      "id": 370413258,
      "lat": 47.0373296,
      "lon": 28.8900143,
      "tags": {
        "bench": "yes",
        "covered": "yes",
        "highway": "bus_stop",
        "name": "Bd. Mircea cel Bătrân",
        "name:ru": "бульвар Мирча чел Бэтрын",
        "public_transport": "platform",
        "shelter": "yes"
      }
    },
    {
      "type": "node",
      "id": 376339159,
      "lat": 47.0340215,
      "lon": 28.8192612,
      "tags": {
        "bus": "yes",
        "highway": "bus_stop",
        "name": "Universitatea de Stat de Medicină și Farmacie",
        "name:ru": "Государственный университет Медицины и Фармации",
        "public_transport": "platform"
      }
    },
    {
      "type": "node",
      "id": 376339174,
      "lat": 47.0370472,
      "lon": 28.8203371,
      "tags": {
        "highway": "bus_stop",
        "name": "Asociația „Tracom“",
        "name:ru": "Ассоциация \"Траком\"",
        "public_transport": "platform"
      }
    },
    {
      "type": "node",
      "id": 376339175,
      "lat": 47.0446114,
      "lon": 28.7884948,
      "tags": {
        "bus": "yes",
        "highway": "bus_stop",
        "name": "Parcul „La Izvor“",
        "name:ru": "Парк «Ла Извор»",
        "public_transport": "platform"
      }
    },
    {
      "type": "node",
      "id": 376339178,
      "lat": 47.0442382,
      "lon": 28.7887317,
      "tags": {
        "bus": "yes",
        "highway": "bus_stop",
        "name": "Parcul „La Izvor“",
        "name:ru": "Парк «Ла Извор»",
        "public_transport": "platform"
      }
    },
    {
      "type": "node",
      "id": 376339180,
      "lat": 47.0381188,
      "lon": 28.8052532,
      "tags": {
        "highway": "bus_stop",
        "name": "Parcul Alunelul",
        "public_transport": "platform"
      }
    },
    {
      "type": "node",
      "id": 376339327,
      "lat": 47.0390804,
      "lon": 28.8035038,
      "tags": {
        "highway": "bus_stop",
        "name": "Asociația \"Zorile\"",
        "name:ru": "Ассоциация \"Зориле\"",
        "public_transport": "platform"
      }
    },
    {
      "type": "node",
      "id": 376339403,
      "lat": 47.0362593,
      "lon": 28.8226288,
      "tags": {
        "bus": "yes",
        "highway": "bus_stop",
        "name": "str. Columna",
        "name:ru": "ул. Колумна",
        "public_transport": "platform"
      }
    },
    {
      "type": "node",
      "id": 376339441,
      "lat": 47.0472054,
      "lon": 28.8908978,
      "tags": {
        "bench": "yes",
        "covered": "yes",
        "highway": "bus_stop",
        "name": "Judecătoria sectorului Ciocana",
        "name:ru": "Суд сектора Чекан",
        "public_transport": "platform",
        "shelter": "yes"
      }
    },
    {
      "type": "node",
      "id": 449672988,
      "lat": 47.0383077,
      "lon": 28.8253542,
      "tags": {
        "highway": "bus_stop",
        "name": "str. Albișoara",
        "name:ru": "ул. Албишоара",
        "old_name": "ул. Набережная",
        "public_transport": "platform"
      }
    },
    {
      "type": "node",
      "id": 461062053,
      "lat": 47.0379329,
      "lon": 28.810016,
      "tags": {
        "highway": "bus_stop",
        "name": "Piața Dmitrie Cantemir",
        "name:ru": "пл. Дмитрие Кантемир",
        "public_transport": "platform"
      }
    },
    {
      "type": "node",
      "id": 461062058,
      "lat": 47.0428973,
      "lon": 28.7941984,
      "tags": {
        "highway": "bus_stop",
        "name": "Bariera Sculeni",
        "name:ru": "Скулянский барьер",
        "public_transport": "platform"
      }
    },
    {
      "type": "node",
      "id": 461062059,
      "lat": 47.0461749,
      "lon": 28.7832239,
      "tags": {
        "highway": "bus_stop",
        "name": "str. Ghidighici",
        "name:ro": "str. Ghidighici",
        "name:ru": "ул. Гидигич",
        "public_transport": "platform"
      }
    },
    {
      "type": "node",
      "id": 461604332,
      "lat": 47.0441294,
      "lon": 28.8626332,
      "tags": {
        "highway": "bus_stop",
        "name": "str. Alecu Russo",
        "name:ru": "ул. Алеку Руссо",
        "public_transport": "platform"
      }
    },
    {
      "type": "node",
      "id": 527885215,
      "lat": 47.0381312,
      "lon": 28.8845789,
      "tags": {
        "bench": "yes",
        "bus": "yes",
        "covered": "yes",
        "highway": "bus_stop",
        "name": "str. Mihail Sadoveanu",
        "name:ro": "str. Mihail Sadoveanu",
        "name:ru": "ул. Михаил Садовяну",
        "public_transport": "platform",
        "shelter": "yes"
      }
    },
    {
      "type": "node",
      "id": 613009714,
      "lat": 47.0382456,
      "lon": 28.8256815,
      "tags": {
        "highway": "bus_stop",
        "name": "str. Albișoara",
        "name:ru": "ул. Албишоара",
        "old_name": "ул. Набережная",
        "public_transport": "platform"
      }
    },
    {
      "type": "node",
      "id": 633630323,
      "lat": 47.0378918,
      "lon": 28.8893437,
      "tags": {
        "bench": "yes",
        "covered": "yes",
        "highway": "bus_stop",
        "name": "Ginta Latină",
        "name:ru": "Джинта Латинэ",
        "public_transport": "platform",
        "shelter": "yes"
      }
    },
    {
      "type": "node",
      "id": 633630325,
      "lat": 47.0430106,
      "lon": 28.8898419,
      "tags": {
        "bench": "yes",
        "covered": "yes",
        "highway": "bus_stop",
        "name": "str. Petru Zadnipru",
        "name:ro": "str. Petru Zadnipru",
        "name:ru": "ул. Петру Заднипру",
        "public_transport": "platform",
        "shelter": "yes"
      }
    },
    {
      "type": "node",
      "id": 633630328,
      "lat": 47.0438114,
      "lon": 28.8907301,
      "tags": {
        "bench": "yes",
        "covered": "yes",
        "highway": "bus_stop",
        "name": "Petru Zadnipru",
        "name:ro": "str. Petru Zadnipru",
        "name:ru": "ул. Петру Заднипру",
        "public_transport": "platform",
        "shelter": "yes"
      }
    },
    {
      "type": "node",
      "id": 633630330,
      "lat": 47.0517895,
      "lon": 28.8909312,
      "tags": {
        "highway": "bus_stop",
        "name": "Str. Igor Vieru",
        "name:ro": "Str. Igor Vieru",
        "name:ru": "ул. Игорь Виеру",
        "public_transport": "platform"
      }
    },
    {
      "type": "node",
      "id": 694216625,
      "lat": 47.0409989,
      "lon": 28.8426189,
      "tags": {
        "highway": "bus_stop",
        "name": "str. Gara \"Vesterniceni\"",
        "name:ru": "ул. Вокзал \"Вестерничены\"",
        "public_transport": "platform"
      }
    },
    {
      "type": "node",
      "id": 1216583454,
      "lat": 47.0406309,
      "lon": 28.890406,
      "tags": {
        "highway": "bus_stop",
        "name": "Pretura sectorului Ciocana",
        "name:ru": "Петруа сек. Чекан",
        "public_transport": "platform"
      }
    },
    {
      "type": "node",
      "id": 1482712252,
      "lat": 47.0452826,
      "lon": 28.7850345,
      "tags": {
        "highway": "bus_stop",
        "name": "str. Ghidighici",
        "name:ro": "Str. Ghidighici",
        "name:ru": "ул. Гидигич",
        "public_transport": "platform"
      }
    },
    {
      "type": "node",
      "id": 1554651685,
      "lat": 47.0436294,
      "lon": 28.8661533,
      "tags": {
        "highway": "bus_stop",
        "name": "str. N. Dimo",
        "name:ru": "ул. Н. Димо",
        "public_transport": "platform"
      }
    },
    {
      "type": "node",
      "id": 1554651691,
      "lat": 47.0441788,
      "lon": 28.8597773,
      "tags": {
        "highway": "bus_stop",
        "name": "Bogdan Voievod",
        "name:ro": "Bogdan Voievod",
        "name:ru": "Богдан Воевод",
        "public_transport": "platform"
      }
    },
    {
      "type": "node",
      "id": 1557395456,
      "lat": 47.0436246,
      "lon": 28.852523,
      "tags": {
        "highway": "bus_stop",
        "name": "str. Florilor",
        "name:ro": "Florilor 6/2",
        "name:ru": "ул. Флорилор",
        "public_transport": "platform"
      }
    },
    {
      "type": "node",
      "id": 1558999570,
      "lat": 47.0413403,
      "lon": 28.842274,
      "tags": {
        "highway": "bus_stop",
        "name": "str. Gara \"Vesterniceni\" №21, 23, 27",
        "name:ru": "ул. Вокзал \"Вестерничены\"",
        "public_transport": "platform",
        "shelter": "no"
      }
    },
    {
      "type": "node",
      "id": 1558999573,
      "lat": 47.0446015,
      "lon": 28.8479992,
      "tags": {
        "highway": "bus_stop",
        "name": "Bd. Renașterii Naționale",
        "name:ro": "Bd. Renașterii Naționale",
        "name:ru": "Коммерческий центр \"Супратен\"",
        "public_transport": "platform"
      }
    },
    {
      "type": "node",
      "id": 1558999576,
      "lat": 47.0447877,
      "lon": 28.8477432,
      "tags": {
        "highway": "bus_stop",
        "name": "str. Calea Orheiului",
        "name:ru": "ул. Каля Орхеюлуй",
        "public_transport": "platform"
      }
    },
    {
      "type": "node",
      "id": 1723817019,
      "lat": 47.0372194,
      "lon": 28.887358,
      "tags": {
        "bench": "yes",
        "covered": "yes",
        "highway": "bus_stop",
        "name": "str. Alecu Russo",
        "name:ru": "ул. Алеку Руссо",
        "public_transport": "platform",
        "shelter": "yes"
      }
    },
    {
      "type": "node",
      "id": 1844942249,
      "lat": 47.043221,
      "lon": 28.8560557,
      "tags": {
        "highway": "bus_stop",
        "name": "Str. Bogdan Voievod",
        "name:ro": "Str. Bogdan Voievod",
        "name:ru": "ул. Богдан Воевод",
        "public_transport": "platform",
        "shelter": "no",
        "tactile_paving": "no"
      }
    },
    {
      "type": "node",
      "id": 2635477677,
      "lat": 47.042694,
      "lon": 28.8356669,
      "tags": {
        "addr:housenumber": "15/3",
        "addr:postcode": "2059",
        "addr:street": "Strada Petricani",
        "email": "info@decorelli.md",
        "highway": "bus_stop",
        "name": "DECORELLI",
        "name:ru": "ДЕКОРЕЛЛИ",
        "opening_hours": "Mo-Fr 09:00-18:00; Sa 09:00-13:00",
        "phone": "+37369728782",
        "public_transport": "platform",
        "shop": "hardware",
        "website": "https://decorelli.md"
      }
    },
    {
      "type": "node",
      "id": 2635477682,
      "lat": 47.0432548,
      "lon": 28.8346676,
      "tags": {
        "highway": "bus_stop",
        "name": "Centrul Comercial \"Supraten\"",
        "name:ru": "Коммерческий центр \"Супратен\"",
        "public_transport": "platform"
      }
    },
    {
      "type": "node",
      "id": 3856161595,
      "lat": 47.0384098,
      "lon": 28.8847033,
      "tags": {
        "bench": "yes",
        "covered": "yes",
        "highway": "bus_stop",
        "name": "str. Mihail Sadoveanu",
        "name:ro": "str. Mihail Sadoveanu",
        "name:ru": "ул. Михаил Садовяну",
        "public_transport": "platform",
        "shelter": "yes"
      }
    },
    {
      "type": "node",
      "id": 3861263969,
      "lat": 47.0365479,
      "lon": 28.8882772,
      "tags": {
        "bench": "yes",
        "covered": "yes",
        "highway": "bus_stop",
        "name": "Meşterul Manole",
        "name:ru": "ул. Мастера Маноле (Мештерул Маноле)",
        "public_transport": "platform",
        "shelter": "yes"
      }
    },
    {
      "type": "node",
      "id": 4110348292,
      "lat": 47.046203,
      "lon": 28.8901893,
      "tags": {
        "bench": "yes",
        "covered": "yes",
        "highway": "bus_stop",
        "name": "Statia de ruta a magazinul Budesti",
        "name:en": "Bus station of supermarket Budesti",
        "name:ru": "Районный суд Чекан",
        "public_transport": "platform",
        "shelter": "yes"
      }
    },
    {
      "type": "node",
      "id": 4563611309,
      "lat": 47.0478127,
      "lon": 28.7785008,
      "tags": {
        "highway": "bus_stop",
        "name": "Restaurantul \"Butoiaş\"",
        "name:ru": "Ресторан \"Бутояш\"",
        "public_transport": "platform"
      }
    },
    {
      "type": "node",
      "id": 4566744961,
      "lat": 47.0380999,
      "lon": 28.8161255,
      "tags": {
        "highway": "bus_stop",
        "name": "Mitropolit Dosoftei",
        "name:ru": "Митрополит Дософтей",
        "public_transport": "platform"
      }
    },
    {
      "type": "node",
      "id": 6531479351,
      "lat": 47.0424249,
      "lon": 28.7948039,
      "tags": {
        "highway": "bus_stop",
        "name": "Bariera Sculeni",
        "public_transport": "platform"
      }
    }
  ]
}
