{
  "version": 0.6,
  "generator": "Overpass API 0.7.55.7 8b86ff77",
  "osm3s": {
    "timestamp_osm_base": "2019-10-04T21:52:02Z",
    "copyright": "The data included in this document is from www.openstreetmap.org. The data is made available under ODbL."
  },
  "elements": [
    {
      "type": "node",
      "id": 325004990,
      "lat": 47.0225088,
      "lon": 28.8295459,
      "tags": {
        "bus": "yes",
        "highway": "bus_stop",
        "name": "str. 31 August 1989",
        "name:ro": "str. 31 August 1989",
        "name:ru": "ул. 31 Августа 1989",
        "public_transport": "platform"
      }
    },
    {
      "type": "node",
      "id": 325005092,
      "lat": 47.0202032,
      "lon": 28.8392228,
      "tags": {
        "bus": "yes",
        "highway": "bus_stop",
        "name": "str. Armenească",
        "name:ru": "Армянская ул.",
        "public_transport": "platform"
      }
    },
    {
      "type": "node",
      "id": 325005105,
      "lat": 47.0110807,
      "lon": 28.8582041,
      "tags": {
        "highway": "bus_stop",
        "name": "Gara Feroviara",
        "name:ru": "Железнодорожный вокзал. ЖД вокзал",
        "public_transport": "platform"
      }
    },
    {
      "type": "node",
      "id": 325005107,
      "lat": 47.0111314,
      "lon": 28.8586766,
      "tags": {
        "highway": "bus_stop",
        "name": "Gara Feroviara",
        "name:ru": "Железнодорожный вокзал. ЖД вокзал",
        "public_transport": "platform"
      }
    },
    {
      "type": "node",
      "id": 340052760,
      "lat": 47.0244375,
      "lon": 28.8291614,
      "tags": {
        "bus": "yes",
        "highway": "bus_stop",
        "name": "Grădina Publică",
        "name:ru": "Парк",
        "public_transport": "platform"
      }
    },
    {
      "type": "node",
      "id": 340053722,
      "lat": 47.0136719,
      "lon": 28.8538448,
      "tags": {
        "highway": "bus_stop",
        "name": "Bulevardul Constantin Negruzzi",
        "name:ru": "бул. Негруцци",
        "name_1": "bd. Negruzzi",
        "public_transport": "platform"
      }
    },
    {
      "type": "node",
      "id": 376339155,
      "lat": 47.0222,
      "lon": 28.8357781,
      "tags": {
        "bus": "yes",
        "highway": "bus_stop",
        "name": "Teatrul M. Eminescu",
        "name:ru": "Театр М. Эминеску",
        "public_transport": "platform",
        "shelter": "yes",
        "wheelchair": "yes"
      }
    },
    {
      "type": "node",
      "id": 376339157,
      "lat": 47.0231458,
      "lon": 28.834813,
      "tags": {
        "bus": "yes",
        "highway": "bus_stop",
        "name": "Piața Mării Adunări Naționale",
        "name:ru": "Площадь Великого Национального Собрания",
        "public_transport": "platform",
        "shelter": "yes",
        "wheelchair": "yes"
      }
    },
    {
      "type": "node",
      "id": 376339245,
      "lat": 47.0049378,
      "lon": 28.8674495,
      "tags": {
        "highway": "bus_stop",
        "name": "str. Dimineții",
        "name:ru": "ул. Диминеций",
        "public_transport": "platform"
      }
    },
    {
      "type": "node",
      "id": 376339247,
      "lat": 47.0094149,
      "lon": 28.8615212,
      "tags": {
        "highway": "bus_stop",
        "name": "str. Muncești",
        "name:ru": "ул. Мунчештская",
        "public_transport": "platform"
      }
    },
    {
      "type": "node",
      "id": 376339258,
      "lat": 46.9858479,
      "lon": 28.8912688,
      "tags": {
        "highway": "bus_stop",
        "name": "str. Paul Gore",
        "public_transport": "platform"
      }
    },
    {
      "type": "node",
      "id": 376339260,
      "lat": 46.985244,
      "lon": 28.8923432,
      "tags": {
        "highway": "bus_stop",
        "name": "str. Paul Gore",
        "public_transport": "platform"
      }
    },
    {
      "type": "node",
      "id": 376339262,
      "lat": 46.9931871,
      "lon": 28.8799737,
      "tags": {
        "highway": "bus_stop",
        "name": "str. Tomiș",
        "name:ru": "ул. Томиш",
        "public_transport": "platform"
      }
    },
    {
      "type": "node",
      "id": 376339264,
      "lat": 46.9911538,
      "lon": 28.883385,
      "tags": {
        "highway": "bus_stop",
        "name": "Asociaţia \"Carmez\"",
        "name:ru": "Ассоциация \"Кармез\"",
        "public_transport": "platform"
      }
    },
    {
      "type": "node",
      "id": 376339266,
      "lat": 46.9977852,
      "lon": 28.8749422,
      "tags": {
        "highway": "bus_stop",
        "name": "str. Căuşeni",
        "name:ru": "Каушанская ул.",
        "public_transport": "platform"
      }
    },
    {
      "type": "node",
      "id": 376339268,
      "lat": 46.9974987,
      "lon": 28.8749532,
      "tags": {
        "highway": "bus_stop",
        "name": "str. Căușeni",
        "name:ru": "Каушанская ул.",
        "public_transport": "platform"
      }
    },
    {
      "type": "node",
      "id": 376339270,
      "lat": 47.0055724,
      "lon": 28.8672402,
      "tags": {
        "highway": "bus_stop",
        "name": "str. Dimineții",
        "name:ru": "ул. Диминеций",
        "public_transport": "platform"
      }
    },
    {
      "type": "node",
      "id": 376339274,
      "lat": 47.0195775,
      "lon": 28.8397255,
      "tags": {
        "bus": "yes",
        "highway": "bus_stop",
        "name": "str. Armenească",
        "name:ru": "Армянская ул.",
        "public_transport": "platform"
      }
    },
    {
      "type": "node",
      "id": 376339286,
      "lat": 46.982502,
      "lon": 28.8972049,
      "tags": {
        "highway": "bus_stop",
        "public_transport": "platform"
      }
    },
    {
      "type": "node",
      "id": 1048600352,
      "lat": 46.9418671,
      "lon": 28.9425979,
      "tags": {
        "highway": "bus_stop",
        "public_transport": "platform"
      }
    },
    {
      "type": "node",
      "id": 1048600924,
      "lat": 46.9413526,
      "lon": 28.9430523,
      "tags": {
        "highway": "bus_stop",
        "public_transport": "platform"
      }
    },
    {
      "type": "node",
      "id": 1207327539,
      "lat": 47.0135611,
      "lon": 28.8505075,
      "tags": {
        "highway": "bus_stop",
        "name": "bd. Negruzzi",
        "name:ru": "бульвар К. Негруцци",
        "public_transport": "platform"
      }
    },
    {
      "type": "node",
      "id": 1482712250,
      "lat": 46.9886079,
      "lon": 28.8859487,
      "tags": {
        "highway": "bus_stop",
        "name": "Parcul de Troleibuze nr. 2",
        "name:ru": "Троллейбусный парк №2",
        "public_transport": "platform"
      }
    },
    {
      "type": "node",
      "id": 1837662770,
      "lat": 46.9788395,
      "lon": 28.9037741,
      "tags": {
        "highway": "bus_stop",
        "name": "sos. Muncești 426",
        "name:ru": "Мунчештская, 426",
        "public_transport": "platform"
      }
    },
    {
      "type": "node",
      "id": 3656734117,
      "lat": 46.9195794,
      "lon": 28.9719426,
      "tags": {
        "amenity": "bus_station",
        "name": "Sângera",
        "name:ru": "Сынджера",
        "public_transport": "platform"
      }
    },
    {
      "type": "node",
      "id": 4100959489,
      "lat": 47.0027781,
      "lon": 28.8693152,
      "tags": {
        "highway": "bus_stop",
        "name": "str. Minsk",
        "name:ru": "Минская ул.",
        "public_transport": "platform"
      }
    },
    {
      "type": "node",
      "id": 4563504809,
      "lat": 46.9905633,
      "lon": 28.8835706,
      "tags": {
        "highway": "bus_stop",
        "name": "Asociaţia \"Carmez\"",
        "name:ru": "Ассоциация \"Кармез\"",
        "public_transport": "platform"
      }
    },
    {
      "type": "node",
      "id": 4563504812,
      "lat": 46.9994013,
      "lon": 28.8726835,
      "tags": {
        "highway": "bus_stop",
        "name": "Pandurilor",
        "name:ru": "ул. Пандурилор",
        "public_transport": "platform"
      }
    },
    {
      "type": "node",
      "id": 4563504821,
      "lat": 46.9993041,
      "lon": 28.8730668,
      "tags": {
        "highway": "bus_stop",
        "name": "str. Pandurilor",
        "name:ru": "ул. Пандурилор",
        "public_transport": "platform"
      }
    },
    {
      "type": "node",
      "id": 4563504826,
      "lat": 46.9887133,
      "lon": 28.8866521,
      "tags": {
        "bus": "yes",
        "highway": "bus_stop",
        "name": "Parcul de Troleibuze nr. 2",
        "name:ru": "Троллейбусный парк №2",
        "public_transport": "platform"
      }
    },
    {
      "type": "node",
      "id": 4572917744,
      "lat": 46.9491078,
      "lon": 28.9314866,
      "tags": {
        "highway": "bus_stop",
        "name": "Drumul spre Aerogara",
        "public_transport": "platform"
      }
    },
    {
      "type": "node",
      "id": 4572917745,
      "lat": 46.9491755,
      "lon": 28.9315751,
      "tags": {
        "highway": "bus_stop",
        "name": "Drumul spre Aerogara",
        "name:ru": "Дорога до аэропорта",
        "public_transport": "platform"
      }
    },
    {
      "type": "node",
      "id": 4572917747,
      "lat": 46.9398046,
      "lon": 28.9461824,
      "tags": {
        "highway": "bus_stop",
        "name": "Muncești",
        "name:ru": "Мунчешты",
        "public_transport": "platform"
      }
    },
    {
      "type": "node",
      "id": 4574620984,
      "lat": 46.9125238,
      "lon": 28.9719526,
      "tags": {
        "highway": "bus_stop",
        "name": "Asociaţia de producţie",
        "public_transport": "platform"
      }
    },
    {
      "type": "node",
      "id": 4574620986,
      "lat": 46.917106,
      "lon": 28.9737676,
      "tags": {
        "highway": "bus_stop",
        "name": "Primăria Sângera",
        "name:ru": "Примэрия Сынджеры",
        "public_transport": "platform"
      }
    },
    {
      "type": "node",
      "id": 4574620987,
      "lat": 46.9170474,
      "lon": 28.9734511,
      "tags": {
        "highway": "bus_stop",
        "name": "Primăria Sângera",
        "name:ru": "Примэрия Сынджеры",
        "public_transport": "platform"
      }
    },
    {
      "type": "node",
      "id": 4884310091,
      "lat": 47.0163961,
      "lon": 28.8448429,
      "tags": {
        "highway": "bus_stop",
        "name": "UNIC",
        "name:ru": "Уник",
        "public_transport": "platform"
      }
    },
    {
      "type": "node",
      "id": 4889292449,
      "lat": 47.0168053,
      "lon": 28.8438959,
      "tags": {
        "bench": "yes",
        "highway": "bus_stop",
        "name": "UNIC",
        "name:ru": "Уник",
        "public_transport": "platform",
        "shelter": "yes"
      }
    },
    {
      "type": "node",
      "id": 5593186221,
      "lat": 46.9565782,
      "lon": 28.9257141,
      "tags": {
        "bus": "yes",
        "highway": "bus_stop",
        "name": "Strada Băcioii Noi",
        "name:ru": "ул. Бачой Ной",
        "public_transport": "platform"
      }
    },
    {
      "type": "node",
      "id": 5593186222,
      "lat": 46.9572552,
      "lon": 28.9256051,
      "tags": {
        "highway": "bus_stop",
        "name": "Strada Băcioii Noi",
        "name:ru": "ул. Бачой Ной",
        "public_transport": "platform"
      }
    },
    {
      "type": "node",
      "id": 5637155022,
      "lat": 46.9698677,
      "lon": 28.9134918,
      "tags": {
        "highway": "bus_stop",
        "name": "s. Bîc",
        "name:ru": "с. Бык",
        "public_transport": "platform"
      }
    },
    {
      "type": "node",
      "id": 5637162121,
      "lat": 46.9690679,
      "lon": 28.9136166,
      "tags": {
        "highway": "bus_stop",
        "name": "s. Bîc",
        "name:ru": "с. Бык",
        "public_transport": "platform"
      }
    },
    {
      "type": "node",
      "id": 5637283322,
      "lat": 46.981586,
      "lon": 28.8980953,
      "tags": {
        "highway": "bus_stop",
        "name": "str. Grădina Botanică",
        "public_transport": "platform"
      }
    }
  ]
}
