{
  "type": "FeatureCollection",
  "generator": "overpass-ide",
  "copyright": "The data included in this document is from www.openstreetmap.org. The data is made available under ODbL.",
  "timestamp": "2019-09-29T11:37:02Z",
  "features": [
    {
      "type": "Feature",
      "properties": {
        "@id": "way/24760292",
        "highway": "trunk",
        "int_ref": "E 584",
        "lanes": "3",
        "maxspeed": "50",
        "name": "Bulevardul Grigore Vieru",
        "name:ro": "Bulevardul Grigore Vieru",
        "name:ru": "проспект Григория Виеру",
        "name_1": "bd. Grigore Vieru",
        "old_name": "Bulevardul Tineretului",
        "oneway": "yes",
        "surface": "asphalt",
        "trolley_wire": "yes"
      },
      "geometry": {
        "type": "LineString",
        "coordinates": [
          [28.838328, 47.0282989],
          [28.8382966, 47.0283454],
          [28.8383, 47.0283928],
          [28.8383136, 47.0284371],
          [28.8383487, 47.0284777],
          [28.8384289, 47.0285401]
        ]
      },
      "id": "way/24760292"
    },
    {
      "type": "Feature",
      "properties": {
        "@id": "way/24760743",
        "highway": "trunk",
        "int_ref": "E 584",
        "lanes": "3",
        "maxspeed": "50",
        "name": "Bulevardul Renașterii Naționale",
        "name:ru": "проспект Ренаштерий Национале",
        "oneway": "yes",
        "trolley_wire": "yes"
      },
      "geometry": {
        "type": "LineString",
        "coordinates": [
          [28.8528223, 47.0385135],
          [28.8529296, 47.038569],
          [28.8532374, 47.0387248],
          [28.8536579, 47.0389301],
          [28.8540045, 47.0391177]
        ]
      },
      "id": "way/24760743"
    },
    {
      "type": "Feature",
      "properties": {
        "@id": "way/24775864",
        "bicycle": "yes",
        "foot": "no",
        "highway": "trunk",
        "int_ref": "E 584",
        "is_in:country": "Moldova;MD",
        "lanes": "3",
        "maxspeed": "50",
        "name": "Strada Calea Orheiului",
        "name:ru": "улица Каля Орхеюлуй",
        "old_name": "улица Кантемира",
        "oneway": "yes",
        "surface": "asphalt"
      },
      "geometry": {
        "type": "LineString",
        "coordinates": [
          [28.8486778, 47.0455326],
          [28.8486817, 47.0456764],
          [28.8486716, 47.0458295],
          [28.8486757, 47.0459656],
          [28.8486946, 47.0460726],
          [28.8487255, 47.0461637],
          [28.8487747, 47.0462816],
          [28.8489415, 47.0467799],
          [28.8491367, 47.0472776],
          [28.8496816, 47.0487954],
          [28.8498178, 47.0491969],
          [28.8498425, 47.0492696],
          [28.8502092, 47.0503991]
        ]
      },
      "id": "way/24775864"
    },
    {
      "type": "Feature",
      "properties": {
        "@id": "way/24775878",
        "highway": "trunk",
        "int_ref": "E 584",
        "lanes": "3",
        "maxspeed": "50",
        "name": "Strada Calea Orheiului",
        "name:ru": "улица Каля Орхеюлуй",
        "old_name": "улица Кантемира",
        "oneway": "yes"
      },
      "geometry": {
        "type": "LineString",
        "coordinates": [
          [28.858195, 47.0684771],
          [28.8574775, 47.0671191],
          [28.8574406, 47.0670495],
          [28.8574024, 47.0669772],
          [28.8573462, 47.066858]
        ]
      },
      "id": "way/24775878"
    },
    {
      "type": "Feature",
      "properties": {
        "@id": "way/24775879",
        "highway": "trunk",
        "int_ref": "E 584",
        "lanes": "3",
        "maxspeed": "90",
        "oneway": "yes"
      },
      "geometry": {
        "type": "LineString",
        "coordinates": [
          [28.8586312, 47.0693261],
          [28.8586042, 47.0692736],
          [28.8583447, 47.0687685],
          [28.858195, 47.0684771]
        ]
      },
      "id": "way/24775879"
    },
    {
      "type": "Feature",
      "properties": {
        "@id": "way/24776845",
        "bridge": "yes",
        "highway": "trunk",
        "int_ref": "E 584",
        "lanes": "6",
        "layer": "2",
        "maxspeed": "50",
        "name": "Bulevardul Renașterii Naționale",
        "name:ru": "проспект Ренаштерий Национале",
        "name_1": "bd. Renașterii Naționale",
        "old_name": "Bulevardul Tineretului",
        "surface": "asphalt",
        "trolley_wire": "yes"
      },
      "geometry": {
        "type": "LineString",
        "coordinates": [[28.8479594, 47.0352147], [28.8473009, 47.0347587]]
      },
      "id": "way/24776845"
    },
    {
      "type": "Feature",
      "properties": {
        "@id": "way/24776848",
        "highway": "trunk",
        "int_ref": "E 584",
        "lanes": "6",
        "maxspeed": "50",
        "name": "Bulevardul Renașterii Naționale",
        "name:ru": "проспект Ренаштерий Национале",
        "name_1": "bd. Renașterii Naționale",
        "old_name": "Bulevardul Tineretului",
        "surface": "asphalt",
        "trolley_wire": "yes"
      },
      "geometry": {
        "type": "LineString",
        "coordinates": [[28.8473009, 47.0347587], [28.8465406, 47.0342463]]
      },
      "id": "way/24776848"
    },
    {
      "type": "Feature",
      "properties": {
        "@id": "way/24776859",
        "bridge": "yes",
        "highway": "trunk",
        "int_ref": "E 584",
        "lanes": "3",
        "layer": "2",
        "maxspeed": "90",
        "oneway": "yes"
      },
      "geometry": {
        "type": "LineString",
        "coordinates": [[28.8593622, 47.071052], [28.8591441, 47.0704513]]
      },
      "id": "way/24776859"
    },
    {
      "type": "Feature",
      "properties": {
        "@id": "way/24776860",
        "highway": "trunk",
        "int_ref": "E 584",
        "lanes": "3",
        "maxspeed": "90",
        "oneway": "yes"
      },
      "geometry": {
        "type": "LineString",
        "coordinates": [[28.8597929, 47.0723507], [28.8593622, 47.071052]]
      },
      "id": "way/24776860"
    },
    {
      "type": "Feature",
      "properties": {
        "@id": "way/24778559",
        "highway": "trunk",
        "int_ref": "E 584",
        "lanes": "6",
        "maxspeed": "50",
        "name": "Bulevardul Renașterii Naționale",
        "name:ru": "проспект Ренаштерий Национале",
        "name_1": "bd. Renașterii Naționale",
        "old_name": "проспект Молодёжи",
        "surface": "asphalt",
        "trolley_wire": "yes"
      },
      "geometry": {
        "type": "LineString",
        "coordinates": [[28.845945, 47.0338416], [28.8459067, 47.0338153]]
      },
      "id": "way/24778559"
    },
    {
      "type": "Feature",
      "properties": {
        "@id": "way/24778560",
        "bridge": "viaduct",
        "highway": "trunk",
        "int_ref": "E 584",
        "lanes": "6",
        "layer": "1",
        "maxspeed": "50",
        "name": "Bulevardul Renașterii Naționale",
        "name:ru": "проспект Ренаштерий Национале",
        "name_1": "bd. Renașterii Naționale",
        "old_name": "Bulevardul Tineretului",
        "surface": "asphalt",
        "trolley_wire": "yes"
      },
      "geometry": {
        "type": "LineString",
        "coordinates": [[28.8465406, 47.0342463], [28.845945, 47.0338416]]
      },
      "id": "way/24778560"
    },
    {
      "type": "Feature",
      "properties": {
        "@id": "way/24797531",
        "highway": "trunk",
        "int_ref": "E 584",
        "lanes": "6",
        "maxspeed": "50",
        "name": "Bulevardul Renașterii Naționale",
        "name:ru": "проспект Ренаштерий Национале",
        "name_1": "bd. Renașterii Naționale",
        "old_name": "Bulevardul Tineretului",
        "trolley_wire": "yes"
      },
      "geometry": {
        "type": "LineString",
        "coordinates": [
          [28.8528223, 47.0385135],
          [28.8524831, 47.0382896],
          [28.8520969, 47.0380235],
          [28.851392, 47.0375443],
          [28.8506793, 47.0370569]
        ]
      },
      "id": "way/24797531"
    },
    {
      "type": "Feature",
      "properties": {
        "@id": "way/24797532",
        "highway": "trunk",
        "int_ref": "E 584",
        "lanes": "3",
        "maxspeed": "50",
        "name": "Bulevardul Renașterii Naționale",
        "name:ru": "проспект Ренаштерий Национале",
        "oneway": "yes"
      },
      "geometry": {
        "type": "LineString",
        "coordinates": [
          [28.8538114, 47.0407728],
          [28.8537857, 47.0402242],
          [28.8537564, 47.0397666],
          [28.8537537, 47.039431]
        ]
      },
      "id": "way/24797532"
    },
    {
      "type": "Feature",
      "properties": {
        "@id": "way/24824961",
        "highway": "trunk",
        "int_ref": "E 584",
        "lanes": "3",
        "maxspeed": "50",
        "name": "Bulevardul Renaşterii Naţionale",
        "name:ro": "Bulevardul Renașterii Naționale",
        "name:ru": "проспект Ренаштерий Национале",
        "oneway": "yes",
        "turn:lanes": "through|through|right"
      },
      "geometry": {
        "type": "LineString",
        "coordinates": [
          [28.8496229, 47.0448966],
          [28.8492626, 47.0451249],
          [28.8489707, 47.045306]
        ]
      },
      "id": "way/24824961"
    },
    {
      "type": "Feature",
      "properties": {
        "@id": "way/24829712",
        "highway": "trunk",
        "int_ref": "E 584",
        "lanes": "3",
        "maxspeed": "50",
        "name": "Strada Aleksandr Pușkin",
        "name:ro": "Strada Aleksandr Pușkin",
        "name:ru": "улица Александра Пушкина",
        "oneway": "yes",
        "surface": "asphalt",
        "trolley_wire": "yes"
      },
      "geometry": {
        "type": "LineString",
        "coordinates": [
          [28.833846, 47.0236502],
          [28.83401, 47.0237603],
          [28.8348917, 47.0243779],
          [28.835875, 47.0250651],
          [28.835936, 47.0251078]
        ]
      },
      "id": "way/24829712"
    },
    {
      "type": "Feature",
      "properties": {
        "@id": "way/24848583",
        "highway": "trunk",
        "int_ref": "E 584",
        "lanes": "3",
        "maxspeed": "50",
        "name": "Bulevardul Renaşterii Naţionale",
        "name:ru": "проспект Ренаштерий Национале",
        "oneway": "yes"
      },
      "geometry": {
        "type": "LineString",
        "coordinates": [
          [28.8536767, 47.0416915],
          [28.8536518, 47.042133],
          [28.8536528, 47.0423663],
          [28.853651, 47.0424986],
          [28.8536527, 47.04292]
        ]
      },
      "id": "way/24848583"
    },
    {
      "type": "Feature",
      "properties": {
        "@id": "way/24849099",
        "highway": "trunk",
        "int_ref": "E 584",
        "lanes": "3",
        "maxspeed": "50",
        "name": "Bulevardul Renaşterii Naţionale",
        "name:ro": "Bulevardul Renașterii Naționale",
        "name:ru": "проспект Ренаштерий Национале",
        "oneway": "no"
      },
      "geometry": {
        "type": "LineString",
        "coordinates": [
          [28.8517188, 47.0438011],
          [28.8508306, 47.0442548],
          [28.8496229, 47.0448966]
        ]
      },
      "id": "way/24849099"
    },
    {
      "type": "Feature",
      "properties": {
        "@id": "way/24855029",
        "highway": "trunk",
        "int_ref": "E 584",
        "lanes": "2",
        "maxspeed": "50",
        "name": "Bulevardul Renașterii Naționale",
        "name:ru": "проспект Ренаштерий Национале",
        "oneway": "yes",
        "surface": "asphalt"
      },
      "geometry": {
        "type": "LineString",
        "coordinates": [[28.853257, 47.0433523], [28.8528638, 47.0434555]]
      },
      "id": "way/24855029"
    },
    {
      "type": "Feature",
      "properties": {
        "@id": "way/24855598",
        "highway": "trunk",
        "int_ref": "E 584",
        "lanes": "3",
        "maxspeed": "50",
        "name": "Strada Mitropolit Bănulescu-Bodoni",
        "name:ru": "улица Митрополита Бэнулеску-Бодони",
        "old_name": "улица Гоголя",
        "oneway": "yes",
        "surface": "asphalt",
        "trolley_wire": "yes"
      },
      "geometry": {
        "type": "LineString",
        "coordinates": [
          [28.8365723, 47.0294872],
          [28.8363329, 47.0293152],
          [28.8354011, 47.0286455],
          [28.8353054, 47.0285768]
        ]
      },
      "id": "way/24855598"
    },
    {
      "type": "Feature",
      "properties": {
        "@id": "way/24855603",
        "highway": "trunk",
        "int_ref": "E 584",
        "lanes": "3",
        "name": "Strada Constantin Tănase",
        "name:ro": "Strada Constantin Tănase",
        "name:ru": "улица Константина Тэнасе",
        "oneway": "yes",
        "surface": "asphalt",
        "trolley_wire": "yes"
      },
      "geometry": {
        "type": "LineString",
        "coordinates": [[28.8394283, 47.0275321], [28.8387615, 47.0279785]]
      },
      "id": "way/24855603"
    },
    {
      "type": "Feature",
      "properties": {
        "@id": "way/24855646",
        "highway": "trunk",
        "int_ref": "E 584",
        "lanes": "3",
        "maxspeed": "50",
        "name": "Bulevardul Renaşterii Naţionale",
        "name:ru": "проспект Ренаштерий Национале",
        "old_name": "проспект Молодёжи"
      },
      "geometry": {
        "type": "LineString",
        "coordinates": [[28.8538114, 47.0407728], [28.8537381, 47.0413644]]
      },
      "id": "way/24855646"
    },
    {
      "type": "Feature",
      "properties": {
        "@id": "way/24855785",
        "bicycle": "yes",
        "foot": "no",
        "highway": "trunk",
        "int_ref": "E 584",
        "is_in:country": "Moldova;MD",
        "lanes": "3",
        "maxspeed": "50",
        "motor_vehicle": "yes",
        "name": "Strada Calea Orheiului",
        "name:ru": "улица Каля Орхеюлуй",
        "old_name": "улица Кантемира",
        "oneway": "yes",
        "surface": "asphalt"
      },
      "geometry": {
        "type": "LineString",
        "coordinates": [
          [28.8547914, 47.0619846],
          [28.8546623, 47.0617063],
          [28.8545914, 47.0615533],
          [28.8542671, 47.0609262],
          [28.8540494, 47.060516],
          [28.8538529, 47.0601196],
          [28.8533251, 47.0589082],
          [28.8530278, 47.0582022],
          [28.852855, 47.057779],
          [28.852697, 47.0573741],
          [28.8516315, 47.0547869],
          [28.8514594, 47.0543832],
          [28.8514209, 47.0542928]
        ]
      },
      "id": "way/24855785"
    },
    {
      "type": "Feature",
      "properties": {
        "@id": "way/24855786",
        "highway": "trunk",
        "int_ref": "E 584",
        "lanes": "3",
        "maxspeed": "50",
        "name": "Strada Calea Orheiului",
        "name:ru": "улица Каля Орхеюлуй",
        "old_name": "улица Кантемира",
        "oneway": "yes"
      },
      "geometry": {
        "type": "LineString",
        "coordinates": [
          [28.853191, 47.0580889],
          [28.8535214, 47.0588749],
          [28.8540827, 47.0601821],
          [28.8544094, 47.0608292],
          [28.8547967, 47.0615873],
          [28.8548965, 47.0617966],
          [28.8549692, 47.0619467]
        ]
      },
      "id": "way/24855786"
    },
    {
      "type": "Feature",
      "properties": {
        "@id": "way/25340947",
        "highway": "trunk",
        "int_ref": "E 584",
        "lanes": "3",
        "maxspeed": "50",
        "oneway": "yes"
      },
      "geometry": {
        "type": "LineString",
        "coordinates": [
          [28.862376, 47.0873465],
          [28.8624952, 47.0882872],
          [28.8626501, 47.0895789]
        ]
      },
      "id": "way/25340947"
    },
    {
      "type": "Feature",
      "properties": {
        "@id": "way/27168258",
        "highway": "trunk",
        "int_ref": "E 584",
        "maxspeed": "50",
        "name": "Bulevardul Renașterii Naționale",
        "name:ru": "проспект Ренаштерий Национале",
        "oneway": "yes"
      },
      "geometry": {
        "type": "LineString",
        "coordinates": [
          [28.8541721, 47.0394524],
          [28.8540615, 47.0398976],
          [28.8539446, 47.0403145],
          [28.8538114, 47.0407728]
        ]
      },
      "id": "way/27168258"
    },
    {
      "type": "Feature",
      "properties": {
        "@id": "way/27461077",
        "highway": "primary",
        "lanes": "3",
        "maxspeed": "50",
        "name": "Strada Mitropolit Bănulescu-Bodoni",
        "name:ru": "улица Митрополита Бэнулеску-Бодони",
        "old_name": "улица Гоголя",
        "oneway": "yes",
        "trolley_wire": "yes"
      },
      "geometry": {
        "type": "LineString",
        "coordinates": [
          [28.830965, 47.0255795],
          [28.8305919, 47.0253253],
          [28.8295579, 47.0246112],
          [28.8293657, 47.0244785],
          [28.8292506, 47.0243964]
        ]
      },
      "id": "way/27461077"
    },
    {
      "type": "Feature",
      "properties": {
        "@id": "way/28127241",
        "highway": "trunk",
        "int_ref": "E 584",
        "lanes": "3",
        "maxspeed": "50",
        "name": "Bulevardul Renașterii Naționale",
        "name:ru": "проспект Ренаштерий Национале",
        "oneway": "yes",
        "trolley_wire": "yes"
      },
      "geometry": {
        "type": "LineString",
        "coordinates": [
          [28.8537027, 47.0393621],
          [28.8532421, 47.038927],
          [28.8528223, 47.0385135]
        ]
      },
      "id": "way/28127241"
    },
    {
      "type": "Feature",
      "properties": {
        "@id": "way/30749972",
        "highway": "trunk",
        "int_ref": "E 584",
        "lanes": "3",
        "maxspeed": "50",
        "name": "Strada Aleksandr Pușkin",
        "name:ru": "улица Александра Пушкина",
        "oneway": "yes",
        "surface": "asphalt",
        "trolley_wire": "yes"
      },
      "geometry": {
        "type": "LineString",
        "coordinates": [[28.837063, 47.0259055], [28.8381405, 47.0266663]]
      },
      "id": "way/30749972"
    },
    {
      "type": "Feature",
      "properties": {
        "@id": "way/32436271",
        "highway": "trunk",
        "int_ref": "E 584",
        "lanes": "3",
        "name": "Strada Constantin Tănase",
        "name:ro": "Strada Constantin Tănase",
        "name:ru": "улица Константина Тэнасе",
        "oneway": "yes",
        "surface": "asphalt",
        "trolley_wire": "yes"
      },
      "geometry": {
        "type": "LineString",
        "coordinates": [
          [28.8376926, 47.0287261],
          [28.8376269, 47.02876],
          [28.8372382, 47.0290374],
          [28.8367951, 47.0293367],
          [28.8365723, 47.0294872]
        ]
      },
      "id": "way/32436271"
    },
    {
      "type": "Feature",
      "properties": {
        "@id": "way/33684798",
        "highway": "tertiary",
        "maxspeed": "40",
        "oneway": "yes",
        "ref": "L361",
        "surface": "asphalt"
      },
      "geometry": {
        "type": "LineString",
        "coordinates": [
          [28.8628487, 47.0909679],
          [28.8629292, 47.0911146],
          [28.862974, 47.0911645],
          [28.8630001, 47.0911882],
          [28.8630909, 47.0912484],
          [28.8631531, 47.091272],
          [28.8632478, 47.0912908],
          [28.8633606, 47.0912991]
        ]
      },
      "id": "way/33684798"
    },
    {
      "type": "Feature",
      "properties": {
        "@id": "way/34159957",
        "alt_name:ro": "str. Ion Creanga",
        "doubleway": "yes",
        "highway": "residential",
        "is_in": "Stauceni",
        "lanes": "1",
        "maxspeed": "40",
        "name": "Strada Ion Creangă",
        "name:ru": "улица Иона Крянгэ",
        "oneway": "no",
        "surface": "asphalt"
      },
      "geometry": {
        "type": "LineString",
        "coordinates": [
          [28.8693596, 47.0942708],
          [28.869439, 47.0939885],
          [28.8695336, 47.0936513],
          [28.8696829, 47.0930988],
          [28.8699799, 47.0921574],
          [28.870018, 47.0920512],
          [28.8704493, 47.0907472],
          [28.8708626, 47.0894157],
          [28.8709722, 47.0890556],
          [28.8711068, 47.0886106],
          [28.8711499, 47.0884183]
        ]
      },
      "id": "way/34159957"
    },
    {
      "type": "Feature",
      "properties": {
        "@id": "way/34159958",
        "highway": "residential",
        "is_in": "Stauceni",
        "lanes": "1",
        "maxspeed": "40",
        "name": "Strada Vasile Alecsandri",
        "name:ru": "улица Василе Александри",
        "oneway": "no",
        "surface": "asphalt"
      },
      "geometry": {
        "type": "LineString",
        "coordinates": [
          [28.8723822, 47.0886369],
          [28.8720598, 47.0896417],
          [28.871923, 47.0900792],
          [28.8717686, 47.0905943],
          [28.8712091, 47.0922481],
          [28.8711773, 47.0923252],
          [28.8709324, 47.0930006],
          [28.8708029, 47.0933903],
          [28.8707131, 47.0936683]
        ]
      },
      "id": "way/34159958"
    },
    {
      "type": "Feature",
      "properties": {
        "@id": "way/34159961",
        "highway": "residential",
        "is_in": "Stauceni",
        "lanes": "1",
        "maxspeed": "40",
        "oneway": "no",
        "surface": "asphalt"
      },
      "geometry": {
        "type": "LineString",
        "coordinates": [
          [28.8693596, 47.0942708],
          [28.8696639, 47.0941193],
          [28.8699864, 47.0939873],
          [28.8702093, 47.0938961],
          [28.8704621, 47.0937725],
          [28.8707131, 47.0936683]
        ]
      },
      "id": "way/34159961"
    },
    {
      "type": "Feature",
      "properties": {
        "@id": "way/38809915",
        "highway": "trunk",
        "int_ref": "E 584",
        "lanes": "3",
        "maxspeed": "50",
        "name": "Strada Aleksandr Pușkin",
        "name:ru": "улица Александра Пушкина",
        "oneway": "yes",
        "surface": "asphalt",
        "trolley_wire": "yes"
      },
      "geometry": {
        "type": "LineString",
        "coordinates": [
          [28.835936, 47.0251078],
          [28.8359734, 47.0251343],
          [28.837063, 47.0259055]
        ]
      },
      "id": "way/38809915"
    },
    {
      "type": "Feature",
      "properties": {
        "@id": "way/46909916",
        "highway": "trunk",
        "int_ref": "E 584",
        "lanes": "3",
        "maxspeed": "50",
        "name": "Strada Mitropolit Bănulescu-Bodoni",
        "name:ru": "улица Митрополита Бэнулеску-Бодони",
        "old_name": "улица Гоголя",
        "oneway": "yes",
        "surface": "asphalt",
        "trolley_wire": "yes"
      },
      "geometry": {
        "type": "LineString",
        "coordinates": [
          [28.8353054, 47.0285768],
          [28.8342894, 47.0278719],
          [28.8341957, 47.0278057]
        ]
      },
      "id": "way/46909916"
    },
    {
      "type": "Feature",
      "properties": {
        "@id": "way/49565741",
        "highway": "trunk",
        "int_ref": "E 584",
        "lanes": "3",
        "maxspeed": "50",
        "name": "Strada Mitropolit Bănulescu-Bodoni",
        "name:ro": "Strada Mitropolit Bănulescu-Bodoni",
        "name:ru": "улица Митрополита Бэнулеску-Бодони",
        "old_name": "улица Гоголя",
        "oneway": "yes",
        "surface": "asphalt",
        "trolley_wire": "yes"
      },
      "geometry": {
        "type": "LineString",
        "coordinates": [
          [28.8341957, 47.0278057],
          [28.8340468, 47.0277045],
          [28.8337987, 47.027536],
          [28.8336132, 47.0274101],
          [28.8331462, 47.0270829],
          [28.8330781, 47.0270349],
          [28.8329805, 47.0269638],
          [28.8313069, 47.0257867],
          [28.8311396, 47.0256847],
          [28.830965, 47.0255795]
        ]
      },
      "id": "way/49565741"
    },
    {
      "type": "Feature",
      "properties": {
        "@id": "way/49565745",
        "highway": "trunk",
        "int_ref": "E 584",
        "lanes": "3",
        "maxspeed": "50",
        "name": "Strada Aleksandr Pușkin",
        "name:ru": "улица Александра Пушкина",
        "oneway": "yes",
        "surface": "asphalt",
        "trolley_wire": "yes"
      },
      "geometry": {
        "type": "LineString",
        "coordinates": [
          [28.8381405, 47.0266663],
          [28.8388022, 47.0271114],
          [28.8394283, 47.0275321]
        ]
      },
      "id": "way/49565745"
    },
    {
      "type": "Feature",
      "properties": {
        "@id": "way/49802560",
        "highway": "residential",
        "is_in": "Stauceni",
        "lanes": "1",
        "maxspeed": "40",
        "name": "Strada Constructorilor",
        "name:ro": "str. Constructorilor",
        "name:ru": "улица Конструкторов",
        "oneway": "no",
        "surface": "asphalt"
      },
      "geometry": {
        "type": "LineString",
        "coordinates": [
          [28.8711499, 47.0884183],
          [28.8721042, 47.0885815],
          [28.8723822, 47.0886369]
        ]
      },
      "id": "way/49802560"
    },
    {
      "type": "Feature",
      "properties": {
        "@id": "way/49802578",
        "alt_name:ro": "str. Gratiesti",
        "doubleway": "yes",
        "highway": "tertiary",
        "lanes": "1",
        "maxspeed": "40",
        "name": "Strada Grătiești",
        "name:en": "Gratiesti Street",
        "name:ro": "str. Gratiești",
        "name:ru": "улица Грэтиешть",
        "oneway": "no",
        "ref": "L361"
      },
      "geometry": {
        "type": "LineString",
        "coordinates": [
          [28.8679218, 47.0911877],
          [28.8679345, 47.0911592],
          [28.8680058, 47.0908509],
          [28.8680948, 47.0905123],
          [28.868279, 47.0898339],
          [28.8682935, 47.0897613],
          [28.8683556, 47.0895167],
          [28.8683749, 47.0894503],
          [28.8684039, 47.0893363],
          [28.8684592, 47.0891614],
          [28.8684695, 47.089124],
          [28.86849, 47.0890321],
          [28.8685551, 47.0888289],
          [28.868608, 47.0886161],
          [28.8686648, 47.088399]
        ]
      },
      "id": "way/49802578"
    },
    {
      "type": "Feature",
      "properties": {
        "@id": "way/49802579",
        "alt_name:ro": "str. Pacii",
        "doubleway": "yes",
        "highway": "tertiary",
        "lanes": "1",
        "maxspeed": "40",
        "name": "Strada Păcii",
        "name:en": "Peace Street",
        "name:ro": "str. Păcii",
        "name:ru": "улица Пэчий",
        "oneway": "no",
        "ref": "L361"
      },
      "geometry": {
        "type": "LineString",
        "coordinates": [
          [28.8639024, 47.0912856],
          [28.864252, 47.0912755],
          [28.8646219, 47.0912633],
          [28.865035, 47.091252],
          [28.8659448, 47.0912359],
          [28.8663494, 47.0912247],
          [28.8665766, 47.0912142],
          [28.8667573, 47.0912074]
        ]
      },
      "id": "way/49802579"
    },
    {
      "type": "Feature",
      "properties": {
        "@id": "way/49802582",
        "highway": "tertiary",
        "maxspeed": "40",
        "oneway": "yes",
        "surface": "asphalt"
      },
      "geometry": {
        "type": "LineString",
        "coordinates": [
          [28.8633606, 47.0912991],
          [28.8630918, 47.0913182],
          [28.8630054, 47.0913244],
          [28.862898, 47.091332]
        ]
      },
      "id": "way/49802582"
    },
    {
      "type": "Feature",
      "properties": {
        "@id": "way/49802584",
        "doubleway": "yes",
        "highway": "tertiary",
        "maxspeed": "40",
        "name": "Strada Păcii",
        "name:en": "Peace Street",
        "ref": "L361",
        "surface": "asphalt"
      },
      "geometry": {
        "type": "LineString",
        "coordinates": [
          [28.8633606, 47.0912991],
          [28.8635714, 47.0912908],
          [28.8637121, 47.0912901],
          [28.8637502, 47.0912887],
          [28.8639024, 47.0912856]
        ]
      },
      "id": "way/49802584"
    },
    {
      "type": "Feature",
      "properties": {
        "@id": "way/49802585",
        "doubleway": "yes",
        "highway": "residential",
        "is_in": "Stauceni",
        "lanes": "1",
        "maxspeed": "40",
        "name": "Strada Grătiești",
        "oneway": "no",
        "surface": "asphalt"
      },
      "geometry": {
        "type": "LineString",
        "coordinates": [
          [28.8686648, 47.088399],
          [28.8686898, 47.0883413],
          [28.8687236, 47.0882966],
          [28.8687744, 47.0882549],
          [28.8688437, 47.0882204],
          [28.8689138, 47.0881956],
          [28.868986, 47.0881804],
          [28.8691437, 47.0881682]
        ]
      },
      "id": "way/49802585"
    },
    {
      "type": "Feature",
      "properties": {
        "@id": "way/50132728",
        "highway": "trunk",
        "int_ref": "E 584",
        "lanes": "3",
        "maxspeed": "50",
        "name": "Strada Calea Orheiului",
        "name:ru": "улица Каля Орхеюлуй",
        "old_name": "улица Кантемира",
        "oneway": "yes"
      },
      "geometry": {
        "type": "LineString",
        "coordinates": [
          [28.8549692, 47.0619467],
          [28.8551426, 47.0622916],
          [28.8559842, 47.0638795],
          [28.856055, 47.0640151],
          [28.8561992, 47.0642916],
          [28.8568233, 47.0654352],
          [28.8572626, 47.066294],
          [28.8575776, 47.0668671]
        ]
      },
      "id": "way/50132728"
    },
    {
      "type": "Feature",
      "properties": {
        "@id": "way/50132729",
        "highway": "trunk",
        "int_ref": "E 584",
        "lanes": "3",
        "maxspeed": "50",
        "name": "Strada Calea Orheiului",
        "name:ru": "улица Каля Орхеюлуй",
        "old_name": "улица Кантемира",
        "oneway": "yes"
      },
      "geometry": {
        "type": "LineString",
        "coordinates": [
          [28.8573462, 47.066858],
          [28.857323, 47.0668143],
          [28.8571483, 47.0664852],
          [28.8571274, 47.0664453],
          [28.856981, 47.0661657],
          [28.8569566, 47.0661192],
          [28.8558763, 47.0640563],
          [28.8553213, 47.0629997],
          [28.855007, 47.0623887],
          [28.8547914, 47.0619846]
        ]
      },
      "id": "way/50132729"
    },
    {
      "type": "Feature",
      "properties": {
        "@id": "way/50132735",
        "highway": "trunk",
        "int_ref": "E 584",
        "lanes": "3",
        "maxspeed": "50",
        "name": "Strada Calea Orheiului",
        "name:ru": "улица Каля Орхеюлуй",
        "old_name": "улица Кантемира",
        "oneway": "yes"
      },
      "geometry": {
        "type": "LineString",
        "coordinates": [
          [28.8575776, 47.0668671],
          [28.8579016, 47.0675078],
          [28.8579226, 47.0675493],
          [28.8581321, 47.0679628]
        ]
      },
      "id": "way/50132735"
    },
    {
      "type": "Feature",
      "properties": {
        "@id": "way/52060172",
        "bicycle": "yes",
        "foot": "no",
        "highway": "trunk",
        "int_ref": "E 584",
        "is_in:country": "Moldova;MD",
        "lanes": "3",
        "maxspeed": "50",
        "motor_vehicle": "yes",
        "name": "Strada Calea Orheiului",
        "name:ru": "улица Каля Орхеюлуй",
        "old_name": "улица Кантемира",
        "oneway": "yes",
        "surface": "asphalt"
      },
      "geometry": {
        "type": "LineString",
        "coordinates": [
          [28.8512439, 47.0533438],
          [28.8516232, 47.0543513],
          [28.8517849, 47.0547518],
          [28.8519525, 47.0551671],
          [28.8519679, 47.0552053],
          [28.8525595, 47.0566087],
          [28.853191, 47.0580889]
        ]
      },
      "id": "way/52060172"
    },
    {
      "type": "Feature",
      "properties": {
        "@id": "way/52391614",
        "bicycle": "yes",
        "foot": "no",
        "highway": "trunk",
        "int_ref": "E 584",
        "is_in:country": "Moldova;MD",
        "lanes": "3",
        "maxspeed": "50",
        "name": "Strada Calea Orheiului",
        "name:ru": "улица Каля Орхеюлуй",
        "old_name": "улица Кантемира",
        "oneway": "yes",
        "surface": "asphalt"
      },
      "geometry": {
        "type": "LineString",
        "coordinates": [
          [28.8508979, 47.052976],
          [28.850741, 47.0525191],
          [28.850429, 47.0516105],
          [28.8503952, 47.0515191]
        ]
      },
      "id": "way/52391614"
    },
    {
      "type": "Feature",
      "properties": {
        "@id": "way/52391615",
        "bicycle": "yes",
        "foot": "no",
        "highway": "trunk",
        "int_ref": "E 584",
        "is_in:country": "Moldova;MD",
        "lanes": "3",
        "maxspeed": "50",
        "name": "Strada Calea Orheiului",
        "name:ru": "улица Каля Орхеюлуй",
        "old_name": "улица Кантемира",
        "oneway": "yes",
        "surface": "asphalt"
      },
      "geometry": {
        "type": "LineString",
        "coordinates": [
          [28.8500378, 47.0504244],
          [28.8496328, 47.0492365],
          [28.8495898, 47.0491104],
          [28.8492775, 47.048213],
          [28.8489753, 47.0473498],
          [28.8486976, 47.0466158],
          [28.8485472, 47.0461986],
          [28.8485194, 47.0461089],
          [28.8484936, 47.0460492],
          [28.8484643, 47.0459865]
        ]
      },
      "id": "way/52391615"
    },
    {
      "type": "Feature",
      "properties": {
        "@id": "way/52391618",
        "bicycle": "yes",
        "foot": "no",
        "highway": "trunk",
        "int_ref": "E 584",
        "is_in:country": "Moldova;MD",
        "lanes": "3",
        "maxspeed": "50",
        "name": "Strada Calea Orheiului",
        "name:ru": "улица Каля Орхеюлуй",
        "old_name": "улица Кантемира",
        "oneway": "yes",
        "surface": "asphalt"
      },
      "geometry": {
        "type": "LineString",
        "coordinates": [
          [28.8502092, 47.0503991],
          [28.8505651, 47.0514484],
          [28.850581, 47.0515036],
          [28.850613, 47.051583],
          [28.8506414, 47.0516614],
          [28.8512439, 47.0533438]
        ]
      },
      "id": "way/52391618"
    },
    {
      "type": "Feature",
      "properties": {
        "@id": "way/52391619",
        "bicycle": "yes",
        "foot": "no",
        "highway": "trunk",
        "int_ref": "E 584",
        "is_in:country": "Moldova;MD",
        "lanes": "3",
        "maxspeed": "50",
        "motor_vehicle": "yes",
        "name": "Strada Calea Orheiului",
        "name:ru": "улица Каля Орхеюлуй",
        "old_name": "улица Кантемира",
        "oneway": "yes",
        "surface": "asphalt"
      },
      "geometry": {
        "type": "LineString",
        "coordinates": [
          [28.8514209, 47.0542928],
          [28.8510675, 47.053432],
          [28.8508979, 47.052976]
        ]
      },
      "id": "way/52391619"
    },
    {
      "type": "Feature",
      "properties": {
        "@id": "way/56759896",
        "bicycle": "yes",
        "foot": "no",
        "highway": "trunk",
        "int_ref": "E 584",
        "is_in:country": "Moldova;MD",
        "lanes": "3",
        "maxspeed": "50",
        "name": "Strada Calea Orheiului",
        "name:ro": "Strada Calea Orheiului",
        "name:ru": "улица Каля Орхеюлуй",
        "old_name": "улица Кантемира",
        "oneway": "yes",
        "surface": "asphalt"
      },
      "geometry": {
        "type": "LineString",
        "coordinates": [
          [28.8503952, 47.0515191],
          [28.8502562, 47.0510844],
          [28.8502363, 47.0510222],
          [28.8501345, 47.0507172],
          [28.8500378, 47.0504244]
        ]
      },
      "id": "way/56759896"
    },
    {
      "type": "Feature",
      "properties": {
        "@id": "way/85633933",
        "highway": "trunk",
        "int_ref": "E 584",
        "lanes": "3",
        "maxspeed": "50",
        "name": "Bulevardul Grigore Vieru",
        "name:ru": "проспект Григория Виеру",
        "old_name": "проспект Молодёжи",
        "oneway": "yes",
        "trolley_wire": "yes"
      },
      "geometry": {
        "type": "LineString",
        "coordinates": [[28.8459067, 47.0338153], [28.8457198, 47.0337411]]
      },
      "id": "way/85633933"
    },
    {
      "type": "Feature",
      "properties": {
        "@id": "way/85633940",
        "highway": "trunk",
        "int_ref": "E 584",
        "lanes": "3",
        "maxspeed": "50",
        "name": "Bulevardul Grigore Vieru",
        "name:ru": "проспект Григория Виеру",
        "name_1": "bd. Grigore Vieru",
        "old_name": "Bulevardul Tineretului",
        "oneway": "yes",
        "surface": "asphalt",
        "trolley_wire": "yes"
      },
      "geometry": {
        "type": "LineString",
        "coordinates": [
          [28.8457198, 47.0337411],
          [28.8451445, 47.0334777],
          [28.8449717, 47.0333902],
          [28.8448972, 47.0333488],
          [28.8448673, 47.0333285],
          [28.8436617, 47.0324986],
          [28.8435303, 47.0324073],
          [28.8433844, 47.0323073]
        ]
      },
      "id": "way/85633940"
    },
    {
      "type": "Feature",
      "properties": {
        "@id": "way/85633958",
        "highway": "trunk",
        "int_ref": "E 584",
        "lanes": "3",
        "maxspeed": "50",
        "name": "Bulevardul Grigore Vieru",
        "name:ru": "проспект Григория Виеру",
        "old_name": "проспект Молодёжи",
        "oneway": "yes",
        "surface": "asphalt",
        "trolley_wire": "yes"
      },
      "geometry": {
        "type": "LineString",
        "coordinates": [[28.8457925, 47.03367], [28.8459067, 47.0338153]]
      },
      "id": "way/85633958"
    },
    {
      "type": "Feature",
      "properties": {
        "@id": "way/91876431",
        "highway": "trunk",
        "int_ref": "E 584",
        "lanes": "3",
        "maxspeed": "50",
        "name": "Bulevardul Grigore Vieru",
        "name:ro": "Bulevardul Grigore Vieru",
        "name:ru": "проспект Григория Виеру",
        "name_1": "bd. Grigore Vieru",
        "old_name": "Bulevardul Tineretului",
        "oneway": "yes",
        "surface": "asphalt",
        "trolley_wire": "yes"
      },
      "geometry": {
        "type": "LineString",
        "coordinates": [
          [28.8402051, 47.0297289],
          [28.8405571, 47.0299706],
          [28.8413803, 47.030536],
          [28.8418611, 47.0308632],
          [28.841907, 47.0308944],
          [28.8436735, 47.0321051],
          [28.8438275, 47.0322096]
        ]
      },
      "id": "way/91876431"
    },
    {
      "type": "Feature",
      "properties": {
        "@id": "way/121854711",
        "highway": "tertiary",
        "lanes": "2",
        "maxspeed": "50",
        "name": "Strada 31 August 1989",
        "name:ru": "улица 31 Августа 1989",
        "old_name": "Киевская улица",
        "oneway": "yes",
        "postal_code": "MD-2012"
      },
      "geometry": {
        "type": "LineString",
        "coordinates": [
          [28.8280608, 47.0235485],
          [28.8281475, 47.0234913],
          [28.8287484, 47.0231066],
          [28.8292275, 47.0227986],
          [28.8296094, 47.0225532]
        ]
      },
      "id": "way/121854711"
    },
    {
      "type": "Feature",
      "properties": {
        "@id": "way/121854713",
        "highway": "primary",
        "lanes": "3",
        "maxspeed": "50",
        "name": "Strada Aleksandr Pușkin",
        "name:ro": "Strada Aleksandr Pușkin",
        "name:ru": "улица Александра Пушкина",
        "oneway": "yes",
        "trolley_wire": "yes"
      },
      "geometry": {
        "type": "LineString",
        "coordinates": [
          [28.8309614, 47.0215937],
          [28.8322259, 47.0225007],
          [28.8322551, 47.0225217],
          [28.8323328, 47.0225766],
          [28.8328644, 47.022953],
          [28.8334877, 47.0233882],
          [28.833846, 47.0236502]
        ]
      },
      "id": "way/121854713"
    },
    {
      "type": "Feature",
      "properties": {
        "@id": "way/125749606",
        "doubleway": "yes",
        "highway": "residential",
        "is_in": "Stauceni",
        "lanes": "1",
        "maxspeed": "40",
        "name": "Strada Constructorilor",
        "oneway": "no",
        "surface": "asphalt"
      },
      "geometry": {
        "type": "LineString",
        "coordinates": [[28.8697363, 47.0881884], [28.8702623, 47.0882723]]
      },
      "id": "way/125749606"
    },
    {
      "type": "Feature",
      "properties": {
        "@id": "way/174950177",
        "highway": "trunk",
        "int_ref": "E 584",
        "lanes": "6",
        "maxspeed": "50",
        "name": "Bulevardul Renașterii Naționale",
        "name:ru": "проспект Ренаштерий Национале",
        "name_1": "bd. Renașterii Naționale",
        "old_name": "Bulevardul Tineretului",
        "surface": "asphalt",
        "trolley_wire": "yes"
      },
      "geometry": {
        "type": "LineString",
        "coordinates": [[28.8488374, 47.0358131], [28.8479594, 47.0352147]]
      },
      "id": "way/174950177"
    },
    {
      "type": "Feature",
      "properties": {
        "@id": "way/174950179",
        "highway": "trunk",
        "int_ref": "E 584",
        "lanes": "6",
        "maxspeed": "50",
        "name": "Bulevardul Renașterii Naționale",
        "name:ru": "проспект Ренаштерий Национале",
        "name_1": "bd. Renașterii Naționale",
        "old_name": "Bulevardul Tineretului",
        "surface": "asphalt",
        "trolley_wire": "yes"
      },
      "geometry": {
        "type": "LineString",
        "coordinates": [[28.8490226, 47.0359345], [28.8488374, 47.0358131]]
      },
      "id": "way/174950179"
    },
    {
      "type": "Feature",
      "properties": {
        "@id": "way/174950180",
        "highway": "trunk",
        "int_ref": "E 584",
        "lanes": "6",
        "maxspeed": "50",
        "name": "Bulevardul Renașterii Naționale",
        "name:ro": "Bulevardul Renașterii Naționale",
        "name:ru": "проспект Ренаштерий Национале",
        "name_1": "bd. Renașterii Naționale",
        "old_name": "Bulevardul Tineretului",
        "surface": "asphalt",
        "trolley_wire": "yes"
      },
      "geometry": {
        "type": "LineString",
        "coordinates": [
          [28.8506793, 47.0370569],
          [28.8504923, 47.0369302],
          [28.8498852, 47.0365189],
          [28.8492849, 47.0361122],
          [28.8490226, 47.0359345]
        ]
      },
      "id": "way/174950180"
    },
    {
      "type": "Feature",
      "properties": {
        "@id": "way/175911827",
        "highway": "trunk",
        "int_ref": "E 584",
        "lanes": "3",
        "maxspeed": "90",
        "oneway": "yes"
      },
      "geometry": {
        "type": "LineString",
        "coordinates": [[28.8600397, 47.0731916], [28.8597929, 47.0723507]]
      },
      "id": "way/175911827"
    },
    {
      "type": "Feature",
      "properties": {
        "@id": "way/236106335",
        "highway": "trunk",
        "int_ref": "E 584",
        "lanes": "3",
        "maxspeed": "50",
        "name": "Bulevardul Renaşterii Naţionale",
        "name:ru": "проспект Ренаштерий Национале",
        "old_name": "проспект Молодёжи"
      },
      "geometry": {
        "type": "LineString",
        "coordinates": [[28.8537381, 47.0413644], [28.8536767, 47.0416915]]
      },
      "id": "way/236106335"
    },
    {
      "type": "Feature",
      "properties": {
        "@id": "way/236106342",
        "highway": "trunk",
        "int_ref": "E 584",
        "lanes": "3",
        "maxspeed": "50",
        "name": "Bulevardul Renaşterii Naţionale",
        "name:ro": "Bulevardul Renașterii Naționale",
        "name:ru": "проспект Ренаштерий Национале",
        "oneway": "yes"
      },
      "geometry": {
        "type": "LineString",
        "coordinates": [
          [28.8485285, 47.0451589],
          [28.8488021, 47.0451245],
          [28.8491425, 47.0450579],
          [28.8496229, 47.0448966]
        ]
      },
      "id": "way/236106342"
    },
    {
      "type": "Feature",
      "properties": {
        "@id": "way/238875769",
        "highway": "trunk",
        "int_ref": "E 584",
        "lanes": "3",
        "maxspeed": "90",
        "oneway": "yes"
      },
      "geometry": {
        "type": "LineString",
        "coordinates": [
          [28.8621878, 47.0873337],
          [28.8612182, 47.0786199],
          [28.861084, 47.0774368],
          [28.8609811, 47.0766957],
          [28.8608845, 47.0762158],
          [28.8607798, 47.075766],
          [28.8607033, 47.0754967],
          [28.8604577, 47.0746111],
          [28.8602097, 47.073769]
        ]
      },
      "id": "way/238875769"
    },
    {
      "type": "Feature",
      "properties": {
        "@id": "way/238887662",
        "highway": "trunk",
        "int_ref": "E 584",
        "lanes": "4",
        "maxspeed": "50",
        "oneway": "yes"
      },
      "geometry": {
        "type": "LineString",
        "coordinates": [
          [28.8626526, 47.0913495],
          [28.862586, 47.0908297],
          [28.8625339, 47.0904513],
          [28.862442, 47.0897379]
        ]
      },
      "id": "way/238887662"
    },
    {
      "type": "Feature",
      "properties": {
        "@id": "way/238887663",
        "highway": "tertiary",
        "maxspeed": "40",
        "oneway": "yes",
        "surface": "asphalt"
      },
      "geometry": {
        "type": "LineString",
        "coordinates": [[28.862898, 47.091332], [28.8626526, 47.0913495]]
      },
      "id": "way/238887663"
    },
    {
      "type": "Feature",
      "properties": {
        "@id": "way/294592564",
        "highway": "trunk",
        "int_ref": "E 584",
        "lanes": "3",
        "maxspeed": "90",
        "oneway": "yes"
      },
      "geometry": {
        "type": "LineString",
        "coordinates": [
          [28.8591441, 47.0704513],
          [28.8590537, 47.070253],
          [28.8589588, 47.0700446],
          [28.8589106, 47.0699389],
          [28.8586312, 47.0693261]
        ]
      },
      "id": "way/294592564"
    },
    {
      "type": "Feature",
      "properties": {
        "@id": "way/310960964",
        "highway": "trunk",
        "int_ref": "E 584",
        "lanes": "3",
        "maxspeed": "50",
        "name": "Bulevardul Grigore Vieru",
        "name:ro": "Bulevardul Grigore Vieru",
        "name:ru": "проспект Григория Виеру",
        "name_1": "bd. Grigore Vieru",
        "old_name": "Bulevardul Tineretului",
        "oneway": "yes",
        "surface": "asphalt",
        "trolley_wire": "yes"
      },
      "geometry": {
        "type": "LineString",
        "coordinates": [
          [28.8398945, 47.0299368],
          [28.8396569, 47.029774],
          [28.8391544, 47.0294248],
          [28.8389575, 47.0292914],
          [28.8381413, 47.0287432],
          [28.8380609, 47.0287058],
          [28.8380025, 47.0286936],
          [28.8379209, 47.028684],
          [28.8378582, 47.0286858],
          [28.8377771, 47.0286986],
          [28.8376926, 47.0287261]
        ]
      },
      "id": "way/310960964"
    },
    {
      "type": "Feature",
      "properties": {
        "@id": "way/320537344",
        "highway": "trunk",
        "int_ref": "E 584",
        "lanes": "3",
        "maxspeed": "50",
        "name": "Bulevardul Grigore Vieru",
        "name:ro": "Bulevardul Grigore Vieru",
        "name:ru": "проспект Григория Виеру",
        "name_1": "bd. Grigore Vieru",
        "old_name": "Bulevardul Tineretului",
        "oneway": "yes",
        "surface": "asphalt",
        "trolley_wire": "yes"
      },
      "geometry": {
        "type": "LineString",
        "coordinates": [
          [28.8433844, 47.0323073],
          [28.8429172, 47.0319864],
          [28.841565, 47.0310706],
          [28.8414661, 47.0310036],
          [28.8402036, 47.0301465],
          [28.8398945, 47.0299368]
        ]
      },
      "id": "way/320537344"
    },
    {
      "type": "Feature",
      "properties": {
        "@id": "way/320537345",
        "highway": "trunk",
        "int_ref": "E 584",
        "lanes": "3",
        "maxspeed": "50",
        "name": "Bulevardul Grigore Vieru",
        "name:ru": "проспект Григория Виеру",
        "old_name": "проспект Молодёжи",
        "oneway": "yes",
        "surface": "asphalt",
        "trolley_wire": "yes"
      },
      "geometry": {
        "type": "LineString",
        "coordinates": [[28.8439034, 47.0322611], [28.8439226, 47.0322755]]
      },
      "id": "way/320537345"
    },
    {
      "type": "Feature",
      "properties": {
        "@id": "way/344600092",
        "highway": "trunk",
        "int_ref": "E 584",
        "maxspeed": "50",
        "name": "Bulevardul Renașterii Naționale",
        "name:ru": "проспект Ренаштерий Национале",
        "old_name": "проспект Молодёжи",
        "oneway": "yes",
        "surface": "asphalt"
      },
      "geometry": {
        "type": "LineString",
        "coordinates": [
          [28.8517188, 47.0438011],
          [28.8518721, 47.0436769],
          [28.8520064, 47.0436086],
          [28.8521484, 47.0435371],
          [28.8522939, 47.0434491],
          [28.8524864, 47.0433086],
          [28.8526971, 47.0431416]
        ]
      },
      "id": "way/344600092"
    },
    {
      "type": "Feature",
      "properties": {
        "@id": "way/349539998",
        "highway": "trunk",
        "int_ref": "E 584",
        "lanes": "2",
        "maxspeed": "50",
        "name": "Bulevardul Renașterii Naționale",
        "name:ru": "проспект Ренаштерий Национале",
        "oneway": "yes",
        "surface": "asphalt"
      },
      "geometry": {
        "type": "LineString",
        "coordinates": [
          [28.8528638, 47.0434555],
          [28.8524797, 47.043552],
          [28.8522114, 47.0436321],
          [28.851972, 47.0437295],
          [28.8517188, 47.0438011]
        ]
      },
      "id": "way/349539998"
    },
    {
      "type": "Feature",
      "properties": {
        "@id": "way/350572577",
        "highway": "trunk",
        "int_ref": "E 584",
        "lanes": "3",
        "maxspeed": "50",
        "name": "Bulevardul Grigore Vieru",
        "name:ru": "проспект Григория Виеру",
        "name_1": "bd. Grigore Vieru",
        "old_name": "Bulevardul Tineretului",
        "oneway": "yes",
        "surface": "asphalt",
        "trolley_wire": "yes"
      },
      "geometry": {
        "type": "LineString",
        "coordinates": [[28.8454088, 47.0333239], [28.8457925, 47.03367]]
      },
      "id": "way/350572577"
    },
    {
      "type": "Feature",
      "properties": {
        "@id": "way/409894877",
        "highway": "trunk",
        "int_ref": "E 584",
        "lanes": "3",
        "maxspeed": "50",
        "name": "Bulevardul Grigore Vieru",
        "name:ro": "Bulevardul Grigore Vieru",
        "name:ru": "проспект Григория Виеру",
        "name_1": "bd. Grigore Vieru",
        "old_name": "Bulevardul Tineretului",
        "oneway": "yes",
        "surface": "asphalt",
        "trolley_wire": "yes"
      },
      "geometry": {
        "type": "LineString",
        "coordinates": [
          [28.8439226, 47.0322755],
          [28.8439504, 47.0322946],
          [28.84413, 47.0324182],
          [28.8451669, 47.0331177],
          [28.845199, 47.0331412],
          [28.8454088, 47.0333239]
        ]
      },
      "id": "way/409894877"
    },
    {
      "type": "Feature",
      "properties": {
        "@id": "way/457076155",
        "highway": "tertiary",
        "lanes": "2",
        "maxspeed": "50",
        "name": "Strada 31 August 1989",
        "name:ru": "улица 31 Августа 1989",
        "old_name": "Киевская улица",
        "oneway": "yes",
        "postal_code": "MD-2012"
      },
      "geometry": {
        "type": "LineString",
        "coordinates": [
          [28.8296094, 47.0225532],
          [28.8298308, 47.0223961],
          [28.8299259, 47.0223286],
          [28.8299485, 47.0223126],
          [28.8308453, 47.0216761],
          [28.8309614, 47.0215937]
        ]
      },
      "id": "way/457076155"
    },
    {
      "type": "Feature",
      "properties": {
        "@id": "way/506948354",
        "highway": "primary",
        "lanes": "3",
        "maxspeed": "50",
        "name": "Strada Mitropolit Bănulescu-Bodoni",
        "name:ru": "улица Митрополита Бэнулеску-Бодони",
        "old_name": "улица Гоголя",
        "oneway": "yes",
        "surface": "asphalt",
        "trolley_wire": "yes"
      },
      "geometry": {
        "type": "LineString",
        "coordinates": [
          [28.8292506, 47.0243964],
          [28.8281515, 47.0236177],
          [28.8280608, 47.0235485]
        ]
      },
      "id": "way/506948354"
    },
    {
      "type": "Feature",
      "properties": {
        "@id": "way/508030852",
        "highway": "trunk",
        "int_ref": "E 584",
        "lanes": "3",
        "maxspeed": "50",
        "name": "Bulevardul Grigore Vieru",
        "name:ru": "проспект Григория Виеру",
        "name_1": "bd. Grigore Vieru",
        "old_name": "Bulevardul Tineretului",
        "oneway": "yes",
        "surface": "asphalt",
        "trolley_wire": "yes"
      },
      "geometry": {
        "type": "LineString",
        "coordinates": [
          [28.8384289, 47.0285401],
          [28.8388395, 47.0288156],
          [28.8399477, 47.0295538],
          [28.8402051, 47.0297289]
        ]
      },
      "id": "way/508030852"
    },
    {
      "type": "Feature",
      "properties": {
        "@id": "way/555249067",
        "highway": "trunk",
        "int_ref": "E 584",
        "lanes": "3",
        "maxspeed": "90",
        "oneway": "yes"
      },
      "geometry": {
        "type": "LineString",
        "coordinates": [
          [28.8587858, 47.0692563],
          [28.8590296, 47.0697573],
          [28.8591845, 47.0700866],
          [28.8593394, 47.0704158]
        ]
      },
      "id": "way/555249067"
    },
    {
      "type": "Feature",
      "properties": {
        "@id": "way/555249068",
        "bridge": "yes",
        "highway": "trunk",
        "int_ref": "E 584",
        "lanes": "3",
        "layer": "2",
        "maxspeed": "90",
        "oneway": "yes"
      },
      "geometry": {
        "type": "LineString",
        "coordinates": [[28.8593394, 47.0704158], [28.8595562, 47.0710239]]
      },
      "id": "way/555249068"
    },
    {
      "type": "Feature",
      "properties": {
        "@id": "way/555249069",
        "highway": "trunk",
        "int_ref": "E 584",
        "lanes": "3",
        "maxspeed": "90",
        "oneway": "yes"
      },
      "geometry": {
        "type": "LineString",
        "coordinates": [[28.8595562, 47.0710239], [28.8601744, 47.0730198]]
      },
      "id": "way/555249069"
    },
    {
      "type": "Feature",
      "properties": {
        "@id": "way/555249070",
        "highway": "trunk",
        "int_ref": "E 584",
        "lanes": "3",
        "maxspeed": "90",
        "oneway": "yes"
      },
      "geometry": {
        "type": "LineString",
        "coordinates": [
          [28.8606244, 47.0746191],
          [28.861017, 47.0760143],
          [28.8611518, 47.0766783],
          [28.8612602, 47.0774313],
          [28.8613943, 47.0786162],
          [28.862376, 47.0873465]
        ]
      },
      "id": "way/555249070"
    },
    {
      "type": "Feature",
      "properties": {
        "@id": "way/563025548",
        "doubleway": "yes",
        "highway": "residential",
        "is_in": "Stauceni",
        "lanes": "1",
        "maxspeed": "40",
        "name": "Strada Constructorilor",
        "name:ro": "str. Constructorilor",
        "name:ru": "улица Конструкторов",
        "oneway": "no",
        "surface": "asphalt"
      },
      "geometry": {
        "type": "LineString",
        "coordinates": [[28.8702623, 47.0882723], [28.8711499, 47.0884183]]
      },
      "id": "way/563025548"
    },
    {
      "type": "Feature",
      "properties": {
        "@id": "way/563025551",
        "doubleway": "yes",
        "highway": "residential",
        "is_in": "Stauceni",
        "lanes": "1",
        "maxspeed": "40",
        "name": "Strada Constructorilor",
        "oneway": "no",
        "surface": "asphalt"
      },
      "geometry": {
        "type": "LineString",
        "coordinates": [[28.8691437, 47.0881682], [28.8697363, 47.0881884]]
      },
      "id": "way/563025551"
    },
    {
      "type": "Feature",
      "properties": {
        "@id": "way/630155075",
        "highway": "trunk",
        "int_ref": "E 584",
        "lanes": "3",
        "name": "Strada Constantin Tănase",
        "name:ro": "Strada Constantin Tănase",
        "name:ru": "улица Константина Тэнасе",
        "oneway": "yes",
        "surface": "asphalt",
        "trolley_wire": "yes"
      },
      "geometry": {
        "type": "LineString",
        "coordinates": [[28.8387615, 47.0279785], [28.838328, 47.0282989]]
      },
      "id": "way/630155075"
    },
    {
      "type": "Feature",
      "properties": {
        "@id": "way/655678545",
        "highway": "trunk",
        "int_ref": "E 584",
        "junction": "roundabout",
        "lanes": "2",
        "maxspeed": "50",
        "oneway": "yes"
      },
      "geometry": {
        "type": "LineString",
        "coordinates": [[28.8529339, 47.042949], [28.8529952, 47.0428803]]
      },
      "id": "way/655678545"
    },
    {
      "type": "Feature",
      "properties": {
        "@id": "way/655678548",
        "highway": "trunk",
        "int_ref": "E 584",
        "junction": "roundabout",
        "lanes": "2",
        "maxspeed": "50",
        "oneway": "yes"
      },
      "geometry": {
        "type": "LineString",
        "coordinates": [
          [28.8534019, 47.0433464],
          [28.8533298, 47.0433537],
          [28.853257, 47.0433523]
        ]
      },
      "id": "way/655678548"
    },
    {
      "type": "Feature",
      "properties": {
        "@id": "way/655678549",
        "highway": "trunk",
        "int_ref": "E 584",
        "junction": "roundabout",
        "lanes": "2",
        "maxspeed": "50",
        "oneway": "yes"
      },
      "geometry": {
        "type": "LineString",
        "coordinates": [
          [28.8537176, 47.043053],
          [28.853707, 47.0431421],
          [28.8536695, 47.0432057],
          [28.8536011, 47.0432693],
          [28.8535095, 47.0433174],
          [28.8534019, 47.0433464]
        ]
      },
      "id": "way/655678549"
    },
    {
      "type": "Feature",
      "properties": {
        "@id": "way/655678550",
        "highway": "trunk",
        "int_ref": "E 584",
        "junction": "roundabout",
        "lanes": "2",
        "maxspeed": "50",
        "oneway": "yes"
      },
      "geometry": {
        "type": "LineString",
        "coordinates": [[28.8537078, 47.0429999], [28.8537176, 47.043053]]
      },
      "id": "way/655678550"
    },
    {
      "type": "Feature",
      "properties": {
        "@id": "way/655678551",
        "highway": "trunk",
        "int_ref": "E 584",
        "junction": "roundabout",
        "lanes": "2",
        "maxspeed": "50",
        "oneway": "yes"
      },
      "geometry": {
        "type": "LineString",
        "coordinates": [
          [28.8536527, 47.04292],
          [28.853679, 47.0429522],
          [28.8537078, 47.0429999]
        ]
      },
      "id": "way/655678551"
    },
    {
      "type": "Feature",
      "properties": {
        "@id": "way/655679019",
        "highway": "trunk",
        "int_ref": "E 584",
        "junction": "roundabout",
        "lanes": "3",
        "maxspeed": "50"
      },
      "geometry": {
        "type": "LineString",
        "coordinates": [[28.8487089, 47.0454872], [28.8486778, 47.0455326]]
      },
      "id": "way/655679019"
    },
    {
      "type": "Feature",
      "properties": {
        "@id": "way/655679020",
        "highway": "trunk",
        "int_ref": "E 584",
        "junction": "roundabout",
        "lanes": "3",
        "maxspeed": "50"
      },
      "geometry": {
        "type": "LineString",
        "coordinates": [[28.848423, 47.0451312], [28.8485285, 47.0451589]]
      },
      "id": "way/655679020"
    },
    {
      "type": "Feature",
      "properties": {
        "@id": "way/655679021",
        "highway": "trunk",
        "int_ref": "E 584",
        "junction": "roundabout",
        "lanes": "3",
        "maxspeed": "50",
        "turn:lanes": "through|through|through"
      },
      "geometry": {
        "type": "LineString",
        "coordinates": [
          [28.848001, 47.0452471],
          [28.8480816, 47.045186],
          [28.8481853, 47.045144],
          [28.8483027, 47.0451252],
          [28.848423, 47.0451312]
        ]
      },
      "id": "way/655679021"
    },
    {
      "type": "Feature",
      "properties": {
        "@id": "way/655679022",
        "highway": "trunk",
        "int_ref": "E 584",
        "junction": "roundabout",
        "lanes": "3",
        "maxspeed": "50",
        "turn:lanes": "through|through;right|through;right"
      },
      "geometry": {
        "type": "LineString",
        "coordinates": [
          [28.8479364, 47.0453856],
          [28.8479455, 47.045337],
          [28.8479673, 47.0452904],
          [28.848001, 47.0452471]
        ]
      },
      "id": "way/655679022"
    },
    {
      "type": "Feature",
      "properties": {
        "@id": "way/655679023",
        "highway": "trunk",
        "int_ref": "E 584",
        "junction": "roundabout",
        "lanes": "3",
        "maxspeed": "50",
        "turn:lanes": "through|through;right|through;right"
      },
      "geometry": {
        "type": "LineString",
        "coordinates": [
          [28.848045, 47.0455821],
          [28.8479835, 47.045524],
          [28.8479464, 47.0454569],
          [28.8479364, 47.0453856]
        ]
      },
      "id": "way/655679023"
    },
    {
      "type": "Feature",
      "properties": {
        "@id": "way/655679024",
        "highway": "trunk",
        "int_ref": "E 584",
        "junction": "roundabout",
        "lanes": "3",
        "maxspeed": "50",
        "turn:lanes": "through|through;right|through;right"
      },
      "geometry": {
        "type": "LineString",
        "coordinates": [
          [28.8481703, 47.0456428],
          [28.8481028, 47.045613],
          [28.848045, 47.0455821]
        ]
      },
      "id": "way/655679024"
    },
    {
      "type": "Feature",
      "properties": {
        "@id": "way/655901333",
        "highway": "trunk",
        "int_ref": "E 584",
        "junction": "roundabout",
        "maxspeed": "50",
        "trolley_wire": "yes"
      },
      "geometry": {
        "type": "LineString",
        "coordinates": [[28.8542204, 47.0394118], [28.8541721, 47.0394524]]
      },
      "id": "way/655901333"
    },
    {
      "type": "Feature",
      "properties": {
        "@id": "way/655901334",
        "highway": "trunk",
        "int_ref": "E 584",
        "junction": "roundabout",
        "maxspeed": "50",
        "trolley_wire": "yes"
      },
      "geometry": {
        "type": "LineString",
        "coordinates": [
          [28.8541111, 47.0391396],
          [28.8541736, 47.0391703],
          [28.8542217, 47.0392113],
          [28.8542519, 47.0392596],
          [28.854262, 47.0393117],
          [28.8542512, 47.0393637],
          [28.8542204, 47.0394118]
        ]
      },
      "id": "way/655901334"
    },
    {
      "type": "Feature",
      "properties": {
        "@id": "way/655901337",
        "highway": "trunk",
        "int_ref": "E 584",
        "junction": "roundabout",
        "maxspeed": "50",
        "trolley_wire": "yes"
      },
      "geometry": {
        "type": "LineString",
        "coordinates": [[28.8540045, 47.0391177], [28.8541111, 47.0391396]]
      },
      "id": "way/655901337"
    },
    {
      "type": "Feature",
      "properties": {
        "@id": "way/655901340",
        "highway": "trunk",
        "int_ref": "E 584",
        "junction": "roundabout",
        "maxspeed": "50",
        "trolley_wire": "yes"
      },
      "geometry": {
        "type": "LineString",
        "coordinates": [
          [28.8537537, 47.039431],
          [28.8537202, 47.0393942],
          [28.8537027, 47.0393621]
        ]
      },
      "id": "way/655901340"
    },
    {
      "type": "Feature",
      "properties": {
        "@id": "way/680089657",
        "bicycle": "yes",
        "foot": "no",
        "highway": "trunk",
        "int_ref": "E 584",
        "is_in:country": "Moldova;MD",
        "lanes": "3",
        "maxspeed": "50",
        "name": "Strada Calea Orheiului",
        "name:ru": "улица Каля Орхеюлуй",
        "old_name": "улица Кантемира",
        "oneway": "yes",
        "surface": "asphalt",
        "turn:lanes": "through|through|through;right"
      },
      "geometry": {
        "type": "LineString",
        "coordinates": [
          [28.8484643, 47.0459865],
          [28.8483946, 47.0458907],
          [28.8483786, 47.0458716],
          [28.8483156, 47.0457969],
          [28.84825, 47.0457267],
          [28.8481703, 47.0456428]
        ]
      },
      "id": "way/680089657"
    },
    {
      "type": "Feature",
      "properties": {
        "@id": "way/680089658",
        "highway": "trunk",
        "int_ref": "E 584",
        "lanes": "3",
        "maxspeed": "50",
        "name": "Bulevardul Renaşterii Naţionale",
        "name:ro": "Bulevardul Renașterii Naționale",
        "name:ru": "проспект Ренаштерий Национале",
        "oneway": "yes"
      },
      "geometry": {
        "type": "LineString",
        "coordinates": [
          [28.8489707, 47.045306],
          [28.8489263, 47.045337],
          [28.8487089, 47.0454872]
        ]
      },
      "id": "way/680089658"
    },
    {
      "type": "Feature",
      "properties": {
        "@id": "way/680094544",
        "highway": "trunk",
        "int_ref": "E 584",
        "lanes": "3",
        "maxspeed": "90",
        "oneway": "yes"
      },
      "geometry": {
        "type": "LineString",
        "coordinates": [[28.8584514, 47.0686134], [28.8587858, 47.0692563]]
      },
      "id": "way/680094544"
    },
    {
      "type": "Feature",
      "properties": {
        "@id": "way/680094546",
        "highway": "trunk",
        "int_ref": "E 584",
        "lanes": "3",
        "maxspeed": "50",
        "name": "Strada Calea Orheiului",
        "name:ru": "улица Каля Орхеюлуй",
        "old_name": "улица Кантемира",
        "oneway": "yes",
        "turn:lanes": "through|through|through;right"
      },
      "geometry": {
        "type": "LineString",
        "coordinates": [
          [28.8581321, 47.0679628],
          [28.8581783, 47.0680539],
          [28.8583464, 47.0683995],
          [28.8583729, 47.068454],
          [28.8583863, 47.0684812],
          [28.8584514, 47.0686134]
        ]
      },
      "id": "way/680094546"
    },
    {
      "type": "Feature",
      "properties": {
        "@id": "way/680095573",
        "highway": "trunk",
        "int_ref": "E 584",
        "lanes": "3",
        "maxspeed": "90",
        "oneway": "yes",
        "turn:lanes": "through|through|through;right"
      },
      "geometry": {
        "type": "LineString",
        "coordinates": [[28.8602097, 47.073769], [28.8600397, 47.0731916]]
      },
      "id": "way/680095573"
    },
    {
      "type": "Feature",
      "properties": {
        "@id": "way/680095574",
        "highway": "trunk",
        "int_ref": "E 584",
        "lanes": "4",
        "maxspeed": "90",
        "oneway": "yes",
        "turn:lanes": "|||merge_to_left"
      },
      "geometry": {
        "type": "LineString",
        "coordinates": [[28.8604126, 47.0738665], [28.8606244, 47.0746191]]
      },
      "id": "way/680095574"
    },
    {
      "type": "Feature",
      "properties": {
        "@id": "way/680095576",
        "highway": "trunk",
        "int_ref": "E 584",
        "lanes": "4",
        "maxspeed": "90",
        "oneway": "yes"
      },
      "geometry": {
        "type": "LineString",
        "coordinates": [[28.8601744, 47.0730198], [28.8604126, 47.0738665]]
      },
      "id": "way/680095576"
    },
    {
      "type": "Feature",
      "properties": {
        "@id": "way/680284671",
        "highway": "trunk",
        "int_ref": "E 584",
        "lanes": "3",
        "maxspeed": "50",
        "oneway": "yes",
        "turn:lanes": "through|through|through;slight_right"
      },
      "geometry": {
        "type": "LineString",
        "coordinates": [[28.8626501, 47.0895789], [28.8627193, 47.0900654]]
      },
      "id": "way/680284671"
    },
    {
      "type": "Feature",
      "properties": {
        "@id": "way/680284672",
        "highway": "trunk",
        "int_ref": "E 584",
        "lanes": "4",
        "maxspeed": "50",
        "oneway": "yes",
        "turn:lanes": "left;through|through|through|right"
      },
      "geometry": {
        "type": "LineString",
        "coordinates": [
          [28.8627193, 47.0900654],
          [28.8628266, 47.0908191],
          [28.8628487, 47.0909679]
        ]
      },
      "id": "way/680284672"
    },
    {
      "type": "Feature",
      "properties": {
        "@id": "way/680284673",
        "highway": "trunk",
        "int_ref": "E 584",
        "lanes": "4",
        "maxspeed": "50",
        "oneway": "yes",
        "turn:lanes": "|||merge_to_left"
      },
      "geometry": {
        "type": "LineString",
        "coordinates": [
          [28.862442, 47.0897379],
          [28.8624075, 47.0894347],
          [28.8623481, 47.0887972]
        ]
      },
      "id": "way/680284673"
    },
    {
      "type": "Feature",
      "properties": {
        "@id": "way/680284674",
        "highway": "trunk",
        "int_ref": "E 584",
        "lanes": "3",
        "maxspeed": "50",
        "oneway": "yes"
      },
      "geometry": {
        "type": "LineString",
        "coordinates": [
          [28.8623481, 47.0887972],
          [28.8622984, 47.0882634],
          [28.8621878, 47.0873337]
        ]
      },
      "id": "way/680284674"
    },
    {
      "type": "Feature",
      "properties": {
        "@id": "way/683129327",
        "alt_name:ro": "str. Pacii",
        "doubleway": "yes",
        "highway": "tertiary",
        "lanes": "1",
        "maxspeed": "40",
        "name": "Strada Păcii",
        "name:en": "Peace Street",
        "name:ro": "str. Păcii",
        "name:ru": "улица Пэчий",
        "oneway": "no",
        "ref": "L361"
      },
      "geometry": {
        "type": "LineString",
        "coordinates": [[28.8667573, 47.0912074], [28.8679218, 47.0911877]]
      },
      "id": "way/683129327"
    },
    {
      "type": "Feature",
      "properties": {
        "@id": "way/706069131",
        "highway": "trunk",
        "int_ref": "E 584",
        "maxspeed": "50",
        "oneway": "yes",
        "surface": "asphalt"
      },
      "geometry": {
        "type": "LineString",
        "coordinates": [[28.8526971, 47.0431416], [28.8529339, 47.042949]]
      },
      "id": "way/706069131"
    },
    {
      "type": "Feature",
      "properties": {
        "@id": "way/706069133",
        "highway": "trunk",
        "int_ref": "E 584",
        "lanes": "3",
        "maxspeed": "50",
        "oneway": "yes"
      },
      "geometry": {
        "type": "LineString",
        "coordinates": [[28.8529952, 47.0428803], [28.8531172, 47.0426696]]
      },
      "id": "way/706069133"
    },
    {
      "type": "Feature",
      "properties": {
        "@id": "way/706069134",
        "highway": "trunk",
        "int_ref": "E 584",
        "lanes": "3",
        "maxspeed": "50",
        "name": "Bulevardul Renaşterii Naţionale",
        "name:ru": "проспект Ренаштерий Национале",
        "old_name": "проспект Молодёжи",
        "oneway": "yes"
      },
      "geometry": {
        "type": "LineString",
        "coordinates": [
          [28.8531172, 47.0426696],
          [28.853212, 47.0425568],
          [28.8533164, 47.0423983],
          [28.8533745, 47.0422949],
          [28.8534188, 47.0421978],
          [28.8535223, 47.0419995],
          [28.8536767, 47.0416915]
        ]
      },
      "id": "way/706069134"
    },
    {
      "type": "Feature",
      "properties": {
        "@id": "way/708489180",
        "highway": "trunk",
        "int_ref": "E 584",
        "lanes": "3",
        "maxspeed": "50",
        "name": "Bulevardul Grigore Vieru",
        "name:ro": "Bulevardul Grigore Vieru",
        "name:ru": "проспект Григория Виеру",
        "name_1": "bd. Grigore Vieru",
        "old_name": "Bulevardul Tineretului",
        "oneway": "yes",
        "surface": "asphalt",
        "trolley_wire": "yes"
      },
      "geometry": {
        "type": "LineString",
        "coordinates": [[28.8438275, 47.0322096], [28.8439034, 47.0322611]]
      },
      "id": "way/708489180"
    }
  ]
}
