{
  "version": 0.6,
  "generator": "Overpass API 0.7.55.7 8b86ff77",
  "osm3s": {
    "timestamp_osm_base": "2019-10-04T21:52:02Z",
    "copyright": "The data included in this document is from www.openstreetmap.org. The data is made available under ODbL."
  },
  "elements": [
    {
      "type": "node",
      "id": 325004921,
      "lat": 46.9908161,
      "lon": 28.8221045,
      "tags": {
        "highway": "bus_stop",
        "name": "Grenoble",
        "name:ru": "ул. Георге Асаки",
        "public_transport": "platform"
      }
    },
    {
      "type": "node",
      "id": 325004923,
      "lat": 46.9925681,
      "lon": 28.8185291,
      "tags": {
        "highway": "bus_stop",
        "name": "str. Miorița",
        "name:ru": "ул. Миорица",
        "public_transport": "platform"
      }
    },
    {
      "type": "node",
      "id": 325004929,
      "lat": 46.996991,
      "lon": 28.8090044,
      "tags": {
        "highway": "bus_stop",
        "name": "str. Miorița",
        "name:ru": "ул. Миорица",
        "old_name": "ул. Прянишникова",
        "public_transport": "platform"
      }
    },
    {
      "type": "node",
      "id": 325004932,
      "lat": 46.993722,
      "lon": 28.8150109,
      "tags": {
        "highway": "bus_stop",
        "name": "Campusul Academic",
        "name:ru": "Академический Городок",
        "public_transport": "platform"
      }
    },
    {
      "type": "node",
      "id": 325005105,
      "lat": 47.0110807,
      "lon": 28.8582041,
      "tags": {
        "highway": "bus_stop",
        "name": "Gara Feroviara",
        "name:ru": "Железнодорожный вокзал. ЖД вокзал",
        "public_transport": "platform"
      }
    },
    {
      "type": "node",
      "id": 325005110,
      "lat": 46.9999508,
      "lon": 28.8598097,
      "tags": {
        "highway": "bus_stop",
        "name": "str. N. Titulescu",
        "name:ru": "ул. Н. Титулеску",
        "public_transport": "platform"
      }
    },
    {
      "type": "node",
      "id": 325005114,
      "lat": 46.9969099,
      "lon": 28.859467,
      "tags": {
        "highway": "bus_stop",
        "name": "Piața Decebal",
        "name:ru": "Площадь Дечебала",
        "public_transport": "platform"
      }
    },
    {
      "type": "node",
      "id": 325005116,
      "lat": 46.9924216,
      "lon": 28.8588139,
      "tags": {
        "highway": "bus_stop",
        "name": "str. Zelinski",
        "name:ro": "str. Zelinski",
        "name:ru": "ул. Зелинского",
        "public_transport": "platform"
      }
    },
    {
      "type": "node",
      "id": 325005137,
      "lat": 46.9814212,
      "lon": 28.8499512,
      "tags": {
        "bus": "yes",
        "highway": "bus_stop",
        "loc_name": "Nunta",
        "name": "Strada Independenței",
        "name:ro": "Strada Independenței",
        "name:ru": "ул. Независимости (Индепенденцей)",
        "public_transport": "platform"
      }
    },
    {
      "type": "node",
      "id": 325005139,
      "lat": 46.9821302,
      "lon": 28.8515821,
      "tags": {
        "bus": "yes",
        "highway": "bus_stop",
        "name": "Strada Independenței",
        "name:ru": "Улица Индепенденцей",
        "public_transport": "platform"
      }
    },
    {
      "type": "node",
      "id": 325005143,
      "lat": 46.9786576,
      "lon": 28.8462786,
      "tags": {
        "bus": "yes",
        "highway": "bus_stop",
        "name": "Bulevardul Traian",
        "name:ru": "Бульвар Траяна",
        "public_transport": "platform"
      }
    },
    {
      "type": "node",
      "id": 325005156,
      "lat": 46.9827898,
      "lon": 28.8369193,
      "tags": {
        "highway": "bus_stop",
        "name": "str. Costiujeni",
        "name:ru": "Костюженская ул.",
        "public_transport": "platform"
      }
    },
    {
      "type": "node",
      "id": 325005170,
      "lat": 46.9861614,
      "lon": 28.8318,
      "tags": {
        "highway": "bus_stop",
        "name": "Spitalul pentru copii nr.3",
        "name:ru": "Детская клиническая больница №3",
        "public_transport": "platform"
      }
    },
    {
      "type": "node",
      "id": 325005172,
      "lat": 46.9895907,
      "lon": 28.826291,
      "tags": {
        "highway": "bus_stop",
        "name": "Policlinica Oncologică",
        "name:ru": "Онкологическая поликлиника",
        "public_transport": "platform"
      }
    },
    {
      "type": "node",
      "id": 325005177,
      "lat": 46.9900157,
      "lon": 28.8255463,
      "tags": {
        "highway": "bus_stop",
        "name": "Spitalul Oncologic",
        "name:ru": "Онкологическая больница",
        "public_transport": "platform"
      }
    },
    {
      "type": "node",
      "id": 340053720,
      "lat": 47.0189164,
      "lon": 28.8516557,
      "tags": {
        "highway": "bus_stop",
        "name": "bd. Dumitrie Cantemir",
        "name:ru": "пр-т Дмитрия Кантемира",
        "public_transport": "platform"
      }
    },
    {
      "type": "node",
      "id": 372466319,
      "lat": 46.9897664,
      "lon": 28.8529137,
      "tags": {
        "highway": "bus_stop",
        "name": "str. Teilor",
        "name:ru": "ул. Теилор",
        "public_transport": "platform"
      }
    },
    {
      "type": "node",
      "id": 376339304,
      "lat": 47.0145921,
      "lon": 28.8548825,
      "tags": {
        "highway": "bus_stop",
        "name": "Hotel Cosmos",
        "name:ru": "Гостиница \"Космос\"",
        "public_transport": "platform"
      }
    },
    {
      "type": "node",
      "id": 376339379,
      "lat": 47.0166431,
      "lon": 28.8474454,
      "tags": {
        "highway": "bus_stop",
        "name": "Ismail",
        "name:ja": "165空港行きミニバス",
        "name:ru": "Измаил",
        "public_transport": "platform"
      }
    },
    {
      "type": "node",
      "id": 376339542,
      "lat": 46.995716,
      "lon": 28.8009761,
      "tags": {
        "highway": "bus_stop",
        "name": "Schinoasa-1",
        "name:ru": "Скиноаса-1",
        "public_transport": "platform"
      }
    },
    {
      "type": "node",
      "id": 376339544,
      "lat": 46.9964113,
      "lon": 28.8014944,
      "tags": {
        "highway": "bus_stop",
        "name": "Sihastrului",
        "name:ru": "ул. Сихаструлуй",
        "public_transport": "platform"
      }
    },
    {
      "type": "node",
      "id": 376339546,
      "lat": 46.9943773,
      "lon": 28.7965228,
      "tags": {
        "highway": "bus_stop",
        "name": "Ialoveni",
        "name:ru": "Яловены",
        "public_transport": "platform"
      }
    },
    {
      "type": "node",
      "id": 376339551,
      "lat": 46.9948955,
      "lon": 28.812802,
      "tags": {
        "highway": "bus_stop",
        "name": "Campusul Academic",
        "name:ru": "Академический Городок",
        "public_transport": "platform"
      }
    },
    {
      "type": "node",
      "id": 376339555,
      "lat": 46.9857591,
      "lon": 28.8320468,
      "tags": {
        "highway": "bus_stop",
        "name": "Spitalul pentru copii nr.3",
        "name:ru": "Детская клиническая больница №3",
        "public_transport": "platform"
      }
    },
    {
      "type": "node",
      "id": 376339558,
      "lat": 46.9813742,
      "lon": 28.8395871,
      "tags": {
        "highway": "bus_stop",
        "name": "str. Costiujeni",
        "name:ru": "Костюженская ул.",
        "public_transport": "platform"
      }
    },
    {
      "type": "node",
      "id": 376339577,
      "lat": 46.9849817,
      "lon": 28.7780982,
      "tags": {
        "highway": "bus_stop",
        "name": "Scinoasa",
        "name:ru": "Скиноаса",
        "public_transport": "platform"
      }
    },
    {
      "type": "node",
      "id": 376339581,
      "lat": 46.9918108,
      "lon": 28.7892109,
      "tags": {
        "highway": "bus_stop",
        "name": "Gara Auto de Sud-Vest",
        "name:ru": "Юго-Западный автовокзал",
        "public_transport": "platform"
      }
    },
    {
      "type": "node",
      "id": 376339583,
      "lat": 46.9982602,
      "lon": 28.8066396,
      "tags": {
        "highway": "bus_stop",
        "name": "str. Pietrarilor",
        "public_transport": "platform"
      }
    },
    {
      "type": "node",
      "id": 376339585,
      "lat": 46.9916761,
      "lon": 28.7893361,
      "tags": {
        "highway": "bus_stop",
        "name": "Gara Auto de Sud-Vest",
        "name:ru": "Юго-Западная автостанция",
        "public_transport": "platform"
      }
    },
    {
      "type": "node",
      "id": 450993217,
      "lat": 46.9854534,
      "lon": 28.8561658,
      "tags": {
        "highway": "bus_stop",
        "name": "Bd. Traian",
        "name:ro": "Bd. Traian",
        "name:ru": "бульвар Траяна",
        "public_transport": "platform"
      }
    },
    {
      "type": "node",
      "id": 461612416,
      "lat": 46.9872003,
      "lon": 28.85643,
      "tags": {
        "highway": "bus_stop",
        "name": ".",
        "name:ru": "бульвар Дечебал",
        "public_transport": "platform"
      }
    },
    {
      "type": "node",
      "id": 461612418,
      "lat": 46.9891,
      "lon": 28.8580206,
      "tags": {
        "highway": "bus_stop",
        "name": "str. Brâncuși",
        "name:ru": "ул. Брынкушь",
        "public_transport": "platform"
      }
    },
    {
      "type": "node",
      "id": 1216583462,
      "lat": 47.0049971,
      "lon": 28.8420937,
      "tags": {
        "highway": "bus_stop",
        "name": "Spitalul Clinic Municipal nr.1",
        "name:ru": "Городская клиническая больница №1",
        "public_transport": "platform"
      }
    },
    {
      "type": "node",
      "id": 1216583516,
      "lat": 47.0152582,
      "lon": 28.8448887,
      "tags": {
        "highway": "bus_stop",
        "name": "Bulevardul Ștefan cel Mare și Sfânt",
        "name:ro": "Bulevardul Ștefan cel Mare și Sfânt",
        "name:ru": "бульвар Штефан чел Маре",
        "public_transport": "platform"
      }
    },
    {
      "type": "node",
      "id": 1216583538,
      "lat": 46.9924852,
      "lon": 28.8490534,
      "tags": {
        "highway": "bus_stop",
        "name": "Zelinski",
        "name:ru": "пр. Дачия",
        "public_transport": "platform"
      }
    },
    {
      "type": "node",
      "id": 1288238644,
      "lat": 47.0082643,
      "lon": 28.8598838,
      "tags": {
        "bus": "yes",
        "highway": "bus_stop",
        "name": "Palatul de Cultură al Feroviarilor",
        "name:ru": "Дворец Культуры Железнодорожников",
        "public_transport": "platform"
      }
    },
    {
      "type": "node",
      "id": 1363586642,
      "lat": 46.9786957,
      "lon": 28.8456093,
      "tags": {
        "bus": "yes",
        "highway": "bus_stop",
        "name": "str. Grenoble",
        "name:ro": "str. Grenoble 1",
        "name:ru": "ул. Гренобля 1",
        "public_transport": "platform",
        "wheelchair": "yes"
      }
    },
    {
      "type": "node",
      "id": 1484644406,
      "lat": 46.9873658,
      "lon": 28.7805635,
      "tags": {
        "highway": "bus_stop",
        "name": "str. Valea Radiului.",
        "public_transport": "platform"
      }
    },
    {
      "type": "node",
      "id": 4563611295,
      "lat": 46.9850534,
      "lon": 28.7779241,
      "tags": {
        "highway": "bus_stop",
        "name": "Schinoasa",
        "name:ro": "Schinoasa",
        "name:ru": "Скиноаса",
        "public_transport": "platform"
      }
    },
    {
      "type": "node",
      "id": 4563632529,
      "lat": 46.9936426,
      "lon": 28.7949467,
      "tags": {
        "highway": "bus_stop",
        "name": "Ialoveni",
        "name:ru": "Яловены",
        "public_transport": "platform"
      }
    },
    {
      "type": "node",
      "id": 4566543115,
      "lat": 47.0127423,
      "lon": 28.8414037,
      "tags": {
        "highway": "bus_stop",
        "name": "str. Ismail",
        "name:ru": "Измаильская ул.",
        "public_transport": "platform"
      }
    },
    {
      "type": "node",
      "id": 4575190856,
      "lat": 46.9815223,
      "lon": 28.8396855,
      "tags": {
        "highway": "bus_stop",
        "name": "Petre Ungureanu",
        "name:ru": "Петру Унгуряну",
        "public_transport": "platform"
      }
    }
  ]
}
